,Id,Name,AdmArea,District,Address,HelpPhone,Latitude,Longitude,NameSummer,понедельник,вторник,среда,четверг,пятница,суббота,воскресенье,Type
0,1,Спортивный комплекс «Алтуфьевский»,Северо-Восточный административный округ,Алтуфьевский район,"Инженерная улица, дом 5, корпус 1",(499) 900-90-18,55.879365655,37.578416167,бассейн плавательный 25-метровый крытый,07:30-23:00,07:30-23:00,07:30-23:00,07:30-23:00,07:30-23:00,10:00-21:15,10:00-21:15,pool_close
1,2,Фитнес-клуб «Ворлд Класс» Житная,Центральный административный округ,район Якиманка,"Житная улица, дом 14, строение 2",(495) 771-66-00,55.731530896,37.615727158,бассейн плавательный крытый,07:00-01:00,07:00-01:00,07:00-01:00,07:00-01:00,07:00-01:00,09:00-23:55,09:00-23:55,pool_close
2,3,Спортивный комплекс Московского государственного технического университета им Н.Э. Баумана,Центральный административный округ,Басманный район,"Госпитальная набережная, дом 4, строение 1",(499) 263-22-37,55.772210408,37.697757891,бассейн плавательный 50-метровый крытый,08:00-20:00,08:00-20:00,08:00-20:00,08:00-20:00,08:00-20:00,08:00-20:00,08:00-20:00,pool_close
3,4,Бассейн Российского университета транспорта на Новосущевской,Северо-Восточный административный округ,район Марьина Роща,"Новосущёвская улица, дом 24, строение 1",(495) 684-21-35,55.790149853,37.604598499,бассейн плавательный 25-метровый крытый,07:00-23:00,07:00-23:00,07:00-23:00,07:00-23:00,07:00-23:00,10:00-22:00,10:00-22:00,pool_close
4,5,Фитнес-клуб «Ворлд Класс» Тульская,Южный административный округ,Донской район,"Варшавское шоссе, дом 12А",(495) 633-03-03,55.69709159,37.617859721,бассейн плавательный 25-метровый крытый,07:00-00:00,07:00-00:00,07:00-00:00,07:00-00:00,07:00-00:00,09:00-00:00,09:00-00:00,pool_close
5,6,Фитнес-клуб «Пирамида»,Юго-Западный административный округ,Академический район,"улица Дмитрия Ульянова, дом 31",(495) 128-89-69,55.684695469,37.585458055,бассейн плавательный крытый,06:00-00:00,06:00-00:00,06:00-00:00,06:00-00:00,06:00-00:00,08:00-00:00,08:00-00:00,pool_close
6,7,Спортивный комплекс «Акватория Тушино»,Северо-Западный административный округ,район Северное Тушино,"улица Вилиса Лациса, домовладение 8",(495) 681-01-48,55.865460793,37.427182454,бассейн плавательный 25-ти метровый крытый,07:00-23:30,07:00-23:30,07:00-23:30,07:00-23:30,07:00-23:30,07:45-22:45,07:45-22:45,pool_close
7,8,Спортивный комплекс «Аквамарин»,Северо-Западный административный округ,район Митино,"улица Рословка, домовладение 5",(495) 681-01-48,55.831410714,37.366581437,бассейн плавательный 25-ти метровый крытый,07:00-23:30,07:00-23:30,07:00-23:30,07:00-23:30,07:00-23:30,07:45-22:45,07:45-22:45,pool_close
8,9,"Спортивный комплекс «Косино», ул. Николая Старостина, д.8А",Восточный административный округ,район Косино-Ухтомский,"улица Николая Старостина, дом 8А",(495) 513-12-90,55.729769593,37.853329058,бассейн плавательный 25-метровый крытый,07:00-23:00,07:00-23:00,07:00-23:00,07:00-23:00,07:00-23:00,07:00-23:00,07:00-23:00,pool_close
9,10,"Спортивный комплекс «Косино», ул. Николая Старостина, д.8А",Восточный административный округ,район Косино-Ухтомский,"улица Николая Старостина, дом 8А",(495) 513-12-90,55.729669696,37.85356241,бассейн плавательный площадью более 60 кв.м крытый,07:00-23:00,07:00-23:00,07:00-23:00,07:00-23:00,07:00-23:00,07:00-23:00,07:00-23:00,pool_close
10,11,Бассейн «Касатка»,Восточный административный округ,район Ивановское,"улица Молостовых, дом 10А, строение 5",(495) 681-01-48,55.759760567,37.829637295,бассейн плавательный 25-метровый крытый,07:00-22:30,07:00-22:30,07:00-22:30,07:00-22:30,07:00-22:30,09:00-21:30,09:00-20:45,pool_close
11,12,Спортивный комплекс «Олимпия»,Восточный административный округ,район Новогиреево,"Фрязевская улица, дом 13А",(495) 681-01-48,55.74671077,37.826056677,бассейн плавательный 25-метровый крытый,07:00-22:30,07:00-22:30,07:00-22:30,07:00-22:30,07:00-22:30,09:00-21:00,09:00-21:00,pool_close
12,13,Спортивный комплекс «Вешняки»,Восточный административный округ,район Вешняки,"Косинская улица, дом 12Б",(495) 681-01-48,55.724707041,37.83375421,бассейн плавательный площадью более 60 кв. м крытый,07:00-23:00,07:00-23:00,07:00-23:00,07:00-23:00,07:00-23:00,08:30-21:30,08:30-21:30,pool_close
13,14,Спортивный комплекс «Вешняки»,Восточный административный округ,район Вешняки,"Косинская улица, дом 12Б",(495) 681-01-48,55.724705969,37.833718548,бассейн плавательный 25-метровый крытый,07:00-23:00,07:00-23:00,07:00-23:00,07:00-23:00,07:00-23:00,08:30-21:30,08:30-21:30,pool_close
14,15,Спортивный комплекс «Альбатрос»,Восточный административный округ,район Косино-Ухтомский,"Лухмановская улица, дом 19А",(495) 681-01-48,55.723127564,37.898094554,бассейн плавательный 25-метровый крытый,07:00-23:00,07:00-23:00,07:00-23:00,07:00-23:00,07:00-23:00,08:30-21:30,08:30-21:30,pool_close
15,16,Фитнес-клуб «Х-Фит Алтуфьево»,Северо-Восточный административный округ,район Лианозово,"Угличская улица, дом 13, строение 1",(499) 682-72-66,55.901756039,37.565923199,бассейн плавательный 25-метровый крытый,07:00-00:00,07:00-00:00,07:00-00:00,07:00-00:00,07:00-00:00,08:00-23:00,08:00-23:00,pool_close
16,17,Спортивный комплекс «Есенинский (физкультурно-оздоровительный комплекс с бассейном),Юго-Восточный административный округ,район Кузьминки,"Есенинский бульвар, дом 9, корпус 2, строение 1",(499) 746-96-20,55.700618579,37.781521733,бассейн плавательный 25-метровый крытый,08:00-22:00,08:00-22:00,08:00-22:00,08:00-22:00,08:00-22:00,08:00-22:00,08:00-22:00,pool_close
17,18,Спортивный комплекс «Парус»,Юго-Восточный административный округ,район Выхино-Жулебино,"Привольная улица, дом 42",(495) 681-01-48,55.692336791,37.849479373,бассейн плавательный площадью более 60-ти кв.м крытый,06:30-23:00,06:30-23:00,06:30-23:00,06:30-23:00,06:30-23:00,06:30-23:00,06:30-23:00,pool_close
18,19,"Спортивный комплекс «Меридиан», к.3",Юго-Восточный административный округ,Нижегородский район,"Рязанский проспект, дом 7, корпус 3",(495) 681-01-48,55.731813587,37.737579592,бассейн плавательный площадью более 60-ти кв.м крытый,07:00-22:00,07:00-22:00,07:00-22:00,07:00-22:00,07:00-22:00,07:00-22:00,07:00-22:00,pool_close
19,20,Фитнес-клуб «Х-Фит Монарх»,Северный административный округ,район Беговой,"Ленинградский проспект, дом 31А, строение 1",(495) 232-40-22,55.783382236,37.560022674,бассейн плавательный 25-метровый крытый,07:00-23:55,07:00-23:55,07:00-23:55,07:00-23:55,07:00-23:55,08:00-23:00,08:00-23:00,pool_close
20,21,Спортивный комплекс «Альбатрос Внуково»,Западный административный округ,район Внуково,"Рассказовская улица, дом 31",(495) 681-01-48,55.613481902,37.310432124,бассейн плавательный 25-метровый крытый,07:00-22:30,07:00-22:30,07:00-22:30,07:00-22:30,07:00-22:30,07:00-22:30,07:00-22:30,pool_close
21,22,Бассейн «Жемчужина»,Северо-Западный административный округ,район Митино,"улица Генерала Белобородова, дом 29",(495) 794-41-08,55.832147983,37.356221445,бассейн плавательный 25-метровый крытый,06:45-22:15,06:45-22:15,06:45-22:15,06:45-22:15,06:45-22:15,06:45-22:15,08:00-21:00,pool_close
22,23,Бассейн «Жемчужина»,Северо-Западный административный округ,район Митино,"улица Генерала Белобородова, дом 29",(495) 794-41-08,55.832135907,37.356747158,бассейн плавательный крытый,06:45-22:15,06:45-22:15,06:45-22:15,06:45-22:15,06:45-22:15,06:45-22:15,08:00-21:00,pool_close
23,24,Спортивный комплекс «Бусиново»,Северный административный округ,район Западное Дегунино,"улица Маршала Федоренко, дом 14А",(495) 486-15-91,55.882459779,37.48966084,бассейн плавательный 25-метровый крытый,06:30-22:00,06:30-22:00,06:30-22:00,06:30-22:00,06:30-22:00,07:00-22:00,07:45-21:15,pool_close
24,25,Спортивный комплекс «Бескудниково»,Северный административный округ,Бескудниковский район,"Бескудниковский бульвар, дом 12А",(499) 488-51-64,55.862249424,37.563778426,бассейн плавательный 25-метровый крытый,07:00-23:00,07:00-23:00,07:00-23:00,07:00-23:00,07:00-23:00,07:00-23:00,07:00-23:00,pool_close
25,26,Бассейн «Молния»,Северный административный округ,Дмитровский район,"Лобненская улица, дом 13А, строение 1",(495) 483-11-27,55.887209411,37.535087207,бассейн плавательный 25-метровый крытый,06:30-23:00,06:30-23:00,06:30-23:00,06:30-23:00,06:30-23:00,07:30-22:00,07:30-22:00,pool_close
26,27,"Спортивный комплекс «Умка», д. 14, стр. 1",Северный административный округ,район Ховрино,"Левобережная улица, дом 14, строение 1",(495) 681-01-48,55.878607783,37.469727037,бассейн плавательный 25-метровый крытый,06:00-23:00,06:00-23:00,06:00-23:00,06:00-23:00,06:00-23:00,06:00-23:00,06:00-23:00,pool_close
27,28,Фитнес-клуб «Энигма»,Северо-Западный административный округ,район Хорошёво-Мнёвники,"Живописная улица, дом 21, строение 1",(499) 728-53-90,55.790019193,37.452886087,бассейн плавательный 50-метровый крытый,08:00-20:00,08:00-20:00,08:00-20:00,08:00-20:00,08:00-20:00,08:00-20:00,08:00-20:00,pool_close
28,29,Спортивный комплекс «Восход Солнцево»,Западный административный округ,район Солнцево,"улица Щорса, дом 6",(495) 681-01-48,55.646734225,37.403217971,бассейн плавательный 25-ти метровый крытый,07:00-23:00,07:00-23:00,07:00-23:00,07:00-23:00,07:00-23:00,07:00-23:00,07:00-23:00,pool_close
29,30,Физкультурно-оздоровительный комплекс с бассейном Московской теннисной академии,Западный административный округ,район Тропарёво-Никулино,"улица Коштоянца, дом 20",(495) 430-82-38,55.675248365,37.477167293,бассейн плавательный 25-метровый крытый,07:00-23:00,07:00-23:00,07:00-23:00,07:00-23:00,07:00-23:00,08:00-22:00,08:00-22:00,pool_close
30,31,Бассейн плавательный «ЦСиО «Самбо-70» отделение «Ясенево»,Юго-Западный административный округ,район Ясенево,"Вильнюсская улица, дом 6, корпус 1",(495) 427-95-41,55.6048187,37.519132777,бассейн плавательный 25-метровый крытый,07:00-23:00,07:00-23:00,07:00-23:00,07:00-23:00,07:00-23:00,07:00-23:00,07:00-23:00,pool_close
31,32,Физкультурно-оздоровительный комплекс с бассейном «Спортивно-адаптивная школа»,Северо-Восточный административный округ,район Бибирево,"улица Корнейчука, дом 28, корпус 2",(495) 707-05-83,55.898884162,37.617800183,бассейн плавательный 25-метровый крытый,07:00-22:00,07:00-22:00,07:00-22:00,07:00-22:00,07:00-22:00,07:00-22:00,07:00-22:00,pool_close
32,33,Физкультурно-оздоровительный комплекс «Южное Бутово»,Юго-Западный административный округ,район Южное Бутово,"улица Поляны, дом 35",(495) 716-40-27,55.550304601,37.548247623,"бассейн плавательный 25-метровый крытый, «Большой бассейн»",07:00-23:00,07:00-23:00,07:00-23:00,07:00-23:00,07:00-23:00,07:00-23:00,07:00-23:00,pool_close
33,34,Физкультурно-оздоровительный комплекс «Южное Бутово»,Юго-Западный административный округ,район Южное Бутово,"улица Поляны, дом 35",(495) 716-40-27,55.550380628,37.548574853,"бассейн плавательный площадью более 60 кв.м крытый, «Малый бассейн»",07:00-23:00,07:00-23:00,07:00-23:00,07:00-23:00,07:00-23:00,07:00-23:00,07:00-23:00,pool_close
34,35,Спортивный комплекс «Гармония»,Юго-Западный административный округ,Обручевский район,"улица Саморы Машела, дом 6, корпус 4",(495) 681-01-48,55.646871787,37.498637454,бассейн плавательный 25-метровый крытый,07:00-23:00,07:00-23:00,07:00-23:00,07:00-23:00,07:00-23:00,07:00-23:00,08:00-22:00,pool_close
35,36,Спортивный комплекс «Гармония»,Юго-Западный административный округ,Обручевский район,"улица Саморы Машела, дом 6, корпус 4",(495) 681-01-48,55.646741621,37.498945908,бассейн плавательный площадью более 60 кв. м крытый,07:00-23:00,07:00-23:00,07:00-23:00,07:00-23:00,07:00-23:00,07:00-23:00,08:00-22:00,pool_close
36,37,Спортивный комплекс «Полярная звезда»,Северо-Восточный административный округ,район Северное Медведково,"проезд Шокальского, дом 45, корпус 3",(495) 681-01-48,55.883565471,37.653666572,бассейн плавательный 25-метровый крытый,06:30-23:30,06:30-23:30,06:30-23:30,06:30-23:30,06:30-23:30,06:30-23:30,06:30-23:30,pool_close
37,38,Спортивный комплекс «Измайлово»,Восточный административный округ,район Северное Измайлово,"11-я Парковая улица, дом 49",(499) 463-54-66,55.805684301,37.803977087,бассейн плавательный 25-метровый крытый,07:00-23:00,07:00-23:00,07:00-23:00,07:00-23:00,07:00-23:00,07:00-23:00,07:00-23:00,pool_close
38,39,Спортивный комплекс «Надежда»,Юго-Западный административный округ,Ломоносовский район,"улица Крупской, дом 1, корпус 1",(495) 681-01-48,55.680444783,37.529337355,бассейн плавательный площадью более 60 кв.м крытый,07:00-22:00,07:00-22:00,07:00-22:00,07:00-22:00,07:00-22:00,07:00-22:00,07:00-22:00,pool_close
39,40,Фитнес-клуб «Х-Фит Правда»,Северный административный округ,район Беговой,"улица Правды, дом 21, строение 2",(495) 966-14-12,55.787831999,37.579999525,"бассейн плавательный крытый, детский",07:00-23:55,07:00-23:55,07:00-23:55,07:00-23:55,07:00-23:55,09:00-22:00,09:00-22:00,pool_close
40,41,Фитнес-клуб «Сейнт Москоу Фитнес»,Северный административный округ,район Беговой,"3-я улица Ямского Поля, дом 2, корпус 4",(495) 323-94-34,55.782430613,37.581238813,бассейн плавательный 50-метровый крытый,круглосуточно,круглосуточно,круглосуточно,круглосуточно,круглосуточно,круглосуточно,круглосуточно,pool_close
41,42,Фитнес-клуб «Х-Фит Авиамоторная»,Юго-Восточный административный округ,район Лефортово,"Авиамоторная улица, дом 10, корпус 1",(495) 116-89-88,55.754053,37.714604,бассейн плавательный 25-метровый крытый,07:00-23:55,07:00-23:55,07:00-23:55,07:00-23:55,07:00-23:55,08:00-23:00,08:00-23:00,pool_close
42,43,Бассейн «Орбита»,Зеленоградский административный округ,район Савёлки,"город Зеленоград, Озёрная аллея, дом 6",(499) 735-17-55,55.987054964,37.226218234,бассейн плавательный 25-метровый крытый,06:00-23:00,06:00-23:00,06:00-23:00,06:00-23:00,06:00-23:00,06:00-23:00,06:00-23:00,pool_close
43,44,Бассейн плавательный «ЦСиО «Самбо-70» отделение «Юность»,Юго-Западный административный округ,район Тёплый Стан,"улица Академика Бакулева, дом 5",(495) 438-89-55,55.640719789,37.483847878,бассейн плавательный 25-метровый крытый,06:45-23:00,06:45-23:00,06:45-23:00,06:45-23:00,06:45-23:00,06:45-23:00,06:45-21:00,pool_close
44,45,Спортивный комплекс «Парус»,Юго-Восточный административный округ,район Выхино-Жулебино,"Привольная улица, дом 42",(495) 681-01-48,55.691903381,37.849575118,бассейн плавательный 25-ти метровый крытый,06:30-23:00,06:30-23:00,06:30-23:00,06:30-23:00,06:30-23:00,06:30-23:00,06:30-23:00,pool_close
45,46,"Спортивный комплекс «Меридиан», к.3",Юго-Восточный административный округ,Нижегородский район,"Рязанский проспект, дом 7, корпус 3",(495) 681-01-48,55.731882207,37.73806256,бассейн плавательный 25-ти метровый крытый,07:00-22:00,07:00-22:00,07:00-22:00,07:00-22:00,07:00-22:00,07:00-22:00,07:00-22:00,pool_close
46,47,Спортивный комплекс «Южнопортовый»,Юго-Восточный административный округ,Южнопортовый район,"улица Трофимова, дом 30, корпус 3",(495) 681-01-48,55.701346242,37.683352952,бассейн плавательный 25-метровый крытый,07:00-22:30,07:00-22:30,07:00-22:30,07:00-22:30,07:00-22:30,07:00-22:30,07:00-22:30,pool_close
47,48,Физкультурно-оздоровительный комплекс с бассейном «Радужный»,Западный административный округ,район Ново-Переделкино,"Чоботовская улица, дом 4",(495) 733-22-77,55.645615262,37.35342666,бассейн плавательный 50-метровый крытый,07:00-23:00,07:00-23:00,07:00-23:00,07:00-23:00,07:00-23:00,07:00-23:00,07:00-23:00,pool_close
48,49,Дворец спорта «Янтарь»,Северо-Западный административный округ,район Строгино,"улица Маршала Катукова, дом 22",(499) 252-98-08,55.804746577,37.412085065,бассейн плавательный 25-метровый крытый,06:30-23:00,06:30-23:00,06:30-23:00,06:30-23:00,06:30-23:00,06:30-23:00,06:30-23:00,pool_close
49,50,Дворец спорта «Москвич»,Юго-Восточный административный округ,район Текстильщики,"Люблинская улица, дом 15/46, строение 7",(499) 179-31-23,55.707028313,37.731626632,бассейн плавательный 50-метровый крытый,06:45-23:00,06:45-23:00,06:45-23:00,06:45-23:00,06:45-23:00,06:45-23:00,06:45-23:00,pool_close
50,51,Спортивный комплекс образовательного учреждения «Центр спорта и образования Самбо-70»,Юго-Западный административный округ,район Тёплый Стан,"улица Академика Виноградова, дом 4Б",(495) 339-69-44,55.631864791,37.488384219,бассейн плавательный 25-метровый крытый,08:00-21:00,08:00-21:00,08:00-21:00,08:00-21:00,08:00-21:00,08:00-21:00,08:00-21:00,pool_close
51,52,Фитнес-клуб «Сейнт Москоу Фитнес»,Северный административный округ,район Беговой,"3-я улица Ямского Поля, дом 2, корпус 4",(495) 323-94-34,55.782507701,37.581104703,бассейн плавательный крытый,круглосуточно,круглосуточно,круглосуточно,круглосуточно,круглосуточно,круглосуточно,круглосуточно,pool_close
52,53,Фитнес клуб «Роял Веллнесс Клаб»,Западный административный округ,район Дорогомилово,"Кутузовский проспект, дом 2/1, строение 1",(495) 786-70-00,55.751157912,37.565863204,бассейн плавательный 50-ти метровый крытый,07:00-00:00,07:00-00:00,07:00-00:00,07:00-00:00,07:00-00:00,08:00-00:00,08:00-00:00,pool_close
53,54,Московский Гольф Клуб в Крылатском,Западный административный округ,район Крылатское,"Островная улица, дом 2",(495) 234-74-51,55.761842423,37.458279975,бассейн плавательный 25-метровый крытый,09:00-21:00,09:00-21:00,09:00-21:00,09:00-21:00,09:00-21:00,09:00-21:00,09:00-21:00,pool_close
54,55,Фитнес-клуб «Магнето Фитнесс»,Западный административный округ,район Ново-Переделкино,"6-я улица Новые Сады, дом 2, корпус 1",(495) 500-01-01,55.65211105,37.348886826,бассейн плавательный 25-метровый крытый,06:00-01:00,06:00-01:00,06:00-01:00,06:00-01:00,06:00-01:00,08:00-01:00,08:00-01:00,pool_close
55,56,Фитнес-клуб «Премьер-спорт»,Западный административный округ,район Раменки,"улица Улофа Пальме, дом 5, строение 2",(499) 112-22-98,55.717237991,37.50984684,бассейн плавательный 25-метровый крытый,07:00-23:00,07:00-23:00,07:00-23:00,07:00-23:00,07:00-23:00,09:00-23:00,09:00-23:00,pool_close
56,57,Фитнес-клуб «Ворлд класс» Кунцево,Западный административный округ,район Кунцево,"улица Ивана Франко, дом 16",(495) 135-09-10,55.728441926,37.438183878,бассейн плавательный 25-метровый крытый,07:00-00:00,07:00-00:00,07:00-00:00,07:00-00:00,07:00-00:00,09:00-00:00,09:00-00:00,pool_close
57,58,Дворец водных видов спорта «Лужники»,Центральный административный округ,район Хамовники,"улица Лужники, дом 24, строение 4",(495) 637-03-60,55.713243782,37.558158855,бассейн плавательный 50-метровый крытый,07:00-23:00,07:00-23:00,07:00-23:00,07:00-23:00,07:00-23:00,07:00-23:00,07:00-23:00,pool_close
58,59,Спортивный комплекс «Малино»,Зеленоградский административный округ,район Старое Крюково,"город Зеленоград, корпус 860",(495) 681-01-48,55.973175926,37.199710556,бассейн плавательный площадью более 60-ти кв.м крытый,07:00-23:00,07:00-23:00,07:00-23:00,07:00-23:00,07:00-23:00,07:00-23:00,07:00-23:00,pool_close
59,60,Фитнес-клуб «Ленин»,Северный административный округ,Головинский район,"Ленинградское шоссе, дом 47",(980) 697-66-87,55.845544673,37.475659782,бассейн плавательный 50-метровый крытый,круглосуточно,круглосуточно,круглосуточно,круглосуточно,круглосуточно,круглосуточно,круглосуточно,pool_close
60,61,Спортивный комплекс «Изумрудный»,Юго-Западный административный округ,район Южное Бутово,"Южнобутовская улица, дом 96",(495) 681-01-48,55.531597267,37.511220089,бассейн плавательный 25-ти метровый крытый,07:00-23:00,07:00-23:00,07:00-23:00,07:00-23:00,07:00-23:00,07:00-23:00,08:00-22:00,pool_close
61,62,Спортивный комплекс структурного подразделения «Спортивная школа олимпийского резерва «Глория» имени Ю.И. Бирюкова» Московской баскетбольной академии,Центральный административный округ,Пресненский район,"Зоологическая улица, дом 26А",(499) 766-23-71,55.765789757,37.584138108,бассейн плавательный 25-метровый крытый,08:00-22:00,08:00-22:00,08:00-22:00,08:00-22:00,08:00-22:00,08:00-22:00,08:00-22:00,pool_close
62,63,Спортивный комплекс Московской сельскохозяйственной академии им. К.А. Тимирязева,Северный административный округ,Тимирязевский район,"Лиственничная аллея, дом 12Б",(495) 976-20-53,55.833909953,37.565362834,бассейн плавательный 25-метровый крытый,18:45-21:00,18:45-21:00,18:45-21:00,18:45-21:00,18:45-21:00,18:45-21:00,18:45-21:00,pool_close
63,64,Фитнес клуб «Арт спорт»,Северный административный округ,район Западное Дегунино,"Ангарская улица, дом 24А",(499) 110-41-56,55.876455252,37.519499504,бассейн плавательный 25-ти метровый крытый,07:00-23:55,07:00-23:55,07:00-23:55,07:00-23:55,07:00-23:55,08:00-23:55,08:00-23:55,pool_close
64,65,"Многофункциональный спортивный комплекс «Формула воды», ул. Ибрагимова",Восточный административный округ,район Соколиная Гора,"улица Ибрагимова, дом 32",(495) 681-01-48,55.788702345,37.730781047,"бассейн плавательный 25-метровый крытый №2, «Бассейн №12»",06:45-22:00,06:45-22:00,06:45-22:00,06:45-22:00,06:45-22:00,06:45-22:00,07:45-20:00,pool_close
65,66,Фитнес-клуб «Голдс Джим Динамо»,Северный административный округ,район Беговой,"Ленинградский проспект, дом 31, строение 30",(495) 931-96-16,55.78408571,37.562087323,бассейн плавательный 25-метровый крытый,07:00-23:00,07:00-23:00,07:00-23:00,07:00-23:00,07:00-23:00,09:00-22:00,09:00-22:00,pool_close
66,67,Фитнес-клуб «Ворлд Класс Триумф»,Северный административный округ,Хорошёвский район,"Чапаевский переулок, дом 3",(495) 788-00-00,55.798401113,37.520471995,бассейн плавательный 25-метровый крытый,08:00-21:00,08:00-21:00,08:00-21:00,08:00-21:00,08:00-21:00,08:00-21:00,08:00-21:00,pool_close
67,68,Фитнес-клуб «Ворлд Класс» Варшавка,Южный административный округ,район Чертаново Северное,"Варшавское шоссе, дом 122А",(495) 788-00-00,55.62956337,37.615916946,бассейн плавательный 25-метровый крытый,07:00-00:00,07:00-00:00,07:00-00:00,07:00-00:00,07:00-00:00,09:00-00:00,09:00-00:00,pool_close
68,69,Фитнес-клуб «Притяжение»,Южный административный округ,район Чертаново Северное,"Чертановская улица, дом 2, сооружение 1",(495) 020-05-15,55.636423,37.603582,бассейн плавательный 25-метровый крытый,круглосуточно,круглосуточно,круглосуточно,круглосуточно,круглосуточно,круглосуточно,круглосуточно,pool_close
69,70,Фитнес-клуб «Х-Фит Флотская»,Северный административный округ,район Левобережный,"Флотская улица, дом 5, корпус Б",(495) 748-16-44,55.851928193,37.491835422,бассейн плавательный 25-метровый крытый,07:00-23:59,07:00-23:59,07:00-23:59,07:00-23:59,07:00-23:59,08:00-23:00,08:00-23:00,pool_close
70,71,Учебно-спортивный центр «Труд»,Южный административный округ,Донской район,"Варшавское шоссе, дом 14, строение 1",(495) 958-14-70,55.69596924,37.619780046,бассейн плавательный 50-метровый крытый,07:00-22:30,07:00-22:30,07:00-22:30,07:00-22:30,07:00-22:30,07:00-21:15,09:00-21:00,pool_close
71,72,Спортивный комплекс «Союз»,Юго-Западный административный округ,район Тёплый Стан,"улица Тёплый Стан, дом 9, корпус 9",(495) 681-01-48,55.61868151,37.492903222,бассейн плавательный 25-ти метровый крытый,07:00-22:00,07:00-22:00,07:00-22:00,07:00-22:00,07:00-22:00,07:00-22:00,07:00-22:00,pool_close
72,73,Фитнес-клуб «Доктор Лодер»,Северный административный округ,Войковский район,"Ленинградское шоссе, дом 37, корпус 1",(495) 966-00-06,55.831992422,37.48338937,бассейн плавательный 25-метровый крытый,06:00-01:00,06:00-01:00,06:00-01:00,06:00-01:00,06:00-01:00,08:00-23:55,08:00-23:55,pool_close
73,74,Бассейн «Южный»,Южный административный округ,район Бирюлёво Восточное,"Лебедянская улица, дом 14, корпус 4",(499) 613-94-76,55.584091781,37.674207189,бассейн плавательный 25-метровый крытый,06:45-21:45,06:45-21:45,06:45-21:45,06:45-21:45,06:45-21:45,07:30-21:45,08:15-21:45,pool_close
74,75,Спортивный комплекс с бассейном «На Ереванской»,Южный административный округ,район Царицыно,"Ереванская улица, дом 20, корпус 2, строение 1",(499) 613-94-76,55.628593462,37.673335776,бассейн плавательный 25-метровый крытый,07:00-21:30,07:00-21:30,07:00-21:30,07:00-21:30,07:00-21:30,07:00-21:30,07:00-21:30,pool_close
75,76,Спортивный комплекс «Академический»,Северный административный округ,район Коптево,"Большая Академическая улица, дом 77А, строение 3",(495) 681-01-48,55.843871277,37.55206015,бассейн плавательный 25-ти метровый крытый,06:45-22:30,06:45-22:30,06:45-22:30,06:45-22:30,06:45-22:30,06:45-22:30,08:15-21:45,pool_close
76,77,Спортивный комплекс «Динамо»,Северный административный округ,Войковский район,"Ленинградское шоссе, дом 39, строение 53",(495) 981-60-72,55.837191733,37.479234363,бассейн плавательный 50-метровый крытый,07:00-22:45,07:00-22:45,07:00-22:45,07:00-22:45,07:00-22:45,08:30-22:45,08:30-19:45,pool_close
77,78,Фитнес-клуб «Зебра» Лихоборы,Северный административный округ,Тимирязевский район,"3-й Нижнелихоборский проезд, дом 1, строение 16",(495) 182-01-01,55.847888692,37.564082655,бассейн плавательный 25-метровый крытый,круглосуточно,круглосуточно,круглосуточно,круглосуточно,круглосуточно,круглосуточно,круглосуточно,pool_close
78,79,Фитнес-клуб «Зебра» Бабушкинская,Северо-Восточный административный округ,Бабушкинский район,"Енисейская улица, владение 14",(495) 150-37-70,55.875850217,37.665939061,бассейн плавательный 25-метровый крытый,круглосуточно,круглосуточно,круглосуточно,круглосуточно,круглосуточно,круглосуточно,круглосуточно,pool_close
79,80,Фитнес-клуб «Ворлд класс Метрополис»,Северный административный округ,Войковский район,"Ленинградское шоссе, дом 16А, строение 7",(495) 788-00-00,55.823429423,37.49619703,бассейн плавательный крытый,07:00-00:00,07:00-00:00,07:00-00:00,07:00-00:00,07:00-00:00,09:00-00:00,09:00-00:00,pool_close
80,81,Фитнес-клуб «Облака» Лётчика Бабушкина,Северо-Восточный административный округ,Лосиноостровский район,"улица Лётчика Бабушкина, дом 32, корпус 3",(499) 283-32-48,55.870881662,37.677296042,бассейн плавательный площадью более 60 кв.м крытый,07:00-23:55,07:00-23:55,07:00-23:55,07:00-23:55,07:00-23:55,07:00-23:55,07:00-23:55,pool_close
81,82,Фитнес-клуб «Прайд клуб»,Северный административный округ,Тимирязевский район,"улица Всеволода Вишневского, дом 4Б",(495) 150-17-70,55.814120006,37.574037118,бассейн плавательный крытый,07:00-23:00,07:00-23:00,07:00-23:00,07:00-23:00,07:00-23:00,09:00-23:00,09:00-23:00,pool_close
82,83,Фитнес-клуб «Фешин»,Южный административный округ,Даниловский район,"улица Ленинская Слобода, дом 19, корпус 1",(495) 324-10-93,55.708310664,37.651983486,бассейн плавательный площадью более 60 кв.м крытый,круглосуточно,круглосуточно,круглосуточно,круглосуточно,круглосуточно,круглосуточно,круглосуточно,pool_close
83,84,Физкультурно-оздоровительный комплекс с бассейном Школы циркового искусства им. Ю.В. Никулина,Юго-Восточный административный округ,район Кузьминки,"Волгоградский проспект, дом 169, корпус 2, строение 2",(495) 919-29-31,55.704220313,37.790462367,бассейн плавательный 25-метровый крытый,закрыто,10:00-21:00,10:00-21:00,10:00-21:00,10:00-21:00,10:00-20:00,10:00-21:00,pool_close
84,85,Бассейн плавательный Московской академии фигурного катания на коньках,Северо-Восточный административный округ,район Южное Медведково,"Заповедная улица, дом 1",(499) 790-30-77,55.866869636,37.632458605,бассейн плавательный 25-метровый крытый,07:00-22:45,07:00-22:45,07:00-22:45,07:00-22:45,07:00-22:45,07:00-22:45,07:00-22:45,pool_close
85,86,Фитнес-клуб «Аматус Фемили Фитнес»,Северо-Восточный административный округ,Останкинский район,"улица Академика Королёва, дом 13, строение 5",(495) 001-00-00,55.820201161,37.617899941,бассейн плавательный 25-метровый крытый,06:00-00:00,06:00-00:00,06:00-00:00,06:00-00:00,06:00-00:00,06:00-00:00,06:00-00:00,pool_close
86,87,Физкультурно-оздоровительный комплекс с бассейном «Радужный»,Западный административный округ,район Ново-Переделкино,"Чоботовская улица, дом 4",(495) 733-22-77,55.645364981,37.353922869,бассейн плавательный площадью более 60 кв.м крытый,07:00-23:00,07:00-23:00,07:00-23:00,07:00-23:00,07:00-23:00,07:00-23:00,07:00-23:00,pool_close
87,88,Спортивный комплекс «Дельфин» (плавательный бассейн),Юго-Восточный административный округ,район Некрасовка,"2-я Вольская улица, дом 16, корпус 3",(495) 706-75-45,55.685508291,37.9236495,бассейн плавательный крытый,08:00-21:00,08:00-21:00,08:00-21:00,08:00-21:00,08:00-21:00,08:00-21:00,08:00-21:00,pool_close
88,89,Физкультурно-оздоровительный комплекс с бассейном Школы циркового искусства им. Ю.В. Никулина,Юго-Восточный административный округ,район Кузьминки,"Волгоградский проспект, дом 169, корпус 2, строение 2",(495) 919-29-31,55.704220313,37.790462367,бассейн плавательный площадью более 60 кв.м крытый,закрыто,10:00-21:00,10:00-21:00,10:00-21:00,10:00-21:00,10:00-20:00,10:00-21:00,pool_close
89,90,Фитнес-клуб «СССР» Нагатинская,Южный административный округ,район Нагатино-Садовники,"Хлебозаводский проезд, дом 7, строение 10",(495) 120-31-46,55.670505,37.633965,бассейн плавательный 25-метровый крытый,круглосуточно,круглосуточно,круглосуточно,круглосуточно,круглосуточно,круглосуточно,круглосуточно,pool_close
90,91,Фитнес-клуб «Ве Джим» Митинская,Северо-Западный административный округ,район Митино,"Митинская улица, дом 19",(495) 122-20-30,55.842280299,37.373704413,бассейн плавательный 25-метровый крытый,07:00-00:00,07:00-00:00,07:00-00:00,07:00-00:00,07:00-00:00,09:00-22:00,09:00-22:00,pool_close
91,92,Фитнес-клуб «Ворлд класс лайт» Митино,Северо-Западный административный округ,район Митино,"Пятницкое шоссе, дом 29, корпус 5",(495) 786-30-00,55.850819103,37.359359249,бассейн плавательный 25-метровый крытый,07:00-00:00,07:00-00:00,07:00-00:00,07:00-00:00,07:00-00:00,09:00-00:00,09:00-00:00,pool_close
92,93,Дворец спорта «Янтарь»,Северо-Западный административный округ,район Строгино,"улица Маршала Катукова, дом 22",(499) 252-98-08,55.804075842,37.411548623,бассейн плавательный крытый,06:30-23:00,06:30-23:00,06:30-23:00,06:30-23:00,06:30-23:00,06:30-23:00,06:30-23:00,pool_close
93,94,Фитнес клуб «Акваферст»,Южный административный округ,Даниловский район,"3-й Павловский переулок, дом 1, строение 1",(499) 686-17-86,55.719188492,37.630486793,бассейн плавательный 25-метровый крытый,07:00-00:00,07:00-00:00,07:00-00:00,07:00-00:00,07:00-00:00,09:00-22:00,09:00-22:00,pool_close
94,95,Спортивный комплекс «Дегунино»,Северный административный округ,район Восточное Дегунино,"Керамический проезд, дом 61, корпус 3",(495) 483-17-30,55.885447626,37.565660233,"бассейн плавательный площадью более 60 кв.м крытый, «Малая чаша»",07:00-22:00,07:00-22:00,07:00-22:00,07:00-22:00,07:00-22:00,07:00-22:00,07:00-22:00,pool_close
95,96,Фитнес-клуб «ФитОстров»,Северный административный округ,Бескудниковский район,"Дмитровское шоссе, дом 60А",(931) 009-67-62,55.852686043,37.568635194,бассейн плавательный площадью более 60 кв.м крытый,04:00-02:00,04:00-02:00,04:00-02:00,04:00-02:00,04:00-02:00,04:00-02:00,04:00-02:00,pool_close
96,97,Центр спорта «Московский»,Новомосковский административный округ,поселение Московский,"город Московский, 1-й микрорайон, дом 39Б",(495) 841-08-70,55.598288646,37.351075249,"бассейн плавательный 25-метровый крытый, «Московский»",07:00-23:00,07:00-23:00,07:00-23:00,07:00-23:00,07:00-23:00,07:00-23:00,07:00-23:00,pool_close
97,98,Фитнес-клуб «Фитнес Парк»,Южный административный округ,район Чертаново Центральное,"улица Красного Маяка, дом 22, корпус 5, строение 2",(495) 777-75-40,55.611144,37.576546,бассейн плавательный площадью более 60 кв.м крытый,07:00-00:00,07:00-00:00,07:00-00:00,07:00-00:00,07:00-00:00,09:00-23:00,09:00-23:00,pool_close
98,99,Фитнес-клуб «ИСТ-ФРЕШ»,Новомосковский административный округ,поселение Московский,"поселение Московский, город Московский, Радужная улица, дом 9",(495) 665-04-51,55.592108,37.373563,бассейн плавательный 25-метровый крытый,07:00-23:00,07:00-23:00,07:00-23:00,07:00-23:00,07:00-23:00,07:00-23:00,07:00-23:00,pool_close
99,100,Бассейн «Медынский»,Южный административный округ,район Бирюлёво Западное,"Медынская улица, дом 9А, строение 2",(495) 681-01-48,55.581715665,37.650578205,бассейн плавательный 25-метровый крытый,07:00-22:00,07:00-22:00,07:00-22:00,07:00-22:00,07:00-22:00,07:00-22:00,07:00-22:00,pool_close
100,101,Фитнес-клуб «СССР» Алексеевская,Северо-Восточный административный округ,Алексеевский район,"Новоалексеевская улица, дом 25",(495) 223-38-51,55.810865152,37.651181887,бассейн плавательный 25-метровый крытый,круглосуточно,круглосуточно,круглосуточно,круглосуточно,круглосуточно,круглосуточно,круглосуточно,pool_close
101,102,Фитнес-клуб «Х-Фит Планета»,Северо-Восточный административный округ,район Бибирево,"Алтуфьевское шоссе, дом 70, корпус 2",(499) 346-02-06,55.88915186,37.58997409,бассейн плавательный площадью более 60 кв.м крытый,08:00-23:00,08:00-23:00,08:00-23:00,08:00-23:00,08:00-23:00,08:00-23:00,08:00-23:00,pool_close
102,103,Бассейн «Панджшер»,Южный административный округ,район Чертаново Северное,"Сумской проезд, дом 8, корпус 3",(495) 316-93-93,55.63497479,37.61136933,бассейн плавательный 25-ти метровый крытый,07:00-23:00,07:00-23:00,07:00-23:00,07:00-23:00,07:00-23:00,09:00-22:00,09:00-22:00,pool_close
103,104,Физкультурно-оздоровительный комплекс с бассейном «Филиал МПО им. И. Румянцева»,Северный административный округ,Савёловский район,"Писцовая улица, дом 12, строение 1",(495) 685-06-47,55.79810233,37.576883444,бассейн плавательный 25-метровый крытый,07:00-23:00,07:00-23:00,07:00-23:00,07:00-23:00,07:00-23:00,07:45-23:00,08:30-21:00,pool_close
104,105,Фитнес-клуб «Манхеттен»,Северо-Восточный административный округ,Бутырский район,"Новодмитровская улица, дом 5А, строение 2",(495) 032-35-53,55.807332903,37.588853658,бассейн плавательный 25-метровый крытый,07:00-00:00,07:00-00:00,07:00-00:00,07:00-00:00,07:00-00:00,09:00-00:00,09:00-00:00,pool_close
105,106,Спортивный комплекс «Курьяново» (физкультурно-оздоровительный комплекс с бассейном),Юго-Восточный административный округ,район Печатники,"1-й Курьяновский проезд, дом 17, строение 1",(499) 780-15-82,55.655559933,37.696107999,бассейн плавательный площадью более 60 кв. м крытый,10:00-22:00,10:00-22:00,10:00-22:00,10:00-22:00,10:00-22:00,09:30-22:00,08:45-21:00,pool_close
106,107,Бассейн плавательный «ЦСиО «Самбо-70» отделение «Юность»,Юго-Западный административный округ,район Тёплый Стан,"улица Академика Бакулева, дом 5",(495) 438-89-55,55.64084026,37.483302808,бассейн плавательный крытый,06:45-23:00,06:45-23:00,06:45-23:00,06:45-23:00,06:45-23:00,06:45-23:00,06:45-23:00,pool_close
107,108,Бассейн плавательный «МССУОР № 2»,Западный административный округ,район Фили-Давыдково,"Малая Филёвская улица, дом 34, корпус 2-А",(499) 146-10-29,55.735173441,37.457541901,бассейн плавательный 25-метровый крытый,07:30-22:00,07:30-22:00,07:30-22:00,07:30-22:00,07:30-22:00,07:30-22:00,07:30-22:00,pool_close
108,109,Фитнес-клуб «Палестра Спорт»,Северный административный округ,район Сокол,"2-я Песчаная улица, дом 4А, корпус 1",(499) 157-13-45,55.794075628,37.516750678,бассейн плавательный 25-метровый крытый,07:00-23:59,07:00-23:59,07:00-23:59,07:00-23:59,07:00-23:59,07:00-23:59,07:00-23:59,pool_close
109,110,Спортивный комплекс «Яуза»,Северо-Восточный административный округ,Бабушкинский район,"Олонецкий проезд, дом 5",(495) 681-01-48,55.879552655,37.665402372,бассейн плавательный 25-метровый крытый,06:30-23:30,06:30-23:30,06:30-23:30,06:30-23:30,06:30-23:30,06:30-23:30,06:30-23:30,pool_close
110,111,Спортивный комплекс «Дегунино»,Северный административный округ,район Восточное Дегунино,"Керамический проезд, дом 61, корпус 3",(495) 483-17-30,55.885610436,37.565652186,"бассейн плавательный 25-метровый крытый, «Большая чаша»",07:00-22:00,07:00-22:00,07:00-22:00,07:00-22:00,07:00-22:00,07:00-22:00,07:00-22:00,pool_close
111,112,Фитнес-клуб «Ворлд Класс» Шереметьевская,Северо-Восточный административный округ,район Марьина Роща,"12-й проезд Марьиной Рощи, владение 9, строение 2",(495) 933-75-25,55.804519959,37.618699365,бассейн плавательный 25-метровый крытый,08:00-20:00,08:00-20:00,08:00-20:00,08:00-20:00,08:00-20:00,08:00-20:00,08:00-20:00,pool_close
112,113,Фитнес-клуб «Марина клаб»,Северный административный округ,Войковский район,"Ленинградское шоссе, дом 25А, строение 4",(495) 363-60-61,55.827508338,37.477759823,бассейн плавательный 50-метровый крытый,07:00-23:55,07:00-23:55,07:00-23:55,07:00-23:55,07:00-23:55,07:00-23:55,07:00-23:55,pool_close
113,114,Фитнес-клуб «Селф клуб»,Северо-Восточный административный округ,Бабушкинский район,"Верхоянская улица, дом 9",(495) 780-00-08,55.856045643,37.667361409,бассейн плавательный 25-ти метровый крытый,07:00-00:00,07:00-00:00,07:00-00:00,07:00-00:00,07:00-00:00,08:00-23:00,08:00-23:00,pool_close
114,115,Фитнес-клуб «Х-Фит Отрадное»,Северо-Восточный административный округ,район Отрадное,"Отрадная улица, дом 8",(495) 662-30-34,55.857291745,37.608277618,бассейн плавательный 25-метровый крытый,07:00-23:55,07:00-23:55,07:00-23:55,07:00-23:55,07:00-23:55,07:00-23:55,07:00-23:55,pool_close
115,116,Бассейн «Орбита»,Зеленоградский административный округ,район Савёлки,"город Зеленоград, Озёрная аллея, дом 6",(499) 735-17-55,55.986895589,37.226167272,бассейн плавательный крытый,08:00-20:00,08:00-20:00,08:00-20:00,08:00-20:00,08:00-20:00,08:00-20:00,08:00-20:00,pool_close
116,117,Фитнес-клуб «Космос»,Северо-Восточный административный округ,Алексеевский район,"проспект Мира, дом 150",(495) 153-53-14,55.822486745,37.647535236,бассейн плавательный крытый,07:00-00:00,07:00-00:00,07:00-00:00,07:00-00:00,07:00-00:00,07:00-23:00,07:00-23:00,pool_close
117,118,"Многофункциональный спортивный комплекс «Формула воды», ул. Ибрагимова",Восточный административный округ,район Соколиная Гора,"улица Ибрагимова, дом 32",(495) 681-01-48,55.788702345,37.730781047,"бассейн плавательный 25-метровый крытый №1, «Бассейн №11»",06:45-22:00,06:45-22:00,06:45-22:00,06:45-22:00,06:45-22:00,06:45-22:00,07:45-20:00,pool_close
118,119,Спортивный комплекс «Дельфин» (плавательный бассейн),Юго-Восточный административный округ,район Некрасовка,"2-я Вольская улица, дом 16, корпус 3",(495) 706-75-45,55.685508291,37.9236495,бассейн плавательный 25-метровый крытый,06:00-23:00,06:00-23:00,06:00-23:00,06:00-23:00,06:00-23:00,06:00-23:00,06:00-23:00,pool_close
119,120,Спортивный комплекс «Чертаново» в мкр-не Северное Чертаново,Южный административный округ,район Чертаново Северное,"микрорайон Северное Чертаново, корпус 806",(495) 318-32-22,55.635360127,37.594184392,бассейн плавательный 25-метровый крытый,07:00-23:00,07:00-23:00,07:00-23:00,07:00-23:00,07:00-23:00,07:00-23:00,07:00-23:00,pool_close
120,121,Спортивный комплекс «Курьяново» (физкультурно-оздоровительный комплекс с бассейном),Юго-Восточный административный округ,район Печатники,"1-й Курьяновский проезд, дом 17, строение 1",(499) 780-15-82,55.655492065,37.695238919,бассейн плавательный 25-метровый крытый,07:00-22:00,07:00-22:00,07:00-22:00,07:00-22:00,07:00-22:00,08:00-22:00,08:45-21:00,pool_close
121,122,Фитнес-клуб «Кенга»,Северный административный округ,район Ховрино,"Фестивальная улица, дом 22, строение 6А",(495) 454-71-00,55.85816639,37.50110124,бассейн плавательный 25-метровый крытый,06:30-23:59,06:30-23:59,06:30-23:59,06:30-23:59,06:30-23:59,08:00-22:00,08:00-22:00,pool_close
122,123,"Многофункциональный спортивный комплекс «Формула воды», ул. Ибрагимова",Восточный административный округ,район Соколиная Гора,"улица Ибрагимова, дом 32",(495) 681-01-48,55.788702345,37.730781047,"бассейн плавательный 50-метровый крытый, «Бассейн №10»",06:45-22:00,06:45-22:00,06:45-22:00,06:45-22:00,06:45-22:00,06:45-22:00,07:45-20:00,pool_close
123,124,Фитнес-клуб «Практика»,Северный административный округ,район Аэропорт,"Красноармейская улица, дом 11, корпус 2",(495) 481-88-44,55.799797719,37.543558065,бассейн плавательный крытый,круглосуточно,круглосуточно,круглосуточно,круглосуточно,круглосуточно,круглосуточно,круглосуточно,pool_close
124,125,Спортивный комплекс образовательного учреждения,Северо-Восточный административный округ,район Марьина Роща,"Октябрьская улица, дом 81",(495) 181-56-56,55.796117019,37.612068395,бассейн плавательный площадью более 60 кв.м крытый,07:00-18:00,07:00-18:00,07:00-18:00,07:00-18:00,07:00-18:00,закрыто,закрыто,pool_close
125,126,Спортивный комплекс среднего профессионального образовательного учреждения,Восточный административный округ,район Метрогородок,"Вербная улица, дом 4, строение 7",(499) 167-03-18,55.824268198,37.775666648,бассейн плавательный 25-метровый крытый,08:00-20:00,08:00-20:00,08:00-20:00,08:00-20:00,08:00-20:00,закрыто,закрыто,pool_close
126,127,Бассейн МАУ ДО ДЮСШ-2,Троицкий административный округ,поселение Троицк,"город Троицк, Сиреневый бульвар, дом 15",(495) 851-60-47,55.472648156,37.295080133,бассейн плавательный 25-метровый крытый,08:00-22:00,08:00-22:00,08:00-22:00,08:00-22:00,08:00-22:00,08:00-22:00,08:00-22:00,pool_close
127,128,Бассейн МАУ ДО ДЮСШ-2,Троицкий административный округ,поселение Троицк,"город Троицк, Сиреневый бульвар, дом 15",(495) 851-60-47,55.472519077,37.295245068,бассейн плавательный крытый,14:00-20:00,14:00-20:00,14:00-20:00,14:00-20:00,14:00-20:00,14:00-20:00,14:00-20:00,pool_close
128,129,Спортивный комплекс образовательного учреждения,Восточный административный округ,район Новокосино,"Новокосинская улица, дом 13А",(495) 702-66-76,55.735774586,37.852412663,бассейн плавательный 25-метровый крытый,08:00-22:00,08:00-22:00,08:00-22:00,08:00-22:00,08:00-22:00,08:00-22:00,08:00-22:00,pool_close
129,130,Бассейн «Арбат»,Центральный административный округ,район Арбат,"Композиторская улица, дом 17",(495) 681-01-48,55.750829572,37.586663892,бассейн плавательный площадью более 60-ти кв.м крытый,07:00-22:30,07:00-22:30,07:00-22:30,07:00-22:30,07:00-22:30,08:30-19:30,08:30-19:30,pool_close
130,131,Спортивный комплекс образовательного учреждения,Центральный административный округ,Пресненский район,"2-я Звенигородская улица, дом 8",(499) 795-19-20,55.759615718,37.555835653,бассейн плавательный 25-метровый крытый,07:00-20:00,08:00-20:00,08:00-20:00,07:00-20:00,08:00-20:00,08:00-20:00,закрыто,pool_close
131,132,Спортивный комплекс образовательного учреждения,Центральный административный округ,Пресненский район,"2-я Звенигородская улица, дом 8",(499) 795-19-20,55.759615717,37.555972445,бассейн плавательный крытый,07:00-20:00,08:00-20:00,08:00-20:00,08:00-20:00,08:00-20:00,08:00-20:00,00:00-00:00,pool_close
132,133,Спортивный комплекс образовательного учреждения,Восточный административный округ,район Перово,"Перовская улица, дом 27",(495) 368-07-80,55.747313768,37.771524308,бассейн плавательный площадью более 60 кв.м крытый,08:00-20:00,08:00-20:00,08:00-20:00,08:00-20:00,08:00-20:00,закрыто,закрыто,pool_close
133,134,Спортивный комплекс образовательного учреждения,Юго-Восточный административный округ,район Текстильщики,"улица Шкулёва, дом 2, строение 2",(499) 179-65-11,55.691778,37.742882,бассейн плавательный 25-метровый крытый,08:00-21:00,08:00-21:00,08:00-21:00,08:00-21:00,08:00-21:00,08:00-21:00,08:00-21:00,pool_close
134,135,Спортивный комплекс образовательного учреждения,Юго-Западный административный округ,район Северное Бутово,"бульвар Дмитрия Донского, дом 14Г",(495) 711-03-99,55.564934807,37.569978434,бассейн плавательный крытый,07:30-21:00,07:30-21:00,07:30-21:00,07:30-21:00,07:30-21:00,09:00-21:00,09:00-21:00,pool_close
135,136,Спортивный комплекс образовательного учреждения,Юго-Западный административный округ,район Северное Бутово,"бульвар Дмитрия Донского, дом 14Г",(495) 711-03-99,55.565058838,37.570085722,бассейн плавательный 25-метровый крытый,07:30-21:00,07:30-21:00,07:30-21:00,07:30-21:00,07:30-21:00,09:00-21:00,09:00-21:00,pool_close
136,137,Спортивный комплекс образовательного учреждения,Западный административный округ,район Тропарёво-Никулино,"Никулинская улица, дом 5, корпус 3",(495) 137-71-71,55.667525198,37.456177697,бассейн плавательный 25-метровый крытый,07:00-23:00,07:00-23:00,07:00-23:00,07:00-23:00,07:00-23:00,07:00-23:00,09:00-21:00,pool_close
137,138,Спортивный комплекс образовательного учреждения,Юго-Западный административный округ,Гагаринский район,"улица Фотиевой, дом 16, корпус 2",(499) 137-00-08,55.699295013,37.556009335,"бассейн плавательный 25-метровый крытый №1, «Пионер»",07:00-22:45,07:00-22:45,07:00-22:45,07:00-22:45,07:00-22:45,09:00-21:00,09:00-21:00,pool_close
138,139,Спортивный комплекс образовательного учреждения,Восточный административный округ,район Новогиреево,"Зелёный проспект, дом 75, строение 3",(495) 302-33-03,55.752626175,37.813992381,бассейн плавательный 25-метровый крытый,08:00-20:00,08:00-20:00,08:00-20:00,08:00-20:00,08:00-20:00,08:00-20:00,08:00-20:00,pool_close
139,140,Многофункциональный комплекс «Сходня»,Северо-Западный административный округ,район Южное Тушино,"улица Фабрициуса, дом 41",(495) 681-01-48,55.843939862,37.422572309,бассейн плавательный площадью более 60 кв. м крытый,07:00-23:00,07:00-23:00,07:00-23:00,07:00-23:00,07:00-23:00,08:00-23:00,08:00-23:00,pool_close
140,141,Фитнес-клуб «Биосфера»,Южный административный округ,Донской район,"Малая Калужская улица, дом 15, строение 4",(495) 690-91-12,55.717969376,37.598136869,бассейн плавательный 25-метровый крытый,07:00-23:00,07:00-23:00,07:00-23:00,07:00-23:00,07:00-23:00,09:00-23:00,09:00-23:00,pool_close
141,142,Спортивный комплекс среднего профессионального образовательного учреждения,Восточный административный округ,район Метрогородок,"Вербная улица, дом 4, строение 1",(499) 167-03-18,55.824618164,37.77607512,бассейн плавательный 25-метровый крытый,закрыто,09:00-21:00,09:00-21:00,09:00-21:00,09:00-21:00,09:00-21:00,09:00-21:00,pool_close
142,143,Спортивный комплекс «Лазурный»,Северо-Западный административный округ,район Северное Тушино,"улица Вилиса Лациса, домовладение 26",(495) 681-01-48,55.862371516,37.412944516,бассейн плавательный 25-ти метровый крытый,07:00-23:30,07:00-23:30,07:00-23:30,07:00-23:30,07:00-23:30,07:45-22:45,07:45-22:45,pool_close
143,144,Спортивный комплекс образовательного учреждения,Юго-Западный административный округ,район Северное Бутово,"Старокачаловская улица, дом 22",(495) 713-68-63,55.570171067,37.58458045,бассейн плавательный 25-метровый крытый,08:00-22:00,08:00-22:00,08:00-22:00,08:00-22:00,08:00-22:00,08:00-21:00,08:00-21:00,pool_close
144,145,Фитнес-клуб «Ворлд Класс» Лодочная,Северо-Западный административный округ,район Южное Тушино,"Лодочная улица, дом 43, строение 2",(495) 191-09-14,55.842525634,37.46103106,бассейн плавательный 25-метровый крытый,07:00-00:00,07:00-00:00,07:00-00:00,07:00-00:00,07:00-00:00,09:00-00:00,09:00-00:00,pool_close
145,146,Спортивный комплекс водных видов спорта Московского городского педагагического университета,Северо-Восточный административный округ,Алексеевский район,"улица Касаткина, дом 23",(499) 181-65-52,55.823754405,37.668184876,бассейн плавательный 25-метровый крытый,07:00-21:00,07:00-21:00,07:00-21:00,07:00-21:00,07:00-21:00,07:00-21:00,07:00-21:00,pool_close
146,147,Спортивный комплекс образовательного учреждения,Северо-Западный административный округ,район Куркино,"Соколово-Мещерская улица, домовладение 27",(499) 401-99-96,55.904670974,37.382224873,бассейн плавательный площадью более 60 кв.м крытый,06:00-21:00,06:00-21:00,06:00-21:00,06:00-21:00,06:00-21:00,06:00-21:00,06:00-21:00,pool_close
147,148,Спортивный комплекс водных видов спорта Московского городского педагагического университета,Северо-Восточный административный округ,Алексеевский район,"улица Касаткина, дом 23",(499) 181-65-52,55.823623449,37.668054788,бассейн плавательный крытый,07:00-21:15,07:00-21:15,07:00-21:15,07:00-21:15,07:00-21:15,07:45-19:45,09:00-16:45,pool_close
148,149,Спортивный комплекс образовательного учреждения,Западный административный округ,район Тропарёво-Никулино,"Никулинская улица, дом 10",(495) 651-35-98,55.669178449,37.465290683,бассейн плавательный 25-метровый крытый,09:00-18:00,09:00-18:00,09:00-18:00,09:00-18:00,09:00-18:00,09:00-18:00,закрыто,pool_close
149,150,Спортивный комплекс образовательного учреждения,Троицкий административный округ,поселение Троицк,"город Троицк, микрорайон ""В"", дом 53",(495) 851-40-64,55.49052738,37.299847886,бассейн плавательный крытый,08:00-21:00,08:00-21:00,08:00-21:00,08:00-21:00,08:00-21:00,закрыто,закрыто,pool_close
150,151,Спортивный комплекс Московского государственного университета технологий и управления им К. Г. Разумовского,Центральный административный округ,Таганский район,"улица Земляной Вал, дом 73",(495) 915-49-14,55.746376871,37.65642439,"бассейн плавательный 25-метровый крытый, «Университетский»",07:00-23:00,07:00-23:00,07:00-23:00,07:00-23:00,07:00-23:00,07:00-23:00,07:00-23:00,pool_close
151,152,Фитнес-клуб «Фит Фэшн Каскад»,Центральный административный округ,Басманный район,"набережная Академика Туполева, дом 15",(495) 663-20-00,55.760248078,37.680922286,бассейн плавательный 25-метровый крытый,06:30-00:00,06:30-00:00,06:30-00:00,06:30-00:00,06:30-00:00,08:00-23:00,08:00-23:00,pool_close
152,153,Фитнес-клуб «Идеал фитнесс» Шаболовская,Центральный административный округ,район Якиманка,"Конный переулок, дом 4",(495) 502-91-91,55.721483383,37.612498043,бассейн плавательный крытый,07:00-23:00,07:00-23:00,07:00-23:00,07:00-23:00,07:00-23:00,09:00-23:00,09:00-23:00,pool_close
153,154,Фитнес-клуб «Азимут спорт»,Центральный административный округ,Мещанский район,"Олимпийский проспект, дом 18/1",(495) 931-90-00,55.784980452,37.62445272,бассейн плавательный крытый,06:00-23:00,06:00-23:00,06:00-23:00,06:00-23:00,06:00-23:00,06:00-23:00,06:00-23:00,pool_close
154,155,Фитнес-клуб «СССР» Краснобогатырская,Восточный административный округ,район Богородское,"Краснобогатырская улица, дом 2, строение 1",(495) 150-09-00,55.814641372,37.693657094,бассейн плавательный крытый,круглосуточно,круглосуточно,круглосуточно,круглосуточно,круглосуточно,круглосуточно,круглосуточно,pool_close
155,156,"Спортивный комплекс «Братеево», к.3Б",Южный административный округ,район Братеево,"улица Борисовские Пруды, дом 20, корпус 3Б",(495) 681-01-48,55.636241043,37.753972617,бассейн плавательный 25-ти метровый крытый,07:00-22:00,07:00-22:00,07:00-22:00,07:00-22:00,07:00-22:00,07:00-22:00,07:00-22:00,pool_close
156,157,Фитнес-клуб «Ворлд Класс» Строгино,Северо-Западный административный округ,район Строгино,"улица Кулакова, дом 20, строение 6",(495) 788-00-00,55.80318473,37.389776223,бассейн плавательный 25-метровый крытый,07:00-00:00,07:00-00:00,07:00-00:00,07:00-00:00,07:00-00:00,09:00-00:00,09:00-00:00,pool_close
157,158,Фитнес-клуб «Идеал Фитнесс» Павелецкая,Центральный административный округ,район Замоскворечье,"Летниковская улица, дом 10, строение 5",(495) 108-55-02,55.72417609,37.642381325,бассейн плавательный 25-метровый крытый,07:00-23:00,07:00-23:00,07:00-23:00,07:00-23:00,07:00-23:00,09:00-23:00,09:00-23:00,pool_close
158,159,Фитнес-клуб «Зебра» Алтуфьево,Северо-Восточный административный округ,район Отрадное,"Алтуфьевское шоссе, дом 18А",(495) 116-11-18,55.858307892,37.585731775,бассейн плавательный 25-метровый крытый,круглосуточно,круглосуточно,круглосуточно,круглосуточно,круглосуточно,круглосуточно,круглосуточно,pool_close
159,160,Фитнес-клуб «Зебра» Медведково,Северо-Восточный административный округ,район Северное Медведково,"Широкая улица, дом 28",(495) 150-37-17,55.886060803,37.678711846,бассейн плавательный 25-метровый крытый,круглосуточно,круглосуточно,круглосуточно,круглосуточно,круглосуточно,круглосуточно,круглосуточно,pool_close
160,161,Спортивный комплекс «Академия льда»,Северо-Восточный административный округ,район Марьина Роща,"1-й Стрелецкий проезд, дом 14",(495) 401-90-09,55.798544,37.608645,бассейн плавательный площадью более 60 кв.м крытый,06:00-00:15,06:00-00:15,06:00-00:15,06:00-00:15,06:00-00:15,06:00-00:15,06:00-00:15,pool_close
161,162,Физкультурно-оздоровительный комплекс «Жилищный комплекс Газпром»,Новомосковский административный округ,поселение Сосенское,"посёлок Газопровод, дом 101, корпус 1",(495) 817-16-58,55.580141455,37.470787191,бассейн плавательный крытый,08:00-20:00,08:00-20:00,08:00-20:00,08:00-20:00,08:00-20:00,08:00-20:00,08:00-20:00,pool_close
162,163,Фитнес-клуб «Газпром Трансгаз Москва»,Новомосковский административный округ,поселение Сосенское,"поселение Сосенское, посёлок Газопровод, дом 101, корпус 9",(495) 817-16-58,55.580486202,37.47790559,бассейн плавательный 25-метровый крытый,12:00-22:00,06:45-22:00,06:45-23:00,06:45-22:00,06:45-22:00,08:00-21:00,08:00-21:00,pool_close
163,164,Объединенный санаторий и дом отдыха «Десна»,Новомосковский административный округ,поселение Воскресенское,"поселение Воскресенское, посёлок Воскресенское, дом 26",(495) 659-42-68,55.520739673,37.414246876,бассейн плавательный крытый,08:00-20:00,08:00-20:00,08:00-20:00,08:00-20:00,08:00-20:00,08:00-20:00,08:00-20:00,pool_close
164,165,Фитнес-клуб «СпортЛэнд» град Московский,Новомосковский административный округ,поселение Московский,"поселение Московский, город Московский, Солнечная улица, дом 5, строение 1",(495) 795-65-27,55.589889,37.36883,бассейн плавательный крытый,07:00-00:00,07:00-00:00,07:00-00:00,07:00-00:00,07:00-00:00,09:00-22:00,09:00-22:00,pool_close
165,166,Фитнес-клуб «Х-Фит Правда»,Северный административный округ,район Беговой,"улица Правды, дом 21, строение 2",(495) 966-14-12,55.787839149,37.580041099,бассейн плавательный 25-метровый крытый,07:00-23:55,07:00-23:55,07:00-23:55,07:00-23:55,07:00-23:55,09:00-22:00,09:00-22:00,pool_close
166,167,Фитнес-клуб «Алекс фитнес» Коломенское,Южный административный округ,район Нагатино-Садовники,"проспект Андропова, дом 22",(495) 604-11-44,55.682621246,37.661126423,бассейн плавательный 25-метровый крытый,06:30-00:00,06:30-00:00,06:30-00:00,06:30-00:00,06:30-00:00,08:30-22:00,08:30-22:00,pool_close
167,168,"Спортивный комплекс «Дворец детского спорта», стр.2",Центральный административный округ,Таганский район,"Рабочая улица, дом 53, строение 2",(495) 670-21-70,55.740054314,37.691214596,бассейн плавательный 25-метровый крытый,07:00-23:00,07:00-23:00,07:00-23:00,07:00-23:00,07:00-23:00,07:00-23:00,07:00-23:00,pool_close
168,169,"Спортивный комплекс «Серебряный», стр.2",Северо-Западный административный округ,район Хорошёво-Мнёвники,"улица Генерала Глаголева, дом 10, корпус 3, строение 2",(499) 444-14-78,55.781655827,37.465443475,бассейн плавательный 25-ти метровый крытый,07:00-22:00,07:00-22:00,07:00-22:00,07:00-22:00,07:00-22:00,07:00-22:00,07:00-22:00,pool_close
169,170,Фитнес-клуб «Москоу Фит»,Восточный административный округ,район Соколиная Гора,"Большая Семёновская улица, дом 11, строение 1",(499) 379-37-99,55.782833,37.703683,бассейн плавательный крытый,круглосуточно,круглосуточно,круглосуточно,круглосуточно,круглосуточно,круглосуточно,круглосуточно,pool_close
170,171,Спортивный комплекс Академии Государственной противопожарной службы МЧС РФ,Северо-Восточный административный округ,Алексеевский район,"улица Бориса Галушкина, дом 4, строение 3",(495) 617-27-27,55.824501267,37.649093872,бассейн плавательный 25-метровый крытый,09:00-19:00,09:00-19:00,09:00-19:00,09:00-19:00,09:00-19:00,09:00-15:00,закрыто,pool_close
171,172,Спортивный комплекс образовательного учреждения,Юго-Западный административный округ,район Северное Бутово,"Старокачаловская улица, дом 22",(495) 713-68-63,55.570286,37.584118,бассейн плавательный крытый,08:30-22:00,08:30-22:00,08:30-22:00,08:30-22:00,08:30-22:00,09:00-21:00,09:00-21:00,pool_close
172,173,Спортивный комплекс «Орехово-Борисово»,Южный административный округ,район Зябликово,"Ореховый проезд, дом 43А",(495) 681-01-48,55.61478137,37.730233367,бассейн плавательный 25-ти метровый крытый,07:00-22:00,07:00-22:00,07:00-22:00,07:00-22:00,07:00-22:00,07:00-22:00,07:00-22:00,pool_close
173,174,Бассейн «Шипиловский»,Южный административный округ,район Орехово-Борисово Южное,"Шипиловский проезд, дом 59, корпус 4",(499) 613-94-76,55.604546619,37.709236178,бассейн плавательный 25-метровый крытый,06:45-21:45,06:45-21:45,06:45-21:45,06:45-21:45,06:45-21:45,06:45-21:45,06:45-21:45,pool_close
174,175,Фитнес-клуб «Фитнес Практика»,Западный административный округ,Можайский район,"улица Толбухина, дом 10, корпус 3",(495) 641-69-69,55.72119714,37.403039264,бассейн плавательный площадью более 60 кв.м крытый №1,05:00-01:00,05:00-01:00,05:00-01:00,05:00-01:00,05:00-01:00,05:00-01:00,05:00-01:00,pool_close
175,176,Фитнес-клуб «Фитнес Практика»,Западный административный округ,Можайский район,"улица Толбухина, дом 10, корпус 3",(495) 641-69-69,55.721303113,37.402881014,бассейн плавательный 25-метровый крытый,05:00-01:00,05:00-01:00,05:00-01:00,05:00-01:00,05:00-01:00,05:00-01:00,05:00-01:00,pool_close
176,177,Фитнес-клуб «СПА-центр Петровского Путевого Дворца»,Северный административный округ,район Аэропорт,"Ленинградский проспект, дом 40",(495) 401-76-67,55.793009096,37.552587097,бассейн плавательный площадью более 60 кв.м крытый,круглосуточно,круглосуточно,круглосуточно,круглосуточно,круглосуточно,круглосуточно,круглосуточно,pool_close
177,178,Спортивный комплекс «Олимпийская деревня-80»,Западный административный округ,район Тропарёво-Никулино,"улица Мичуринский Проспект, Олимпийская Деревня, дом 2",(495) 437-19-66,55.675586418,37.473867166,бассейн плавательный площадью более 60 кв.м крытый №2,07:00-23:00,07:00-23:00,07:00-23:00,07:00-23:00,07:00-23:00,07:00-23:00,07:00-23:00,pool_close
178,179,Спортивный комплекс «Олимпийская деревня-80»,Западный административный округ,район Тропарёво-Никулино,"улица Мичуринский Проспект, Олимпийская Деревня, дом 2",(495) 437-19-66,55.675951912,37.472882795,бассейн плавательный 25-метровый крытый,07:00-23:00,07:00-23:00,07:00-23:00,07:00-23:00,07:00-23:00,07:00-23:00,07:00-23:00,pool_close
179,180,Спортивный комплекс «Олимпийская деревня-80»,Западный административный округ,район Тропарёво-Никулино,"улица Мичуринский Проспект, Олимпийская Деревня, дом 2",(495) 437-19-66,55.675500847,37.473699528,бассейн плавательный площадью более 60 кв.м крытый №1,07:00-23:00,07:00-23:00,07:00-23:00,07:00-23:00,07:00-23:00,07:00-23:00,07:00-23:00,pool_close
180,181,Фитнес-клуб «Ве Джим Зеленый»,Восточный административный округ,район Перово,"1-й проезд Перова Поля, дом 9, строение 10",(495) 665-51-59,55.750129,37.770426,бассейн плавательный 25-метровый крытый,07:00-00:00,07:00-00:00,07:00-00:00,07:00-00:00,07:00-00:00,09:00-22:00,09:00-22:00,pool_close
181,182,"Спортивный комплекс образовательного учреждения ЦОиС «Москва-98» на ул. Удальцова, д.40",Западный административный округ,район Проспект Вернадского,"улица Удальцова, дом 40",(499) 432-39-01,55.683705638,37.492706402,бассейн плавательный 25-метровый крытый,08:00-22:00,08:00-22:00,08:00-22:00,08:00-22:00,08:00-22:00,08:00-22:00,08:00-22:00,pool_close
182,183,Фитнес-клуб «Спорттаун»,Восточный административный округ,район Косино-Ухтомский,"улица Медведева, дом 10",(495) 104-83-46,55.718149586,37.890034127,бассейн плавательный 25-метровый крытый,07:00-00:00,07:00-00:00,07:00-00:00,07:00-00:00,07:00-00:00,09:00-00:00,09:00-23:00,pool_close
183,184,Спортивный комплекс «Ватутинки»,Новомосковский административный округ,поселение Десеновское,"поселение Десеновское, деревня Ватутинки, дом 17",(459) 549-52-90,55.510667058,37.370686022,бассейн плавательный 25-метровый крытый,10:00-20:00,10:00-20:00,10:00-20:00,10:00-20:00,10:00-20:00,10:00-20:00,10:00-20:00,pool_close
184,185,Физкультурно-оздоровительный комплекс «Торпедо»,Южный административный округ,Даниловский район,"Автозаводская улица, дом 21, корпус 1",(495) 675-02-79,55.702789922,37.65188521,бассейн плавательный крытый №2,08:00-20:00,08:00-20:00,08:00-20:00,08:00-20:00,08:00-20:00,08:00-20:00,08:00-20:00,pool_close
185,186,Физкультурно-оздоровительный комплекс «Торпедо»,Южный административный округ,Даниловский район,"Автозаводская улица, дом 21, корпус 1",(495) 675-02-79,55.702723278,37.652287542,бассейн плавательный 25-метровый крытый №1,08:00-20:00,08:00-20:00,08:00-20:00,08:00-20:00,08:00-20:00,08:00-20:00,08:00-20:00,pool_close
186,187,Спортивный комплекс ЗАО «Санаторий «Ерино»,Новомосковский административный округ,поселение Рязановское,"поселение Рязановское, посёлок Ерино, дом 2А",(495) 374-53-76,55.446497013,37.507867107,бассейн плавательный 25-метровый крытый,08:00-18:00,08:00-18:00,08:00-18:00,08:00-18:00,08:00-18:00,08:00-18:00,08:00-18:00,pool_close
187,188,Спортивный комплекс образовательного учреждения,Юго-Западный административный округ,Академический район,"улица Гримау, дом 8",(499) 126-33-82,55.6904263,37.579572762,бассейн плавательный 25-метровый крытый,08:00-20:00,08:00-20:00,08:00-20:00,08:00-20:00,08:00-20:00,08:00-20:00,закрыто,pool_close
188,189,Бассейн плавательный Московской академии фигурного катания на коньках,Северо-Восточный административный округ,район Южное Медведково,"Заповедная улица, дом 1",(499) 790-30-77,55.86676038,37.632179655,"бассейн плавательный крытый, нестандартного размера",07:45-20:30,07:45-20:30,07:45-20:30,07:45-20:30,07:45-20:30,08:30-20:30,08:30-20:30,pool_close
189,190,Спортивный комплекс образовательного учреждения,Центральный административный округ,Тверской район,"улица Александра Невского, дом 4",(499) 251-90-21,55.77691506,37.593208158,бассейн плавательный 25-метровый крытый,07:00-22:00,07:00-22:00,07:00-22:00,07:00-22:00,07:00-22:00,07:00-22:00,07:00-22:00,pool_close
190,191,Спортивный комплекс образовательного учреждения,Центральный административный округ,Пресненский район,"Вспольный переулок, дом 6, строение 2",(495) 690-36-48,55.760781241,37.588975999,бассейн плавательный 25-метровый крытый,08:00-21:00,08:00-21:00,08:00-21:00,08:00-21:00,08:00-21:00,08:00-21:00,08:00-21:00,pool_close
191,192,Спортивный комплекс образовательного учреждения,Центральный административный округ,Пресненский район,"Большой Козихинский переулок, дом 5, строение 3",(495) 690-30-97,55.761852,37.597520953,бассейн плавательный 25-метровый крытый,08:00-20:00,08:00-20:00,08:00-20:00,08:00-20:00,08:00-20:00,08:00-20:00,08:00-20:00,pool_close
192,193,Физкультурно-оздоровительный комплекс с бассейном «Шереметьевский»,Северный административный округ,Тимирязевский район,"улица Вучетича, дом 32",(495) 611-07-25,55.815578093,37.556265119,бассейн плавательный крытый,10:00-22:00,10:00-22:00,10:00-22:00,10:00-22:00,10:00-22:00,10:00-22:00,10:00-22:00,pool_close
193,194,Спортивный комплекс Московского государственного университета им. М.В.Ломоносова,Западный административный округ,район Раменки,"территория Ленинские Горы, дом 1",(495) 939-55-71,55.702744851,37.530610597,бассейн плавательный 25-метровый крытый,08:00-20:00,08:00-20:00,08:00-20:00,08:00-20:00,08:00-20:00,08:00-20:00,08:00-20:00,pool_close
194,195,Волгоградский проспект «СССР» Юго-Западная,Западный административный округ,район Тропарёво-Никулино,"Ленинский проспект, дом 158",(495) 232-11-15,55.651172,37.483436,бассейн плавательный 25-метровый крытый,круглосуточно,круглосуточно,круглосуточно,круглосуточно,круглосуточно,круглосуточно,круглосуточно,pool_close
195,196,Волгоградский проспект «СССР» Юго-Западная,Западный административный округ,район Тропарёво-Никулино,"Ленинский проспект, дом 158",(495) 232-11-15,55.651172,37.483436,бассейн плавательный крытый,08:00-00:00,08:00-00:00,08:00-00:00,08:00-00:00,08:00-00:00,08:00-00:00,08:00-00:00,pool_close
196,197,Фитнес-клуб «Ворд класс» Ярцевская,Западный административный округ,район Кунцево,"Ярцевская улица, дом 19",(495) 788-00-00,55.739261462,37.41144115,бассейн плавательный крытый,09:00-22:00,09:00-22:00,09:00-22:00,09:00-22:00,09:00-22:00,09:00-22:00,09:00-22:00,pool_close
197,198,Фитнес-клуб «Ворлд класс» Оружейный,Центральный административный округ,Тверской район,"Оружейный переулок, дом 41",(495) 788-00-00,55.773766976,37.606328696,бассейн плавательный 25-метровый крытый,07:00-00:00,07:00-00:00,07:00-00:00,07:00-00:00,07:00-00:00,09:00-00:00,09:00-00:00,pool_close
198,199,Фитнес-клуб «МосДжим»,Юго-Западный административный округ,Ломоносовский район,"проспект Вернадского, дом 29",(495) 477-52-87,55.681477261,37.516403521,бассейн плавательный 25-метровый крытый,круглосуточно,круглосуточно,круглосуточно,круглосуточно,круглосуточно,круглосуточно,круглосуточно,pool_close
199,200,Фитнес-клуб «СССР» Кожуховская,Юго-Восточный административный округ,район Печатники,"Южнопортовый проезд, дом 5А, строение 1",(495) 260-96-73,55.707575567,37.688314542,бассейн плавательный крытый,круглосуточно,круглосуточно,круглосуточно,круглосуточно,круглосуточно,круглосуточно,круглосуточно,pool_close
200,201,Фитнес-клуб «Ворлд класс Город Столиц»,Центральный административный округ,Пресненский район,"Пресненская набережная, дом 8, строение 1",(495) 788-00-00,55.747273954,37.538439748,бассейн плавательный 25-метровый крытый,07:00-00:00,07:00-00:00,07:00-00:00,07:00-00:00,07:00-00:00,09:00-00:00,09:00-00:00,pool_close
201,202,Фитнес-клуб «Зебра» Адмирала Ушакова,Юго-Западный административный округ,район Южное Бутово,"Венёвская улица, дом 6",(495) 287-43-40,55.548224,37.543619,бассейн плавательный 25-метровый крытый,07:00-23:00,07:00-23:00,07:00-23:00,07:00-23:00,07:00-23:00,07:00-23:00,07:00-23:00,pool_close
202,203,Фитнес-клуб «ВиДжим»,Западный административный округ,район Филёвский Парк,"улица Барклая, дом 6, строение 5",(495) 258-60-08,55.739181581,37.508510416,бассейн плавательный крытый,07:00-00:00,07:00-00:00,07:00-00:00,07:00-00:00,07:00-00:00,09:00-22:00,09:00-22:00,pool_close
203,204,Фитнес-клуб «Фитнес центр 100»,Новомосковский административный округ,поселение Московский,"МКАД, 42-й километр, дом Б/Н",(495) 357-23-19,55.659609801,37.428647046,бассейн плавательный крытый,00:00-00:00,00:00-00:00,00:00-00:00,00:00-00:00,00:00-00:00,00:00-00:00,00:00-00:00,pool_close
204,205,Фитнес-клуб «Кимберли»,Юго-Западный административный округ,район Зюзино,"Азовская улица, дом 24",(495) 152-41-71,55.646908249,37.596561575,бассейн плавательный 25-метровый крытый №1,07:00-00:00,07:00-00:00,07:00-00:00,07:00-00:00,07:00-00:00,07:00-00:00,07:00-00:00,pool_close
205,206,Фитнес-клуб «Ворлд класс» Севастопольский,Юго-Западный административный округ,район Черёмушки,"Севастопольский проспект, дом 28Г",(495) 755-57-69,55.664192,37.576842,бассейн плавательный крытый,07:00-00:00,07:00-00:00,07:00-00:00,07:00-00:00,07:00-00:00,09:00-00:00,09:00-00:00,pool_close
206,207,Фитнес-клуб «Кимберли»,Юго-Западный административный округ,район Зюзино,"Азовская улица, дом 24",(495) 152-41-71,55.646952343,37.596586702,бассейн плавательный площадью более 60 кв.м крытый,07:00-00:00,07:00-00:00,07:00-00:00,07:00-00:00,07:00-00:00,07:00-00:00,07:00-00:00,pool_close
207,208,Аквапарк «Комплекс водных развлечений Мореон»,Юго-Западный административный округ,район Ясенево,"Голубинская улица, дом 16",(495) 374-53-35,55.597246,37.527184,"бассейн плавательный 25-метровый крытый, в аквапарке Мореон",07:00-23:00,07:00-23:00,07:00-23:00,07:00-23:00,07:00-23:00,09:00-23:00,09:00-23:00,pool_close
208,209,Фитнес-клуб «Олимпик стар»,Западный административный округ,район Филёвский Парк,"Рублёвское шоссе, дом 10",(495) 320-94-00,55.738905985,37.440215843,бассейн плавательный 25-метровый крытый,07:00-00:00,07:00-00:00,07:00-00:00,07:00-00:00,07:00-00:00,09:00-23:00,09:00-23:00,pool_close
209,210,Фитнес-клуб «Мультиспорт»,Центральный административный округ,район Хамовники,"улица Лужники, дом 24, строение 10",(495) 788-16-98,55.721286999,37.549603922,бассейн плавательный площадью более 60 кв.м крытый,08:00-23:00,08:00-23:00,08:00-23:00,08:00-23:00,08:00-23:00,08:00-23:00,08:00-23:00,pool_close
210,211,Фитнес-клуб «ФитнесМания»,Западный административный округ,район Тропарёво-Никулино,"Ленинский проспект, дом 146",(495) 186-29-46,55.6568981,37.496313239,бассейн плавательный площадью более 60 кв.м крытый,07:00-00:00,07:00-00:00,07:00-00:00,07:00-00:00,07:00-00:00,07:00-00:00,07:00-00:00,pool_close
211,212,Фитнес-клуб «ФитнесМания»,Западный административный округ,район Тропарёво-Никулино,"Ленинский проспект, дом 146",(495) 186-29-46,55.656849679,37.496384318,бассейн плавательный 25-метровый крытый,07:00-00:00,07:00-00:00,07:00-00:00,07:00-00:00,07:00-00:00,07:00-00:00,07:00-00:00,pool_close
212,213,Спортивный комплекс «Металлург»,Юго-Западный административный округ,район Коньково,"Профсоюзная улица, дом 83Б",(495) 333-52-96,55.644735571,37.530128423,бассейн плавательный 25-метровый крытый,08:00-20:00,08:00-20:00,08:00-20:00,08:00-20:00,08:00-20:00,08:00-20:00,08:00-20:00,pool_close
213,214,Физкультурно-оздоровительный комплекс Академии акварели и изящных искусств Сергея Андрияки,Юго-Западный административный округ,район Тёплый Стан,"улица Академика Варги, дом 15",(495) 531-55-55,55.627913248,37.475053025,бассейн плавательный 25-метровый крытый,08:00-20:00,08:00-20:00,08:00-20:00,08:00-20:00,08:00-20:00,08:00-20:00,08:00-20:00,pool_close
214,215,Дворец водного спорта «Фили»,Западный административный округ,район Филёвский Парк,"Большая Филёвская улица, дом 18",(495) 120-51-20,55.748980355,37.49870377,бассейн плавательный 50-метровый крытый,07:00-23:00,07:00-23:00,07:00-23:00,07:00-23:00,07:00-23:00,07:00-23:00,08:00-23:00,pool_close
215,216,Фитнес-клуб «Самокат»,Юго-Восточный административный округ,район Лефортово,"Самокатная улица, дом 2, строение 1",(495) 150-25-15,55.758118227,37.676646669,бассейн плавательный 25-метровый крытый,06:30-23:00,06:30-23:00,06:30-23:00,06:30-23:00,06:30-23:00,08:00-22:30,08:00-22:30,pool_close
216,217,Спортивный комплекс Московского высшего общевойскового командного училища,Юго-Восточный административный округ,район Люблино,"улица Головачёва, дом 2",(499) 172-90-06,55.676967436,37.813081726,бассейн плавательный 25-метровый крытый,08:00-20:00,08:00-20:00,08:00-20:00,08:00-20:00,08:00-20:00,08:00-20:00,08:00-20:00,pool_close
217,218,Физкультурно-оздоровительный комплекс МФСОЦ Люблино,Юго-Восточный административный округ,район Люблино,"Ставропольская улица, дом 13, строение 1",(495) 350-55-27,55.681173762,37.747734967,бассейн плавательный 25-метровый крытый,06:15-22:00,06:15-22:00,06:15-22:00,06:15-22:00,06:15-22:00,06:15-22:00,08:30-13:45,pool_close
218,219,Бассейн «Атлант»,Центральный административный округ,Таганский район,"улица Талалихина, дом 28, строение 2",(495) 676-54-66,55.730904369,37.679401712,бассейн плавательный 25-метровый крытый,08:00-20:00,08:00-20:00,08:00-20:00,08:00-20:00,08:00-20:00,08:00-20:00,08:00-20:00,pool_close
219,220,Фитнес-клуб «ОнегинЪ»,Центральный административный округ,район Якиманка,"улица Малая Полянка, дом 2",(495) 225-52-94,55.73670376,37.6167902,бассейн плавательный площадью более 60 кв.м крытый,06:30-23:59,06:30-23:59,06:30-23:59,06:30-23:59,06:30-23:59,08:00-23:00,08:00-23:00,pool_close
220,221,Фитнес-клуб «Квантум Арарат Парк Хаятт»,Центральный административный округ,Мещанский район,"Неглинная улица, дом 4",(495) 783-12-34,55.760401869,37.621777179,бассейн плавательный крытый,05:00-00:00,05:00-00:00,05:00-00:00,05:00-00:00,05:00-00:00,07:00-22:00,07:00-22:00,pool_close
221,222,Фитнес-клуб «Балчуг Кемпински Москва»,Центральный административный округ,район Замоскворечье,"улица Балчуг, дом 1",(495) 287-17-11,55.748402787,37.625873775,бассейн плавательный крытый,07:00-23:00,07:00-23:00,07:00-23:00,07:00-23:00,07:00-23:00,07:00-23:00,07:00-23:00,pool_close
222,223,Фитнес-клуб «Ворлд класс» Пресня,Центральный административный округ,Пресненский район,"улица Климашкина, дом 17, строение 2",(495) 660-72-50,55.76745864,37.568343298,бассейн плавательный крытый,07:00-23:59,07:00-23:59,07:00-23:59,07:00-23:59,07:00-23:59,09:00-23:59,09:00-23:59,pool_close
223,224,Спортивный комплекс Института Биоорганической Химии им. М.М.Шемякина и Ю.А.Овчинникова,Юго-Западный административный округ,район Коньково,"улица Миклухо-Маклая, дом 16/10, корпус 5",(495) 336-64-11,55.645234163,37.507959863,бассейн плавательный 25-метровый крытый,08:00-20:00,08:00-20:00,08:00-20:00,08:00-20:00,08:00-20:00,08:00-20:00,08:00-20:00,pool_close
224,225,Фитнес-клуб «Ворлд класс Романов»,Центральный административный округ,район Арбат,"Романов переулок, дом 4, строение 2",(495) 727-90-01,55.754604014,37.609425554,бассейн плавательный 25-метровый крытый,07:00-01:00,07:00-01:00,07:00-01:00,07:00-01:00,07:00-01:00,09:00-01:00,09:00-01:00,pool_close
225,226,Фитнес-клуб «Ворлд Класс» Земляной Вал,Центральный административный округ,Басманный район,"улица Земляной Вал, дом 9",(495) 229-95-95,55.761910094,37.658266523,бассейн плавательный 25-метровый крытый,07:00-23:59,07:00-23:59,07:00-23:59,07:00-23:59,07:00-23:59,09:00-23:59,09:00-23:59,pool_close
226,227,Фитнес-клуб «Терраспорт Коперник»,Центральный административный округ,район Якиманка,"улица Большая Якиманка, дом 22, корпус 3",(495) 225-80-80,55.738449223,37.613833139,бассейн плавательный 25-метровый крытый,круглосуточно,круглосуточно,круглосуточно,круглосуточно,круглосуточно,круглосуточно,круглосуточно,pool_close
227,228,Фитнес-клуб «Джим фитнес студио»,Центральный административный округ,Басманный район,"улица Фридриха Энгельса, дом 31/35",(495) 502-60-62,55.774730092,37.685938195,бассейн плавательный крытый,07:00-23:59,07:00-23:59,07:00-23:59,07:00-23:59,07:00-23:59,09:00-23:00,09:00-23:00,pool_close
228,229,Фитнес-клуб «Свим»,Центральный административный округ,Пресненский район,"Столярный переулок, дом 3, корпус 1",(495) 605-59-99,55.763676177,37.567792998,бассейн плавательный 25-метровый крытый,круглосуточно,круглосуточно,круглосуточно,круглосуточно,круглосуточно,круглосуточно,круглосуточно,pool_close
229,230,Фитнес-клуб «МайФитЛаб»,Центральный административный округ,Тверской район,"Страстной бульвар, дом 10, строение 1",(499) 877-45-51,55.766137691,37.611811691,бассейн плавательный площадью более 60 кв.м крытый,06:30-00:00,06:30-00:00,06:30-00:00,06:30-00:00,06:30-00:00,08:00-00:00,08:00-00:00,pool_close
230,231,Фитнес-клуб «Донспорт Алые паруса»,Северо-Западный административный округ,район Щукино,"Авиационная улица, дом 79",(495) 125-46-08,55.806574128,37.450570517,бассейн плавательный крытый,08:00-20:00,08:00-20:00,08:00-20:00,08:00-20:00,08:00-20:00,08:00-20:00,08:00-20:00,pool_close
231,232,Фитнес-клуб «Ворлд Класс» Наметкина,Юго-Западный административный округ,район Черёмушки,"улица Намёткина, дом 6",(495) 788-00-00,55.663540277,37.54981139,бассейн плавательный 25-метровый крытый,07:00-23:59,07:00-23:59,07:00-23:59,07:00-23:59,07:00-23:59,09:00-23:59,09:00-23:59,pool_close
232,233,Фитнес-клуб «Велнесс Парк»,Юго-Западный административный округ,Обручевский район,"улица Воронцовские Пруды, дом 3",(495) 225-55-59,55.663607918,37.536757887,бассейн плавательный 25-метровый крытый,07:00-23:59,07:00-23:59,07:00-23:59,07:00-23:59,07:00-23:59,09:00-23:00,09:00-23:00,pool_close
233,234,Фитнес-клуб «Ворлд класс» Власова,Юго-Западный административный округ,Обручевский район,"улица Архитектора Власова, дом 22",(495) 788-00-00,55.670076062,37.542374896,бассейн плавательный крытый,07:00-23:59,07:00-23:59,07:00-23:59,07:00-23:59,07:00-23:59,09:00-23:59,09:00-23:59,pool_close
234,235,Фитнес-клуб «Брайт Фит»,Юго-Западный административный округ,район Черёмушки,"Профсоюзная улица, дом 31, корпус 5",(495) 221-77-65,55.672275709,37.559553851,бассейн плавательный 25-метровый крытый,07:00-23:00,07:00-23:00,07:00-23:00,07:00-23:00,07:00-23:00,09:00-23:00,09:00-23:00,pool_close
235,236,Фитнес-клуб «Ла Салюте» Таганка,Центральный административный округ,Таганский район,"улица Земляной Вал, дом 77",(495) 911-11-22,55.743324446,37.655967747,бассейн плавательный крытый,07:00-23:59,07:00-23:59,07:00-23:59,07:00-23:59,07:00-23:59,09:00-23:00,09:00-23:00,pool_close
236,237,Фитнес-клуб «Ворлд класс лайт» Полежаевская,Северо-Западный административный округ,район Хорошёво-Мнёвники,"улица Демьяна Бедного, дом 4, корпус 2",(495) 135-09-50,55.770070223,37.489858226,бассейн плавательный крытый,07:00-23:59,07:00-23:59,07:00-23:59,07:00-23:59,07:00-23:59,09:00-23:59,09:00-23:59,pool_close
237,238,Стадион «Буревестник»,Центральный административный округ,район Хамовники,"улица Плющиха, дом 57",(495) 532-37-85,55.737255554,37.576015592,бассейн плавательный 25-метровый крытый,08:00-20:00,08:00-20:00,08:00-20:00,08:00-20:00,08:00-20:00,08:00-20:00,08:00-20:00,pool_close
238,239,Спортивный комплекс Московского гуманитарного университета,Восточный административный округ,район Вешняки,"улица Юности, дом 5, строение 32",(499) 374-75-97,55.727090176,37.815473803,бассейн плавательный 25-метровый крытый,09:00-22:00,09:00-22:00,09:00-22:00,09:00-22:00,09:00-22:00,09:00-20:30,09:00-19:45,pool_close
239,240,Спортивный комплекс образовательного учреждения «Московская центральная художественная школа при Российской академии художеств»,Центральный административный округ,район Якиманка,"улица Крымский Вал, дом 8, корпус 2",(499) 230-35-33,55.731984561,37.60768832,бассейн плавательный 25-метровый крытый,08:00-20:00,08:00-20:00,08:00-20:00,08:00-20:00,08:00-20:00,08:00-20:00,08:00-20:00,pool_close
240,241,Фитнес-клуб «Джим фитнес студио»,Южный административный округ,Даниловский район,"Дубининская улица, дом 71",(495) 580-75-80,55.710347712,37.631848711,бассейн плавательный крытый,07:00-23:00,07:00-23:00,07:00-23:00,07:00-23:00,07:00-23:00,09:00-22:00,09:00-22:00,pool_close
241,242,Фитнес-клуб «А-фитнес»,Центральный административный округ,Пресненский район,"Большой Кисловский переулок, дом 9",(495) 134-44-35,55.754961063,37.606289149,бассейн плавательный крытый,06:45-23:55,06:45-23:55,06:45-23:55,06:45-23:55,06:45-23:55,09:00-22:00,09:00-22:00,pool_close
242,243,Фитнес-клуб «Камелот Джим»,Центральный административный округ,район Хамовники,"Комсомольский проспект, дом 32",(495) 419-14-27,55.725029141,37.577100976,бассейн плавательный крытый,08:00-22:00,08:00-22:00,08:00-22:00,08:00-22:00,08:00-22:00,08:00-22:00,08:00-22:00,pool_close
243,244,Фитнес-клуб «Вита-спорт»,Северо-Западный административный округ,район Хорошёво-Мнёвники,"Живописная улица, дом 21, корпус 2",(495) 032-36-36,55.789623784,37.449074927,бассейн плавательный крытый №1,08:00-20:00,08:00-20:00,08:00-20:00,08:00-20:00,08:00-20:00,08:00-20:00,08:00-20:00,pool_close
244,245,Фитнес-клуб «Фэмили Клаб»,Северный административный округ,район Восточное Дегунино,"Дубнинская улица, дом 6",(495) 707-60-40,55.859448454,37.568771488,бассейн плавательный площадью более 60 кв.м крытый,07:00-23:00,07:00-23:00,07:00-23:00,07:00-23:00,07:00-23:00,07:00-23:00,07:00-23:00,pool_close
245,246,"Спортивный комплекс «Луч», стр.2",Восточный административный округ,район Перово,"1-я Владимирская улица, дом 10Б, строение 2",(495) 681-01-48,55.758583387,37.770861167,бассейн плавательный площадью более 60-ти кв.м крытый,07:00-23:00,07:00-23:00,07:00-23:00,07:00-23:00,07:00-23:00,07:00-23:00,07:00-23:00,pool_close
246,247,Физкультурно-оздоровительный комплекс с бассейном «Скандинавский центр здоровья»,Юго-Восточный административный округ,район Лефортово,"2-я Кабельная улица, дом 2, строение 26",(495) 280-82-00,55.749304452,37.712582417,бассейн плавательный крытый,07:00-22:00,07:00-22:00,07:00-22:00,07:00-22:00,07:00-22:00,09:00-22:00,09:00-22:00,pool_close
247,248,Фитнес-клуб «Магнето Фитнес»,Юго-Восточный административный округ,район Марьино,"Марьинский бульвар, дом 8, корпус 2",(495) 585-50-00,55.652099852,37.762835335,бассейн плавательный 25-метровый крытый,06:30-01:00,06:30-01:00,06:30-01:00,06:30-01:00,06:30-01:00,08:00-01:00,08:00-01:00,pool_close
248,249,Спортивный комплекс «Марфино»,Северо-Восточный административный округ,район Марфино,"Большая Марфинская улица, дом 1",(495) 619-77-21,55.831582211,37.59139267,бассейн плавательный 25-метровый крытый,07:15-22:30,07:15-22:30,07:15-22:30,07:15-22:30,07:15-22:30,07:15-22:30,07:15-22:30,pool_close
249,250,Фитнес-клуб «Территория фитнеса» Кожухово,Восточный административный округ,район Косино-Ухтомский,"улица Руднёвка, дом 51",(499) 283-48-85,55.716431037,37.900357834,бассейн плавательный 25-метровый крытый,06:00-00:00,06:00-00:00,06:00-00:00,06:00-00:00,06:00-00:00,09:00-23:00,09:00-23:00,pool_close
250,251,Плавательный бассейн на Гребном канале Москва,Западный административный округ,район Крылатское,"Крылатская улица, дом 2, строение 5",(499) 149-31-31,55.754941307,37.443987494,"бассейн плавательный площадью более 60 кв.м крытый, «детский»",07:00-22:00,07:00-22:00,07:00-22:00,07:00-22:00,07:00-22:00,07:00-22:00,07:00-22:00,pool_close
251,252,"Спортивный комплекс «Косино», ул. Николая Старостина, д.8Б",Восточный административный округ,район Косино-Ухтомский,"поселение Филимонковское, улица Харлампиева, дом 48, корпус 2",(495) 513-12-90,55.729817318,37.851277336,бассейн плавательный 50-метровый крытый,07:00-23:00,07:00-23:00,07:00-23:00,07:00-23:00,07:00-23:00,07:00-23:00,07:00-23:00,pool_close
252,253,Фитнес-клуб «СССР» Шмитовский,Центральный административный округ,Пресненский район,"Шмитовский проезд, дом 16, строение 2",(495) 266-29-26,55.758810902,37.546291378,бассейн плавательный 25-метровый крытый,круглосуточно,круглосуточно,круглосуточно,круглосуточно,круглосуточно,круглосуточно,круглосуточно,pool_close
253,254,Фитнес-клуб «СССР» Царицыно,Южный административный округ,район Царицыно,"улица Медиков, дом 8А",(495) 150-14-92,55.632993097,37.674304928,бассейн плавательный 25-метровый крытый,круглосуточно,круглосуточно,круглосуточно,круглосуточно,круглосуточно,круглосуточно,круглосуточно,pool_close
254,255,"Спортивный комплекс «Луч», стр.2",Восточный административный округ,район Перово,"1-я Владимирская улица, дом 10Б, строение 2",(495) 681-01-48,55.75876224,37.771234163,бассейн плавательный 25-ти метровый крытый,07:00-23:00,07:00-23:00,07:00-23:00,07:00-23:00,07:00-23:00,07:00-23:00,07:00-23:00,pool_close
255,256,Спортивный комплекс высшего учебного заведения «РАНХиГС»,Южный административный округ,район Нагатино-Садовники,"улица Садовники, дом 4, корпус 2",(495) 663-60-86,55.674840093,37.649986043,бассейн плавательный 25-ти метровый крытый,08:00-22:00,08:00-22:00,08:00-22:00,08:00-22:00,08:00-22:00,09:00-21:00,09:00-21:00,pool_close
256,257,Фитнес-клуб «Велнес клуб Серебряный бор»,Северо-Западный административный округ,район Хорошёво-Мнёвники,"Таманская улица, дом 71",(499) 243-24-67,55.78365635,37.427946208,бассейн плавательный 25-метровый крытый,10:00-22:00,10:00-22:00,10:00-22:00,10:00-22:00,10:00-22:00,10:00-22:00,10:00-22:00,pool_close
257,258,Бассейн плавательный Московской академии современного пятиборья,Северо-Восточный административный округ,район Северный,"9-я Северная линия, дом 1Б, строение 3",(499) 767-75-83,55.936425301,37.555465974,бассейн плавательный 25-метровый крытый,08:00-22:00,08:00-22:00,08:00-22:00,08:00-22:00,08:00-22:00,08:00-22:00,08:00-22:00,pool_close
258,259,Фитнес-клуб «Х-Фит Марьино»,Юго-Восточный административный округ,район Марьино,"Братиславская улица, дом 30",(495) 126-78-11,55.652146786,37.766417212,бассейн плавательный 25-метровый крытый,07:00-23:55,07:00-23:55,07:00-23:55,07:00-23:55,07:00-23:55,08:00-23:00,08:00-23:00,pool_close
259,260,Фитнес клуб «Велнес-клуб «Чистые пруды»,Центральный административный округ,Басманный район,"Чистопрудный бульвар, дом 12, строение 1",(495) 628-60-00,55.761811,37.643821,бассейн плавательный крытый,круглосуточно,круглосуточно,круглосуточно,круглосуточно,круглосуточно,круглосуточно,круглосуточно,pool_close
260,261,Плавательный бассейн на Гребном канале Москва,Западный административный округ,район Крылатское,"Крылатская улица, дом 2, строение 5",(499) 149-31-31,55.755038359,37.443829561,бассейн плавательный 25-метровый крытый,07:00-22:00,07:00-22:00,07:00-22:00,07:00-02:00,07:00-22:00,07:00-22:00,07:00-22:00,pool_close
261,262,Фитнес клуб «Ворлд Фитнес»,Западный административный округ,район Фили-Давыдково,"Звенигородская улица, дом 8, корпус 1",(495) 150-60-72,55.735936,37.455435,бассейн плавательный 25-ти метровый крытый,10:00-22:00,10:00-22:00,10:00-22:00,10:00-22:00,10:00-22:00,10:00-22:00,10:00-22:00,pool_close
262,263,Фитнес-клуб «Х-Фит Мосфильмовский»,Западный административный округ,район Раменки,"Мосфильмовская улица, дом 88, корпус 2",(495) 126-37-57,55.705399451,37.494912864,бассейн плавательный 25-метровый крытый,10:00-21:00,10:00-21:00,10:00-21:00,10:00-21:00,10:00-21:00,10:00-21:00,10:00-21:00,pool_close
263,264,Фитнес-клуб «Рэдиссон Славянская»,Западный административный округ,район Дорогомилово,"площадь Европы, дом 2",(495) 941-80-20,55.741572089,37.566293075,бассейн плавательный площадью более 60 кв.м крытый,06:30-22:30,06:30-22:30,06:30-22:30,06:30-22:30,06:30-22:30,06:30-22:30,06:30-22:30,pool_close
264,265,Фитнес-клуб «Энкор Фитнес»,Центральный административный округ,Пресненский район,"1-й Красногвардейский проезд, дом 21, строение 1",(495) 280-38-25,55.750231847,37.534796649,бассейн плавательный 25-метровый крытый,07:00-23:55,07:00-23:55,07:00-23:55,07:00-23:55,07:00-23:55,09:00-23:55,09:00-23:55,pool_close
265,266,Фитнес-клуб «Х-Фит Фьюжн»,Центральный административный округ,район Хамовники,"Усачёва улица, дом 2, строение 3",(495) 989-00-04,55.730519839,37.573069218,бассейн плавательный 25-метровый крытый,07:00-23:55,07:00-23:55,07:00-23:55,07:00-23:55,07:00-23:55,08:00-23:00,08:00-23:00,pool_close
266,267,Фитнес-клуб «Х-Фит Сенатор»,Западный административный округ,Можайский район,"улица Кутузова, дом 11, корпус 2",(495) 626-22-33,55.723445915,37.412464093,бассейн плавательный 25-метровый крытый,07:00-00:00,07:00-00:00,07:00-00:00,07:00-00:00,07:00-00:00,08:00-23:00,08:00-23:00,pool_close
267,268,Фитнес-клуб «Ворлд Класс» Вишневый сад,Западный административный округ,район Раменки,"Мосфильмовская улица, дом 1, строение 10",(495) 085-31-72,55.715066289,37.504764916,бассейн плавательный 25-метровый крытый,07:00-23:55,07:00-23:55,07:00-23:55,07:00-23:55,07:00-23:55,09:00-23:00,09:00-23:00,pool_close
268,269,Фитнес-клуб «Х-Фит Чистые Пруды»,Центральный административный округ,Басманный район,"улица Жуковского, дом 14, строение 1",(499) 682-72-99,55.762161,37.6471,бассейн плавательный 25-метровый крытый,07:00-23:55,07:00-23:55,07:00-23:55,07:00-23:55,07:00-23:55,08:00-23:00,08:00-23:00,pool_close
269,270,Фитнес-клуб «Х-Фит Нагатинская»,Южный административный округ,район Нагатино-Садовники,"1-й Нагатинский проезд, дом 10, строение 1",(495) 280-16-07,55.678530817,37.630908227,бассейн плавательный 25-метровый крытый,07:00-00:00,07:00-00:00,07:00-00:00,07:00-00:00,07:00-00:00,08:00-23:00,08:00-23:00,pool_close
270,271,Фитнес-клуб «Миллениум»,Южный административный округ,район Москворечье-Сабурово,"Каширское шоссе, дом 55А",(495) 150-08-88,55.63851332,37.692285653,бассейн плавательный 25-метровый крытый,06:00-00:00,06:00-00:00,06:00-00:00,06:00-00:00,06:00-00:00,08:00-23:00,08:00-23:00,pool_close
271,272,Фитнес-клуб «Х-Фит Парк Победы»,Западный административный округ,район Филёвский Парк,"улица Василисы Кожиной, дом 1",(495) 544-03-62,55.737421071,37.503985828,бассейн плавательный 25-метровый крытый,08:00-22:00,08:00-22:00,08:00-22:00,08:00-22:00,08:00-22:00,08:00-22:00,08:00-22:00,pool_close
272,273,Бассейн плавательный Российского экономического университета им. Г.В. Плеханова,Центральный административный округ,район Замоскворечье,"Большой Строченовский переулок, дом 10",(499) 877-58-94,55.728544809,37.630155566,бассейн плавательный 25-метровый крытый,07:00-22:00,07:00-22:00,07:00-22:00,07:00-22:00,07:00-22:00,07:00-22:00,07:00-22:00,pool_close
273,274,Фитнес-клуб «Ла Коллина»,Западный административный округ,район Крылатское,"улица Крылатские Холмы, дом 35",(495) 710-73-17,55.759512684,37.419792098,бассейн плавательный 25-метровый крытый,07:00-00:00,07:00-00:00,07:00-00:00,07:00-00:00,07:00-00:00,09:00-23:00,09:00-23:00,pool_close
274,275,Фитнес-клуб «СССР» Красносельская,Центральный административный округ,Красносельский район,"Верхняя Красносельская улица, дом 19, строение 2",(495) 120-75-98,55.781615,37.665911,бассейн плавательный площадью более 60-ти кв.м крытый,круглосуточно,круглосуточно,круглосуточно,круглосуточно,круглосуточно,круглосуточно,круглосуточно,pool_close
275,276,Фитнес-клуб «Репаблика»,Центральный административный округ,район Замоскворечье,"Валовая улица, дом 26",(495) 926-89-00,55.730768448,37.628315932,бассейн плавательный крытый,06:30-02:00,06:30-02:00,06:30-02:00,06:30-02:00,06:30-02:00,08:00-23:55,08:00-23:55,pool_close
276,277,Фитнес-клуб,Зеленоградский административный округ,район Матушкино,"2-й Западный проезд, дом 1, строение 15",(495) 681-10-04,56.012381359,37.195054953,бассейн плавательный площадью более 60-ти кв.м крытый,06:30-23:00,06:30-23:00,06:30-23:00,06:30-23:00,06:30-23:00,08:00-23:00,08:00-23:00,pool_close
277,278,Фитнес-клуб «Ворлд Джим» Кутузовский,Западный административный округ,район Фили-Давыдково,"Давыдковская улица, дом 3, строение 1",(495) 123-33-60,55.72744125,37.480878717,бассейн плавательный 25-метровый крытый,06:30-23:55,06:30-23:55,06:30-23:55,06:30-23:55,06:30-23:55,06:30-23:55,06:30-23:55,pool_close
278,279,Фитнес-клуб «Ворлд класс» Капитолий,Западный административный округ,район Раменки,"проспект Вернадского, дом 6",(495) 135-09-10,55.691572038,37.52757681,бассейн плавательный 25-метровый крытый,07:00-00:00,07:00-00:00,07:00-00:00,07:00-00:00,07:00-00:00,09:00-00:00,09:00-00:00,pool_close
279,280,Спортивный комплекс Московского института электронной техники,Зеленоградский административный округ,район Старое Крюково,"город Зеленоград, корпус 901",(499) 720-85-51,55.984298886,37.209329159,бассейн плавательный 25-метровый крытый,08:00-20:00,08:00-20:00,08:00-20:00,08:00-20:00,08:00-20:00,08:00-20:00,08:00-20:00,pool_close
280,281,Спортивный комплекс Московского государственного института международных отношений,Западный административный округ,район Проспект Вернадского,"проспект Вернадского, дом 76, корпус Е, строение 2",(495) 234-84-02,55.672863275,37.484460864,бассейн плавательный 25-метровый крытый,08:00-20:00,08:00-20:00,08:00-20:00,08:00-20:00,08:00-20:00,08:00-20:00,08:00-20:00,pool_close
281,282,Московский Гольф Клуб в Крылатском,Западный административный округ,район Крылатское,"Островная улица, дом 2",(495) 234-74-51,55.761842423,37.458279975,бассейн плавательный площадью более 60 кв.м крытый,09:00-21:00,09:00-21:00,09:00-21:00,09:00-21:00,09:00-21:00,09:00-21:00,09:00-21:00,pool_close
282,283,Фитнес-клуб «Герфит»,Западный административный округ,район Филёвский Парк,"Филёвский бульвар, дом 24",(495) 789-42-14,55.766714923,37.4860632,бассейн плавательный 25-метровый крытый,07:00-00:00,07:00-00:00,07:00-00:00,07:00-00:00,07:00-23:00,09:00-22:00,09:00-22:00,pool_close
283,284,Фитнес-клуб «Веджим»,Юго-Восточный административный округ,район Выхино-Жулебино,"Ферганская улица, дом 6, корпус 2",(495) 726-37-93,55.709898515,37.802666304,бассейн плавательный 25-метровый крытый,07:00-23:55,07:00-23:55,07:00-23:55,07:00-23:55,07:00-23:55,09:00-22:00,09:00-22:00,pool_close
284,285,Фитнес-клуб «Эм энд Джи»,Западный административный округ,район Крылатское,"Рублёвское шоссе, дом 48/1",(495) 662-99-50,55.753928428,37.405703643,бассейн плавательный площадью более 60 кв.м крытый,07:00-23:00,07:00-23:00,07:00-23:00,07:00-23:00,07:00-23:00,09:00-22:00,09:00-22:00,pool_close
285,286,Фитнес-клуб «Ла Салюте» Люблино,Юго-Восточный административный округ,район Люблино,"Белореченская улица, дом 6",(499) 433-06-76,55.674407276,37.764855413,бассейн плавательный 25-метровый крытый,05:30-23:55,05:30-23:55,05:30-23:55,05:30-23:55,05:30-23:55,08:30-23:00,08:30-23:00,pool_close
286,287,Фитнес-клуб «Джи-8 Фитнес»,Северо-Западный административный округ,район Хорошёво-Мнёвники,"проспект Маршала Жукова, дом 4, строение 1",(495) 640-73-74,55.77645058,37.500222889,бассейн плавательный 25-метровый крытый,07:00-23:55,07:00-23:55,07:00-23:55,07:00-23:55,07:00-23:55,08:00-23:00,08:00-23:00,pool_close
287,288,Фитнес-клуб «Кимберли Фит»,Центральный административный округ,район Замоскворечье,"Кожевническая улица, дом 15, строение 1",(495) 959-69-35,55.72904812,37.64888354,бассейн плавательный крытый,12:00-23:55,12:00-23:55,12:00-23:55,12:00-23:55,12:00-23:55,12:00-23:55,12:00-23:55,pool_close
288,289,Фитнес-клуб «НеоФит» Крылатское,Западный административный округ,район Крылатское,"улица Крылатские Холмы, дом 5, корпус 1",(495) 477-43-18,55.748632575,37.423873485,бассейн плавательный 25-метровый крытый,круглосуточно,круглосуточно,круглосуточно,круглосуточно,круглосуточно,круглосуточно,круглосуточно,pool_close
289,290,Спортивный комплекс «Акватория ЗИЛ»,Южный административный округ,Даниловский район,"Автозаводская улица, дом 23, корпус 4",(495) 681-01-48,55.70092871,37.647655399,бассейн плавательный 50-метровый крытый,07:00-23:00,07:00-23:00,07:00-23:00,07:00-23:00,07:00-23:00,07:00-23:00,07:00-23:00,pool_close
290,291,Фитнес-клуб «Х-Фит Федосьино»,Западный административный округ,район Ново-Переделкино,"улица Федосьино, дом 10",(495) 900-10-87,55.63838465,37.337840643,бассейн плавательный 25-метровый крытый,07:00-23:55,07:00-23:55,07:00-23:55,07:00-23:55,07:00-23:55,08:00-23:00,08:00-23:00,pool_close
291,292,Фитнес-клуб «СССР» Волгоградский проспект,Юго-Восточный административный округ,Нижегородский район,"Михайловский проезд, дом 1, строение 1",(495) 266-99-84,55.731670757,37.687005628,бассейн плавательный 25-метровый крытый,круглосуточно,круглосуточно,круглосуточно,круглосуточно,круглосуточно,круглосуточно,круглосуточно,pool_close
292,293,Фитнес-клуб «Юфит» Кржижановского,Юго-Западный административный округ,район Котловка,"улица Кржижановского, дом 29, корпус 1",(495) 320-26-56,55.675703205,37.581630556,бассейн плавательный площадью более 60 кв.м крытый,07:00-23:00,07:00-23:00,07:00-23:00,07:00-23:00,07:00-23:00,08:00-22:00,08:00-22:00,pool_close
293,294,Фитнес-клуб «Голден Майл Фитнесс энд Спа»,Центральный административный округ,район Хамовники,"Хилков переулок, дом 1",(495) 969-29-30,55.736829128,37.600511549,бассейн плавательный 25-метровый крытый,07:00-00:00,07:00-00:00,07:00-00:00,07:00-00:00,07:00-00:00,09:00-23:00,09:00-23:00,pool_close
294,295,Физкультурно-оздоровительный комплекс Всероссийской Академии внешней торговли,Западный административный округ,район Раменки,"улица Пудовкина, дом 4А, корпус 1",(499) 143-12-35,55.726870069,37.533727407,бассейн плавательный 25-метровый крытый,07:15-22:00,07:15-22:00,07:15-22:00,07:15-22:00,07:15-22:00,09:00-21:00,09:00-21:00,pool_close
295,296,Фитнес-клуб «Зебра» Дубровка,Юго-Восточный административный округ,Южнопортовый район,"1-я улица Машиностроения, дом 10",(499) 444-06-78,55.714313985,37.672638562,бассейн плавательный 25-метровый крытый,07:00-23:55,07:00-23:55,07:00-23:55,07:00-23:55,07:00-23:55,07:00-23:55,07:00-23:55,pool_close
296,297,Фитнес-клуб «Юфит» Нахимовский,Юго-Западный административный округ,район Котловка,"Нахимовский проспект, дом 20А",(495) 132-04-22,55.668772475,37.591457458,бассейн плавательный 25-метровый крытый,круглосуточно,круглосуточно,круглосуточно,круглосуточно,круглосуточно,круглосуточно,круглосуточно,pool_close
297,298,Фитнес-клуб «Фьюжн фитнес»,Западный административный округ,район Филёвский Парк,"Береговой проезд, дом 5, строение 1",(495) 023-52-52,55.755281572,37.50951544,бассейн плавательный 25-метровый крытый,круглосуточно,круглосуточно,круглосуточно,круглосуточно,круглосуточно,круглосуточно,круглосуточно,pool_close
298,299,Физкультурно-оздоровительный комплекс с бассейном «Кунцево»,Западный административный округ,Можайский район,"Можайское шоссе, дом 7, строение 2",(495) 444-03-84,55.718698514,37.439414567,бассейн плавательный 25-метровый крытый,08:00-21:00,08:00-21:00,08:00-21:00,08:00-21:00,08:00-21:55,08:00-21:55,08:00-21:55,pool_close
299,300,Фитнес-клуб «Версо Фитнес»,Юго-Западный административный округ,Обручевский район,"Ленинский проспект, дом 111, корпус 1",(495) 587-40-00,55.661545687,37.51010245,бассейн плавательный крытый,07:00-23:55,07:00-23:55,07:00-23:55,07:00-23:55,07:00-23:55,09:00-23:00,09:00-23:00,pool_close
300,301,Фитнес-клуб «Ворлд Класс РэдСайд»,Центральный административный округ,Пресненский район,"улица Сергея Макеева, дом 9, строение 5",(495) 133-49-86,55.760919668,37.548664954,бассейн плавательный крытый №1,07:00-23:55,07:00-23:55,07:00-23:55,07:00-23:55,07:00-23:55,07:00-23:55,07:00-23:55,pool_close
301,302,Фитнес-клуб «Ворлд Класс РэдСайд»,Центральный административный округ,Пресненский район,"улица Сергея Макеева, дом 9, строение 5",(495) 133-49-86,55.760899204,37.548671659,"бассейн плавательный крытый №2, «Аквафитнес»",07:00-23:55,07:00-23:55,07:00-23:55,07:00-23:55,07:00-23:55,07:00-23:55,07:00-23:55,pool_close
302,303,Фитнес-клуб «Внуково-вилладж»,Новомосковский административный округ,поселение Московский,"поселение Московский, деревня Картмазово, Киевская улица, дом 45",(495) 032-13-53,55.616564871,37.39225456,бассейн плавательный площадью более 60 кв.м крытый,06:00-01:00,06:00-01:00,06:00-01:00,06:00-01:00,06:00-01:00,06:00-01:00,06:00-01:00,pool_close
303,304,Фитнес-клуб «Фитнес холл»,Новомосковский административный округ,поселение Щербинка,"город Щербинка, улица Мостотреста, дом 4",(903) 008-57-35,55.513360594,37.571340872,бассейн плавательный крытый,круглосуточно,круглосуточно,круглосуточно,круглосуточно,круглосуточно,круглосуточно,круглосуточно,pool_close
304,305,Фитнес-клуб «СССР» Реутовская,Восточный административный округ,район Вешняки,"Реутовская улица, дом 3",(495) 150-26-15,55.742404095,37.834842347,бассейн плавательный 25-метровый крытый,круглосуточно,круглосуточно,круглосуточно,круглосуточно,круглосуточно,круглосуточно,круглосуточно,pool_close
305,306,Фитнес-клуб «ВеДжим Синица»,Юго-Восточный административный округ,район Лефортово,"2-я улица Синичкина, дом 9А, строение 4",(495) 988-78-00,55.761226,37.717798,бассейн плавательный 25-метровый крытый,07:00-23:55,07:00-23:55,07:00-23:55,07:00-23:55,07:00-23:55,09:00-22:00,09:00-22:00,pool_close
306,307,Фитнес-клуб «Охана»,Новомосковский административный округ,поселение Московский,"поселение Московский, город Московский, улица Хабарова, домовладение 9, строение 1",(495) 432-47-47,55.595324428,37.354672966,бассейн плавательный крытый №1,круглосуточно,круглосуточно,круглосуточно,круглосуточно,круглосуточно,круглосуточно,круглосуточно,pool_close
307,308,Спортивный комплекс дошкольного образовательного учреждения,Юго-Западный административный округ,район Зюзино,"Болотниковская улица, дом 52Б",(495) 331-34-03,55.663702997,37.581851834,бассейн плавательный крытый,07:00-19:00,07:00-19:00,07:00-19:00,07:00-19:00,07:00-19:00,07:00-19:00,07:00-19:00,pool_close
308,309,Фитнес-клуб «Джим фитнес»,Западный административный округ,район Проспект Вернадского,"улица Лобачевского, дом 74",(495) 023-92-88,55.675226546,37.491660939,бассейн плавательный 25-метровый крытый,06:00-01:00,06:00-01:00,06:00-01:00,06:00-01:00,06:00-01:00,08:00-23:55,08:00-23:00,pool_close
309,310,Фитнес-клуб «Донспорт Бирюзова»,Северо-Западный административный округ,район Щукино,"улица Маршала Бирюзова, дом 32, корпус 1",(495) 292-52-83,55.798859674,37.484120618,бассейн плавательный 25-метровый крытый,07:00-23:00,07:00-23:00,07:00-23:00,07:00-23:00,07:00-23:00,09:00-22:00,09:00-22:00,pool_close
310,311,Фитнес-клуб «Н-ерго»,Западный административный округ,Можайский район,"Можайское шоссе, дом 2Б",(495) 925-25-05,55.725708965,37.446071572,бассейн плавательный крытый,07:00-23:00,07:00-23:00,07:00-23:00,07:00-23:00,07:00-23:00,09:00-22:00,09:00-22:00,pool_close
311,312,Фитнес-клуб «Юна Аква лайф»,Восточный административный округ,район Измайлово,"Первомайская улица, дом 42, корпус 2",(499) 550-14-62,55.791610174,37.786436582,бассейн плавательный крытый,07:00-00:00,07:00-00:00,07:00-00:00,07:00-00:00,07:00-00:00,07:00-00:00,07:00-00:00,pool_close
312,313,Физкультурно-оздоровительный комплекс с бассейном «Красная Пахра»,Троицкий административный округ,поселение Краснопахорское,"поселение Краснопахорское, село Красное, Парковая улица, домовладение 10, строение 1",(495) 021-96-94,55.428754915,37.294381237,бассейн плавательный 25-метровый крытый,09:00-22:00,09:00-22:00,09:00-22:00,09:00-22:00,09:00-22:00,09:00-22:00,09:00-22:00,pool_close
313,314,Фитнес-клуб «Ворлд Класс» Каширский,Южный административный округ,район Орехово-Борисово Северное,"Каширское шоссе, дом 61, корпус 2",(495) 788-00-00,55.621404,37.713953,бассейн плавательный 25-метровый крытый,07:00-00:00,07:00-00:00,07:00-00:00,07:00-00:00,07:00-00:00,09:00-00:00,09:00-00:00,pool_close
314,315,Фитнес-клуб «Лето»,Юго-Восточный административный округ,Южнопортовый район,"7-я Кожуховская улица, дом 9",(495) 266-02-48,55.710687,37.6751,бассейн плавательный площадью более 60-ти кв.м крытый,09:00-22:00,09:00-22:00,09:00-22:00,09:00-22:00,09:00-22:00,09:00-22:00,09:00-22:00,pool_close
315,316,Физкультурно-оздоровительный комплекс с бассейном «Теннис-ру»,Новомосковский административный округ,поселение Сосенское,"поселение Сосенское, деревня Летово, Малая Летовская улица, дом 8",(495) 980-10-10,55.569785884,37.409790126,бассейн плавательный 25-метровый крытый,07:00-23:55,07:00-23:55,07:00-23:55,07:00-23:55,07:00-23:55,07:00-23:55,07:00-23:55,pool_close
316,317,Спортивный комплекс загородного клуба «Ясенки»,Троицкий административный округ,поселение Вороновское,"поселение Кленовское, территория СНТ ""Ясенки"", дом 1Б/Н",(495) 120-30-80,55.303341264,37.209932204,бассейн плавательный крытый,08:00-22:00,08:00-22:00,08:00-22:00,08:00-22:00,08:00-22:00,08:00-22:00,08:00-22:00,pool_close
317,318,Фитнес-клуб «Вандерфит фитнес»,Западный административный округ,район Кунцево,"Рублёвское шоссе, дом 101, корпус 3",(495) 877-47-05,55.743639922,37.421912974,бассейн плавательный крытый,06:30-00:30,06:30-00:30,06:30-00:30,06:30-00:30,06:30-00:30,07:30-23:00,07:30-23:00,pool_close
318,319,Физкультурно-оздоровительный комплекс с бассейном «Воскресенское»,Новомосковский административный округ,поселение Воскресенское,"поселение Воскресенское, посёлок Воскресенское, дом 25",(495) 659-41-06,55.525782704,37.450216648,бассейн плавательный 25-метровый крытый,09:00-23:00,09:00-23:00,09:00-23:00,09:00-23:00,09:00-23:00,09:00-23:00,09:00-23:00,pool_close
319,320,Фитнес-клуб «СССР» Семеновская,Восточный административный округ,район Соколиная Гора,"Ткацкая улица, дом 5, строение 13",(985) 217-77-88,55.786292348,37.723629421,бассейн плавательный площадью более 60 кв.м крытый,круглосуточно,круглосуточно,круглосуточно,круглосуточно,круглосуточно,круглосуточно,круглосуточно,pool_close
320,321,Физкультурно-оздоровительный комплекс с бассейном «Красная Пахра»,Троицкий административный округ,поселение Краснопахорское,"поселение Краснопахорское, село Красное, Парковая улица, домовладение 10, строение 1",(495) 021-96-94,55.428709522,37.294501445,"бассейн плавательный крытый, «Детский»",09:00-22:00,09:00-22:00,09:00-22:00,09:00-22:00,09:00-22:00,09:00-22:00,09:00-22:00,pool_close
321,322,Фитнес-клуб «Ворлд класс» Алексеевская,Северо-Восточный административный округ,Алексеевский район,"Маломосковская улица, дом 14, строение 5",(495) 981-04-06,55.812919328,37.646684758,бассейн плавательный 25-метровый крытый,07:00-00:00,07:00-00:00,07:00-00:00,07:00-00:00,07:00-00:00,09:00-00:00,09:00-00:00,pool_close
322,323,Фитнес-клуб «Облако»,Южный административный округ,Нагорный район,"Артековская улица, дом 5",(499) 116-52-28,55.650272875,37.613851204,бассейн плавательный площадью более 60 кв.м крытый,07:00-00:00,07:00-00:00,07:00-00:00,07:00-00:00,07:00-00:00,07:00-00:00,07:00-00:00,pool_close
323,324,Фитнес-клуб «Охана»,Новомосковский административный округ,поселение Московский,"поселение Московский, город Московский, улица Хабарова, домовладение 9, строение 1",(495) 432-47-47,55.595287977,37.354640779,бассейн плавательный крытый №2,круглосуточно,круглосуточно,круглосуточно,круглосуточно,круглосуточно,круглосуточно,круглосуточно,pool_close
324,325,Фитнес-клуб «Фифти джим»,Новомосковский административный округ,поселение Сосенское,"поселение Сосенское, Николо-Хованская улица, дом 28, строение 3",(499) 877-40-32,55.589455138,37.453927356,бассейн плавательный 25-метровый крытый,06:00-23:55,06:00-23:55,06:00-23:55,06:00-23:55,06:00-23:55,06:00-23:55,06:00-23:55,pool_close
325,326,Фитнес-клуб «Дубровка фитнес»,Новомосковский административный округ,поселение Сосенское,"поселение Сосенское, деревня Сосенки, дом 65А",(495) 023-45-41,55.568068043,37.446882105,бассейн плавательный 25-метровый крытый,06:30-01:00,06:30-01:00,06:30-01:00,06:30-01:00,06:30-01:00,08:00-01:00,08:00-01:00,pool_close
326,327,Фитнес-клуб «Облака» Павелецкий проезд,Южный административный округ,Даниловский район,"3-й Павелецкий проезд, дом 2",(499) 120-08-33,55.709167924,37.644958257,бассейн плавательный 25-метровый крытый,07:00-00:00,07:00-00:00,07:00-00:00,07:00-00:00,07:00-00:00,07:00-00:00,07:00-00:00,pool_close
327,328,Фитнес-клуб «Донспорт Хамовники»,Центральный административный округ,район Хамовники,"Малая Пироговская улица, дом 8",(495) 292-81-63,55.72948778,37.570122525,бассейн плавательный 25-метровый крытый,07:00-23:00,07:00-23:00,07:00-23:00,07:00-23:00,07:00-23:00,09:00-23:00,09:00-23:00,pool_close
328,329,Фитнес-клуб «Физкульт»,Зеленоградский административный округ,район Крюково,"город Зеленоград, корпус 1801",(499) 995-75-66,55.977617,37.163204,бассейн плавательный 25-метровый крытый,07:00-23:59,07:00-23:59,07:00-23:59,07:00-23:59,07:00-23:59,09:00-22:00,09:00-22:00,pool_close
329,330,Фитнес-клуб «Фитнес Практика»,Западный административный округ,Можайский район,"улица Толбухина, дом 10, корпус 3",(495) 641-69-69,55.721112361,37.402787136,бассейн плавательный площадью более 60 кв.м крытый №2,05:00-01:00,05:00-01:00,05:00-01:00,05:00-01:00,05:00-01:00,05:00-01:00,05:00-01:00,pool_close
330,331,Аквастудия «На Береговой»,Северо-Западный административный округ,район Покровское-Стрешнево,"Береговая улица, дом 4, корпус 10",(495) 681-01-48,55.830013438,37.470562288,бассейн плавательный площадью более 60 кв. м крытый №1,07:00-23:00,07:00-23:00,07:00-23:00,07:00-23:00,07:00-23:00,07:00-23:00,07:00-23:00,pool_close
331,332,Фитнес-клуб «Территория фитнеса» Куркино,Северо-Западный административный округ,район Куркино,"Ландышевая улица, дом 14",(499) 116-66-78,55.886443354,37.393556844,бассейн плавательный 25-метровый крытый,07:00-23:55,07:00-23:55,07:00-23:55,07:00-23:55,07:00-23:55,07:00-23:55,07:00-23:55,pool_close
332,333,Фитнес-клуб «Облака фитнесс»,Северо-Восточный административный округ,район Южное Медведково,"проезд Шокальского, дом 9А",(495) 120-67-99,55.875010733,37.64434002,бассейн плавательный 25-метровый крытый,07:00-00:00,07:00-00:00,07:00-00:00,07:00-00:00,07:00-00:00,07:00-00:00,07:00-00:00,pool_close
333,334,Фитнес-клуб «Вита-спорт»,Северо-Западный административный округ,район Хорошёво-Мнёвники,"Живописная улица, дом 21, корпус 2",(495) 032-36-36,55.789632253,37.448955925,бассейн плавательный крытый №2,08:00-20:00,08:00-20:00,08:00-20:00,08:00-20:00,08:00-20:00,08:00-20:00,08:00-20:00,pool_close
334,335,Аквастудия «На Береговой»,Северо-Западный административный округ,район Покровское-Стрешнево,"Береговая улица, дом 4, корпус 10",(495) 681-01-48,55.829633,37.470455,"бассейн плавательный площадью более 60 кв. м крытый №2, «Акватория большого бассейна»",07:00-23:00,07:00-23:00,07:00-23:00,07:00-23:00,07:00-23:00,07:00-23:00,07:00-23:00,pool_close
335,336,Дворец спорта Российского технологического университета,Восточный административный округ,район Сокольники,"улица Стромынка, дом 20, корпус 1",(499) 215-65-65,55.793475065,37.702628193,бассейн плавательный 25-метровый крытый,07:00-23:00,07:00-23:00,07:00-23:00,07:00-23:00,07:00-23:00,07:00-23:00,07:00-23:00,pool_close
336,337,Фитнес-клуб «ЛесФитнесс»,Восточный административный округ,район Северное Измайлово,"Щёлковское шоссе, дом 100, корпус 104",(499) 116-60-92,55.811470626,37.834335347,бассейн плавательный 25-метровый крытый,круглосуточно,круглосуточно,круглосуточно,круглосуточно,круглосуточно,круглосуточно,круглосуточно,pool_close
337,338,Фитнес-клуб «Кенгуру»,Центральный административный округ,Таганский район,"Нижегородская улица, дом 32, строение А",(495) 286-76-75,55.73714508,37.689000288,бассейн плавательный 25-метровый крытый,круглосуточно,круглосуточно,круглосуточно,круглосуточно,круглосуточно,круглосуточно,круглосуточно,pool_close
338,339,Фитнес-клуб «Энкор Фитнес»,Северный административный округ,Хорошёвский район,"внутригородская территория муниципальный округ Хорошевский, улица Авиаконструктора Сухого, дом 1, строение 1",(495) 120-56-99,55.785624,37.541538,бассейн плавательный 25-метровый крытый,07:00-23:55,07:00-23:55,07:00-23:55,07:00-23:55,07:00-23:55,09:00-23:55,09:00-23:55,pool_close
339,340,Фитнес-клуб «Джамп»,Центральный административный округ,Пресненский район,"Столярный переулок, дом 3, корпус 34",(495) 725-49-48,55.763257687,37.570101216,бассейн плавательный крытый,07:00-23:55,07:00-23:55,07:00-23:55,07:00-23:55,07:00-23:55,07:00-23:55,07:00-23:55,pool_close
340,341,Фитнес-клуб «Савой»,Центральный административный округ,Тверской район,"улица Фадеева, дом 4А, строение 1",(495) 266-18-87,55.775523151,37.601326187,бассейн плавательный 25-метровый крытый,07:00-23:00,07:00-23:00,07:00-23:00,07:00-23:00,07:00-23:00,09:00-22:00,09:00-22:00,pool_close
341,342,Фитнес-клуб «Гранд Фитнес»,Центральный административный округ,Тверской район,"Тверская улица, дом 26/1",(495) 973-00-48,55.768643913,37.599975428,бассейн плавательный крытый,круглосуточно,круглосуточно,круглосуточно,круглосуточно,круглосуточно,круглосуточно,круглосуточно,pool_close
342,343,Фитнес-клуб «РеСтарт»,Центральный административный округ,Басманный район,"Нижняя Красносельская улица, дом 40/12, корпус 20",(495) 221-08-74,55.77372353,37.67115222,бассейн плавательный крытый,07:00-23:00,07:00-23:00,07:00-23:00,07:00-23:00,07:00-23:00,09:00-22:00,09:00-22:00,pool_close
343,344,Фитнес-клуб «Идеал фитнесс» Сокольники,Восточный административный округ,район Сокольники,"Русаковская улица, дом 24",(495) 108-59-03,55.787166111,37.681452329,бассейн плавательный крытый,07:00-23:00,07:00-23:00,07:00-23:00,07:00-23:00,07:00-23:00,09:00-23:00,09:00-23:00,pool_close
344,345,Фитнес-клуб «Идеал фитнесс» Динамо,Северный административный округ,район Аэропорт,"Ленинградский проспект, дом 36, строение 33",(495) 011-54-65,55.787466334,37.566426725,бассейн плавательный 25-ти метровый крытый,06:00-23:00,06:00-23:00,06:00-23:00,06:00-23:00,06:00-23:00,06:00-23:00,06:00-23:00,pool_close
345,346,Фитнес-клуб «Территория Фитнеса» Ховрино,Северный административный округ,район Ховрино,"Клинская улица, дом 6",(499) 283-48-90,55.866128477,37.50196242,бассейн плавательный крытый,06:00-23:55,06:00-23:55,06:00-23:55,06:00-23:55,06:00-23:55,09:00-23:00,09:00-23:00,pool_close
346,347,Фитнес-клуб «Территория Фитнеса» Ховрино,Северный административный округ,район Ховрино,"Клинская улица, дом 6",(499) 283-48-90,55.866068147,37.501994606,бассейн плавательный 25-метровый крытый,06:00-23:55,06:00-23:55,06:00-23:55,06:00-23:55,06:00-23:55,09:00-23:00,09:00-23:00,pool_close
347,348,Центр современного пятиборья «Северный»,Северо-Восточный административный округ,район Северный,"улица Арсюкова, дом 11",(495) 681-01-48,55.93656702,37.557650752,бассейн плавательный 50-ти метровый крытый,06:30-23:30,06:30-23:30,06:30-23:30,06:30-23:30,06:30-23:30,06:30-23:30,06:30-23:30,pool_close
348,349,Дворец водного спорта «Фили»,Западный административный округ,район Филёвский Парк,"Большая Филёвская улица, дом 18",(495) 120-51-20,55.74906356,37.4984731,бассейн плавательный площадью более 60 кв.м крытый,07:00-23:00,07:00-23:00,07:00-23:00,07:00-23:00,07:00-23:00,07:00-23:00,08:00-23:00,pool_close
349,350,Фитнес-клуб «Крокус фитнесс» Ленинградский,Северный административный округ,район Аэропорт,"улица Черняховского, владение 19",(495) 236-11-22,55.809166,37.541126,бассейн плавательный 25-метровый крытый,круглосуточно,круглосуточно,круглосуточно,круглосуточно,круглосуточно,круглосуточно,круглосуточно,pool_close
350,351,Спортивный комплекс «Коломенский»,Южный административный округ,район Нагатино-Садовники,"Коломенский проезд, дом 15А",(495) 681-01-48,55.666052305,37.642191677,бассейн плавательный площадью 60 кв. м крытый,07:00-23:00,07:00-23:00,07:00-23:00,07:00-23:00,07:00-23:00,07:00-23:00,07:00-23:00,pool_close
351,352,Спортивный комплекс «Коломенский»,Южный административный округ,район Нагатино-Садовники,"Коломенский проезд, дом 15А",(495) 681-01-48,55.666311549,37.641993194,бассейн плавательный 25-метровый крытый,07:00-23:00,07:00-23:00,07:00-23:00,07:00-23:00,07:00-23:00,07:00-23:00,07:00-23:00,pool_close
352,353,Спортивный комплекс образовательного учреждения,Восточный административный округ,район Восточный,"Главная улица, дом 13, строение 3",(499) 780-97-98,55.820113355,37.866368869,бассейн плавательный 25-метровый крытый,08:00-20:00,15:00-20:00,08:00-20:00,15:00-20:00,08:00-20:00,закрыто,закрыто,pool_close
353,354,Дворец водных видов спорта «Лужники»,Центральный административный округ,район Хамовники,"улица Лужники, дом 24, строение 4",(495) 637-03-60,55.713400876,37.55757713,бассейн плавательный 25-метровый крытый №2,08:00-20:00,08:00-20:00,08:00-20:00,08:00-20:00,08:00-20:00,08:00-20:00,08:00-20:00,pool_close
354,355,Дворец водных видов спорта «Лужники»,Центральный административный округ,район Хамовники,"улица Лужники, дом 24, строение 4",(495) 637-03-60,55.713575398,37.557927218,бассейн плавательный 25-метровый крытый №1,08:00-20:00,08:00-20:00,08:00-20:00,08:00-20:00,08:00-20:00,08:00-20:00,08:00-20:00,pool_close
355,356,Спортивный комплекс Московского энергетического института,Юго-Восточный административный округ,район Лефортово,"2-й Краснокурсантский проезд, дом 12, строение 1",(495) 361-19-58,55.762277,37.703631,бассейн плавательный 25-метровый крытый,08:00-22:00,08:00-22:00,08:00-22:00,08:00-22:00,08:00-22:00,08:00-22:00,08:00-22:00,pool_close
356,357,Спортивный комплекс учреждения социальной защиты населения «ГБУ ТЦСО Марьино»,Юго-Восточный административный округ,район Марьино,"Люблинская улица, дом 159",(495) 345-84-01,55.653748021,37.743474093,бассейн плавательный площадью более 60 кв.м крытый,09:00-20:00,09:00-20:00,09:00-20:00,09:00-20:00,09:00-18:45,09:00-17:00,закрыто,pool_close
357,358,Фитнес-клуб «Х-Фит Южный Лёд»,Юго-Западный административный округ,район Южное Бутово,"улица Маршала Савицкого, дом 8",(499) 650-71-71,55.505982449,37.586521388,бассейн плавательный 25-метровый крытый,07:00-23:55,07:00-23:55,07:00-23:55,07:00-23:55,07:00-23:55,08:00-23:00,08:00-23:00,pool_close
358,359,Спортивный комплекс Государственного университета управления,Юго-Восточный административный округ,район Выхино-Жулебино,"Рязанский проспект, дом 99, корпус 7",(495) 371-98-33,55.714095,37.811528,бассейн плавательный 25-метровый крытый,08:00-20:00,08:00-20:00,08:00-20:00,08:00-20:00,08:00-20:00,08:00-20:00,08:00-20:00,pool_close
359,360,Фитнес-клуб «Номер один фит»,Восточный административный округ,район Косино-Ухтомский,"Лухмановская улица, дом 5",(495) 642-47-47,55.713126,37.899024,бассейн плавательный 25-метровый крытый,круглосуточно,круглосуточно,круглосуточно,круглосуточно,круглосуточно,круглосуточно,круглосуточно,pool_close
360,361,Фитнес-клуб «Свобода фитнеса»,Северо-Западный административный округ,район Покровское-Стрешнево,"улица Водников, дом 2, строение 2",(495) 260-80-88,55.818221839,37.448299606,бассейн плавательный площадью более 60 кв.м крытый,07:00-00:00,07:00-00:00,07:00-00:00,07:00-00:00,07:00-00:00,09:00-22:00,09:00-22:00,pool_close
361,362,Фитнес-клуб «Ворлд класс» Щелковский,Восточный административный округ,район Гольяново,"Щёлковское шоссе, дом 75, строение 2",(495) 788-00-00,55.810998254,37.799347691,бассейн плавательный 25-метровый крытый,07:00-00:00,07:00-00:00,07:00-00:00,07:00-00:00,07:00-00:00,09:00-00:00,09:00-00:00,pool_close
362,363,Фитнес-клуб «Территория фитнеса» Братиславская,Юго-Восточный административный округ,район Марьино,"Перервинский бульвар, дом 4, корпус 1",(499) 283-48-86,55.662246,37.763931,бассейн плавательный 25-метровый крытый,06:00-23:55,06:00-23:55,06:00-23:55,06:00-23:55,06:00-23:55,09:00-23:00,09:00-23:00,pool_close
363,364,Физкультурно-оздоровительный комплекс «Арктика»,Западный административный округ,район Ново-Переделкино,"Новоорловская улица, дом 7",(499) 444-36-50,55.631881269,37.367372028,бассейн плавательный 25-метровый крытый,07:00-23:00,07:00-23:00,07:00-23:00,07:00-23:00,07:00-23:00,07:00-23:00,07:00-23:00,pool_close
364,365,Бассейн «Аквилль»,Юго-Западный административный округ,район Коньково,"улица Миклухо-Маклая, дом 16/10, строение 4",(925) 204-44-44,55.64887,37.510349,бассейн плавательный 25-метровый крытый,закрыто,18:15-21:00,15:15-19:30,15:15-21:00,закрыто,15:15-19:30,15:15-19:30,pool_close
365,366,Фитнес-клуб «Охана Фитнесс»,Юго-Восточный административный округ,район Некрасовка,"2-я Вольская улица, дом 11, строение 6",(499) 430-64-05,55.689171304,37.926081477,бассейн плавательный площадью более 60 кв.м крытый,10:00-22:00,10:00-22:00,10:00-22:00,10:00-22:00,10:00-22:00,10:00-22:00,10:00-22:00,pool_close
366,367,Фитнес-клуб «Охана Фитнесс»,Юго-Восточный административный округ,район Некрасовка,"2-я Вольская улица, дом 11, строение 6",(499) 430-64-05,55.689100093,37.926140486,бассейн плавательный 25-метровый крытый,10:00-22:00,10:00-22:00,10:00-22:00,10:00-22:00,10:00-22:00,10:00-22:00,10:00-22:00,pool_close
367,368,Бассейн плавательный СШ «Битца»,Южный административный округ,район Чертаново Северное,"Балаклавский проспект, дом 33, строение 2",(495) 955-93-93,55.642831028,37.579978926,бассейн плавательный 25-метровый крытый,07:00-23:00,07:00-23:00,07:00-23:00,07:00-23:00,07:00-23:00,07:00-23:00,07:00-23:00,pool_close
368,369,Спортивный комплекс «Красный Октябрь»,Северо-Западный административный округ,район Покровское-Стрешнево,"Тушинская улица, дом 16А",(495) 681-01-48,55.827970434,37.445102801,"бассейн плавательный площадью более 60-ти кв.м крытый, «Детский»",07:00-23:00,07:00-23:00,07:00-23:00,07:00-23:00,07:00-23:00,07:00-23:00,07:00-23:00,pool_close
369,370,Спортивный комплекс «Красный Октябрь»,Северо-Западный административный округ,район Покровское-Стрешнево,"Тушинская улица, дом 16А",(495) 681-01-48,55.827940238,37.445480993,бассейн плавательный 25-ти метровый крытый,07:00-23:00,07:00-23:00,07:00-23:00,07:00-23:00,07:00-23:00,07:00-23:00,07:00-23:00,pool_close
370,371,Фитнес-клуб «Фитнес Практика»,Северо-Восточный административный округ,Останкинский район,"Берёзовая аллея, дом 5А, строение 6",(495) 172-55-47,55.848479617,37.619576517,бассейн плавательный 25-метровый крытый,07:00-23:55,07:00-23:55,07:00-23:55,07:00-23:55,07:00-23:55,09:00-22:00,09:00-22:00,pool_close
371,372,Спортивный комплекс «Волна»,Южный административный округ,район Чертаново Центральное,"Чертановская улица, дом 45А",(495) 681-01-48,55.607077187,37.593700484,бассейн плавательный площадью 60 кв. м крытый,07:00-23:00,07:00-23:00,07:00-23:00,07:00-23:00,07:00-23:00,07:00-23:00,07:00-23:00,pool_close
372,373,Спортивный комплекс «Волна»,Южный административный округ,район Чертаново Центральное,"Чертановская улица, дом 45А",(495) 681-01-48,55.607138146,37.59394157,бассейн плавательный 25-метровый крытый,07:00-23:00,07:00-23:00,07:00-23:00,07:00-23:00,07:00-23:00,07:00-23:00,07:00-23:00,pool_close
373,374,Фитнес-клуб «Х-Фит Сердце Столицы»,Северо-Западный административный округ,район Хорошёво-Мнёвники,"Шелепихинская набережная, дом Б/Н, строение 2",(495) 966-62-60,55.762922949,37.508706594,бассейн плавательный 25-метровый крытый,09:00-22:00,09:00-22:00,09:00-22:00,09:00-22:00,10:00-21:00,10:00-21:00,10:00-21:00,pool_close
374,375,Фитнес-клуб «Миллениум»,Южный административный округ,район Москворечье-Сабурово,"Каширское шоссе, дом 55А",(495) 150-08-88,55.63861113,37.692426076,бассейн плавательный площадью более 60 кв.м крытый,06:00-00:00,06:00-00:00,06:00-00:00,06:00-00:00,06:00-00:00,08:00-22:00,08:00-22:00,pool_close
375,376,Фитнес-клуб «Лофт фитнес»,Северо-Восточный административный округ,Ярославский район,"Ярославское шоссе, дом 124",(495) 215-25-24,55.870545786,37.71434749,бассейн плавательный площадью более 60 кв.м крытый,06:30-00:00,06:30-00:00,06:30-00:00,06:30-00:00,06:30-00:00,06:30-00:00,06:30-00:00,pool_close
376,377,Фитнес-клуб «Эскалада Фитнесс»,Новомосковский административный округ,поселение Сосенское,"поселение Сосенское, посёлок Коммунарка, улица Липовый Парк, дом 4, корпус 3",(495) 637-82-82,55.57097072,37.492537686,бассейн плавательный 25-метровый крытый,06:00-00:00,06:00-00:00,06:00-00:00,06:00-00:00,06:00-00:00,06:00-00:00,06:00-00:00,pool_close
377,378,Спортивный комплекс с бассейном МССУОР № 1,Восточный административный округ,район Восточное Измайлово,"16-я Парковая улица, дом 17, строение 1",(499) 461-07-01,55.797524275,37.821581135,"бассейн плавательный крытый, «для обучения детей»",08:00-22:00,08:00-22:00,08:00-22:00,08:00-22:00,08:00-22:00,08:00-22:00,08:00-22:00,pool_close
378,379,Спортивный комплекс с бассейном МССУОР № 1,Восточный административный округ,район Восточное Измайлово,"16-я Парковая улица, дом 17, строение 1",(499) 461-07-01,55.797524275,37.821581135,бассейн плавательный 25-метровый крытый,08:00-22:00,08:00-22:00,08:00-22:00,08:00-22:00,08:00-22:00,08:00-22:00,08:00-22:00,pool_close
379,380,"Спортивный комплекс Российского государственного университета физической культуры, спорта, молодежи и туризма",Восточный административный округ,район Измайлово,"Сиреневый бульвар, дом 2, строение 1А",(499) 166-89-45,55.799884146,37.75561079,"бассейн плавательный 25-метровый крытый №2, «Бассейн детский»",07:00-23:00,07:00-23:00,07:00-23:00,07:00-23:00,07:00-23:00,07:00-23:00,07:00-23:00,pool_close
380,381,"Спортивный комплекс Российского государственного университета физической культуры, спорта, молодежи и туризма",Восточный административный округ,район Измайлово,"Сиреневый бульвар, дом 2, строение 1А",(499) 166-89-45,55.799796517,37.755203094,бассейн плавательный 50-метровый крытый,07:00-23:00,07:00-23:00,07:00-23:00,07:00-23:00,07:00-23:00,07:00-23:00,07:00-23:00,pool_close
381,382,"Спортивный комплекс Российского государственного университета физической культуры, спорта, молодежи и туризма",Восточный административный округ,район Измайлово,"Сиреневый бульвар, дом 2, строение 1А",(499) 166-89-45,55.800041273,37.755782451,"бассейн плавательный 25-метровый крытый №1, «Бассейн прыжковый 25м»",07:00-23:00,07:00-23:00,07:00-23:00,07:00-23:00,07:00-23:00,07:00-23:00,07:00-23:00,pool_close
382,383,Спортивный комплекс образовательного учреждения,Восточный административный округ,район Вешняки,"Косинская улица, дом 24А",(499) 374-77-44,55.718651052,37.830180315,бассейн плавательный 25-метровый крытый,08:00-20:00,08:00-20:00,08:00-20:00,08:00-20:00,08:00-20:00,закрыто,закрыто,pool_close
383,384,Фитнес-клуб «Бионика (Зебра) Лефортово»,Юго-Восточный административный округ,район Лефортово,"улица Золоторожский Вал, дом 11, строение 27",(495) 175-25-55,55.748997333,37.700454959,бассейн плавательный площадью более 60 кв. м крытый,круглосуточно,круглосуточно,круглосуточно,круглосуточно,круглосуточно,круглосуточно,круглосуточно,pool_close
384,385,Фитнес-клуб «Бионика (Зебра) Лефортово»,Юго-Восточный административный округ,район Лефортово,"улица Золоторожский Вал, дом 11, строение 27",(495) 175-25-55,55.74900641,37.700437525,бассейн плавательный 25-метровый крытый,круглосуточно,круглосуточно,круглосуточно,круглосуточно,круглосуточно,круглосуточно,круглосуточно,pool_close
385,386,Фитнес-клуб «Бионика (Зебра) Лефортово»,Юго-Восточный административный округ,район Лефортово,"улица Золоторожский Вал, дом 11, строение 27",(495) 175-25-55,55.749063897,37.700354377,бассейн плавательный 50-метровый крытый,круглосуточно,круглосуточно,круглосуточно,круглосуточно,круглосуточно,круглосуточно,круглосуточно,pool_close
386,387,Фитнес-клуб «Бионика (Зебра)» Профсоюзная,Юго-Западный административный округ,Обручевский район,"Профсоюзная улица, дом 76",(495) 150-66-76,55.661545413,37.543259593,бассейн плавательный 25-метровый крытый,круглосуточно,круглосуточно,круглосуточно,круглосуточно,круглосуточно,круглосуточно,круглосуточно,pool_close
387,388,Фитнес-клуб «Ворлд класс» Аминьевский,Западный административный округ,район Очаково-Матвеевское,"Аминьевское шоссе, дом 7",(495) 135-11-49,55.707209307,37.457295318,бассейн плавательный 25-метровый крытый,07:00-23:55,07:00-23:55,07:00-23:55,07:00-23:55,07:00-23:55,09:00-23:55,09:00-23:55,pool_close
388,389,Фитнес-клуб «Ворлд Класс» Хамовники,Центральный административный округ,район Хамовники,"Усачёва улица, дом 10, корпус 2",(495) 104-96-72,55.726153428,37.572016306,бассейн плавательный 25-метровый крытый,07:00-23:55,07:00-23:55,07:00-23:55,07:00-23:55,07:00-23:55,09:00-23:55,09:00-23:55,pool_close
389,390,Бассейн Московского государственного строительного университета,Северо-Восточный административный округ,Ярославский район,"Ярославское шоссе, дом 26, строение 23",(499) 929-50-10,55.854768985,37.697118643,бассейн плавательный 25-метровый крытый,09:00-21:00,09:00-21:00,09:00-21:00,09:00-21:00,09:00-21:00,09:00-21:00,09:00-21:00,pool_close
390,391,Бассейн Московского государственного строительного университета,Северо-Восточный административный округ,Ярославский район,"Ярославское шоссе, дом 26, строение 23",(499) 929-50-10,55.854743337,37.697421733,"бассейн плавательный, «учебный»",09:00-21:00,09:00-21:00,09:00-21:00,09:00-21:00,09:00-21:00,09:00-21:00,09:00-21:00,pool_close
391,392,Фитнес-клуб «Ворлд Класс» Ботанический сад,Северо-Восточный административный округ,Останкинский район,"улица Вильгельма Пика, дом 14, строение 3",(495) 108-72-94,55.844984447,37.634790172,бассейн плавательный 25-метровый крытый,07:00-23:55,07:00-23:55,07:00-23:55,07:00-23:55,07:00-23:55,09:00-23:55,09:00-23:55,pool_close
392,393,Фитнес-клуб «Ворлд Класс» Ховрино,Северный административный округ,район Ховрино,"улица Дыбенко, дом 7, строение 1",(495) 104-97-29,55.878072023,37.479023671,бассейн плавательный 25-метровый крытый,07:00-23:55,07:00-23:55,07:00-23:55,07:00-23:55,07:00-23:55,09:00-23:55,09:00-23:55,pool_close
393,394,Фитнес-клуб «Ворлд класс» Рябиновая,Западный административный округ,Можайский район,"Рябиновая улица, дом 4",(495) 135-11-49,55.719193029,37.426964934,бассейн плавательный 25-метровый крытый,07:00-23:55,07:00-23:55,07:00-23:55,07:00-23:55,07:00-23:55,09:00-23:55,09:00-23:55,pool_close
394,395,Фитнес-клуб «Энкор»,Юго-Западный административный округ,район Ясенево,"Новоясеневский проспект, дом 9",(495) 123-55-77,55.608816,37.535412,бассейн плавательный площадью более 60 кв.м крытый,07:00-23:00,07:00-23:00,07:00-23:00,07:00-23:00,07:00-23:00,07:00-23:00,07:00-23:00,pool_close
395,396,Фитнес-клуб «Территория фитнеса» Люблино,Юго-Восточный административный округ,район Люблино,"улица Марьинский Парк, домовладение 29",(499) 588-80-13,55.664945,37.78349,бассейн плавательный крытый №2,06:00-23:55,06:00-23:55,06:00-23:55,06:00-23:55,06:00-23:55,09:00-23:00,09:00-23:00,pool_close
396,397,Фитнес-клуб «Территория фитнеса» Люблино,Юго-Восточный административный округ,район Люблино,"улица Марьинский Парк, домовладение 29",(499) 588-80-13,55.664945,37.78349,бассейн плавательный крытый №1,06:00-23:55,06:00-23:55,06:00-23:55,06:00-23:55,06:00-23:55,09:00-23:00,09:00-23:00,pool_close
397,398,Фитнес-клуб «СССР» Солнцево,Западный административный округ,район Солнцево,"Производственная улица, дом 2",(495) 120-35-19,55.650519458,37.388079079,бассейн плавательный площадью более 60 кв. м крытый,круглосуточно,круглосуточно,круглосуточно,круглосуточно,круглосуточно,круглосуточно,круглосуточно,pool_close
398,399,Фитнес-клуб «СССР» Кунцевская,Западный административный округ,Можайский район,"Верейская улица, дом 29, строение 134",(499) 450-99-82,55.70915597,37.441951584,бассейн плавательный 25-метровый крытый,круглосуточно,круглосуточно,круглосуточно,круглосуточно,круглосуточно,круглосуточно,круглосуточно,pool_close
399,400,Фитнес-клуб «СССР» Марьино,Юго-Восточный административный округ,район Марьино,"Люблинская улица, дом 100, корпус 2",(495) 150-85-76,55.654460593,37.740016166,бассейн плавательный площадью более 60 кв. м крытый,круглосуточно,круглосуточно,круглосуточно,круглосуточно,круглосуточно,круглосуточно,круглосуточно,pool_close
400,401,Фитнес-клуб «СССР» Бунинская аллея,Новомосковский административный округ,поселение Воскресенское,"поселение Воскресенское, Чечёрский проезд, дом 49, сооружение 1",(495) 150-36-73,55.523664889,37.519179113,бассейн плавательный 25-метровый крытый,круглосуточно,круглосуточно,круглосуточно,круглосуточно,круглосуточно,круглосуточно,круглосуточно,pool_close
401,402,Международный центр бокса,Центральный административный округ,район Хамовники,"Новолужнецкий проезд, дом 13",(495) 681-01-48,55.723029,37.55178,бассейн плавательный 25-метровый крытый,07:00-23:00,07:00-23:00,07:00-23:00,07:00-23:00,07:00-23:00,07:00-23:00,07:00-23:00,pool_close
402,403,Спортивный комплекс «Спутник Арена»,Зеленоградский административный округ,район Старое Крюково,"город Зеленоград, площадь Колумба, дом 1",(495) 681-01-48,55.987368163,37.19118656,бассейн плавательный 25-метровый крытый,07:00-23:00,07:00-23:00,07:00-23:00,07:00-23:00,07:00-23:00,07:00-23:00,07:00-23:00,pool_close
403,404,Международный центр самбо,Центральный административный округ,район Хамовники,"Новолужнецкий проезд, дом 13",(495) 681-01-48,55.723634,37.550763,бассейн плавательный 25-метровый крытый,07:00-23:00,07:00-23:00,07:00-23:00,07:00-23:00,07:00-23:00,07:00-23:00,07:00-23:00,pool_close
