,Id,Name,AdmArea,District,Address,HelpPhone,Latitude,Longitude,NameSummer,понедельник,вторник,среда,четверг,пятница,суббота,воскресенье,Type
0,1,Физкультурно-оздоровительный комплекс с бассейном Московской теннисной академии,Западный административный округ,район Тропарёво-Никулино,"улица Коштоянца, дом 20",(495) 430-82-38,55.674962662,37.476562455,зал теннисный,07:00-23:00,07:00-23:00,07:00-23:00,07:00-23:00,07:00-23:00,08:00-22:00,08:00-22:00,tennis
1,2,Физкультурно-оздоровительный комплекс МССУОР № 3,Восточный административный округ,район Соколиная Гора,"Ткацкая улица, дом 24",(499) 166-95-34,55.78590669,37.731295187,зал теннисный №3,07:00-23:00,07:00-23:00,07:00-23:00,07:00-23:00,07:00-23:00,07:00-23:00,07:00-23:00,tennis
2,3,"Теннисные корты Российского государственного университета физической культуры, спорта, молодёжи и туризма",Восточный административный округ,район Измайлово,"Сиреневый бульвар, дом 4, строение 12",(495) 961-31-11,55.799479955,37.765708636,зал теннисный №1,08:00-21:00,08:00-21:00,08:00-21:00,08:00-21:00,08:00-21:00,08:00-21:00,08:00-21:00,tennis
3,4,"Теннисные корты Российского государственного университета физической культуры, спорта, молодёжи и туризма",Восточный административный округ,район Измайлово,"Сиреневый бульвар, дом 4, строение 12",(495) 961-31-11,55.799035761,37.765644263,зал теннисный №2,08:00-21:00,08:00-21:00,08:00-21:00,08:00-21:00,08:00-21:00,08:00-21:00,08:00-21:00,tennis
4,5,"Теннисные корты Российского государственного университета физической культуры, спорта, молодёжи и туризма",Восточный административный округ,район Измайлово,"Сиреневый бульвар, дом 4, строение 12",(495) 961-31-11,55.799368151,37.765494059,зал теннисный №4,08:00-21:00,08:00-21:00,08:00-21:00,08:00-21:00,08:00-21:00,08:00-21:00,08:00-21:00,tennis
5,6,Фитнес-клуб «Премьер-спорт»,Западный административный округ,район Раменки,"улица Улофа Пальме, дом 5, строение 2",(499) 112-22-98,55.717667979,37.508689106,зал теннисный №2,07:00-23:00,07:00-23:00,07:00-23:00,07:00-23:00,07:00-23:00,09:00-23:00,09:00-23:00,tennis
6,7,Фитнес-клуб «Олимпик стар»,Западный административный округ,район Филёвский Парк,"Рублёвское шоссе, дом 10",(495) 320-94-00,55.73920106,37.44040628,зал теннисный №1,07:00-00:00,07:00-00:00,07:00-00:00,07:00-00:00,07:00-00:00,09:00-23:00,09:00-23:00,tennis
7,8,Спортивный комплекс Московского государственного института международных отношений,Западный административный округ,район Проспект Вернадского,"проспект Вернадского, дом 76, корпус Е, строение 2",(495) 234-84-02,55.672653592,37.484662414,зал теннисный,08:00-20:00,08:00-20:00,08:00-20:00,08:00-20:00,08:00-20:00,08:00-20:00,08:00-20:00,tennis
8,9,Фитнес-клуб «Голдс Джим Динамо»,Северный административный округ,район Беговой,"Ленинградский проспект, дом 31, строение 30",(495) 931-96-16,55.783930786,37.562446739,зал теннисный,07:00-23:00,07:00-23:00,07:00-23:00,07:00-23:00,07:00-23:00,09:00-22:00,09:00-22:00,tennis
9,10,Спортивно-оздоровительный центр «Премьер-Теннис»,Северный административный округ,Савёловский район,"Петровско-Разумовский проезд, дом 29",(495) 147-97-27,55.80415369,37.561638139,зал теннисный №1,07:00-23:00,07:00-23:00,07:00-23:00,07:00-23:00,07:00-23:00,07:00-23:00,07:00-23:00,tennis
10,11,Спортивно-оздоровительный центр «Премьер-Теннис»,Северный административный округ,Савёловский район,"Петровско-Разумовский проезд, дом 29",(495) 147-97-27,55.80415369,37.561638139,зал теннисный №2,07:00-23:00,07:00-23:00,07:00-23:00,07:00-23:00,07:00-23:00,07:00-23:00,07:00-23:00,tennis
11,12,Спортивно-оздоровительный центр «Премьер-Теннис»,Северный административный округ,Савёловский район,"Петровско-Разумовский проезд, дом 29",(495) 147-97-27,55.80415369,37.561638139,зал теннисный №3,07:00-23:00,07:00-23:00,07:00-23:00,07:00-23:00,07:00-23:00,07:00-23:00,07:00-23:00,tennis
12,13,Учебно-спортивная база ЦСКА,Северный административный округ,Хорошёвский район,"3-я Песчаная улица, дом 2",(499) 157-75-91,55.792853913,37.520414062,зал теннисный №1,07:00-23:55,07:00-23:55,07:00-23:55,07:00-23:55,07:00-23:55,07:00-23:55,07:00-23:55,tennis
13,14,Учебно-спортивная база ЦСКА,Северный административный округ,Хорошёвский район,"3-я Песчаная улица, дом 2",(499) 157-75-91,55.792926634,37.520776161,зал теннисный №2,07:00-23:55,07:00-23:55,07:00-23:55,07:00-23:55,07:00-23:55,07:00-23:55,07:00-23:55,tennis
14,15,Учебно-спортивная база ЦСКА,Северный административный округ,Хорошёвский район,"3-я Песчаная улица, дом 2",(499) 157-75-91,55.792925126,37.520695694,зал теннисный №4,07:00-23:55,07:00-23:55,07:00-23:55,07:00-23:55,07:00-23:55,07:00-23:55,07:00-23:55,tennis
15,16,Учебно-спортивная база ЦСКА,Северный административный округ,Хорошёвский район,"3-я Песчаная улица, дом 2",(499) 157-75-91,55.792806002,37.520279952,зал теннисный №3,07:00-23:55,07:00-23:55,07:00-23:55,07:00-23:55,07:00-23:55,07:00-23:55,07:00-23:55,tennis
16,17,Фитнес-клуб «Эйс»,Северный административный округ,район Ховрино,"Флотская улица, дом 15, корпус 2",(495) 453-22-44,55.857651995,37.504965116,зал теннисный №1,07:00-23:59,07:00-23:59,07:00-23:59,07:00-23:59,07:00-23:59,07:00-23:59,07:00-23:59,tennis
17,18,Фитнес-клуб «Эйс»,Северный административный округ,район Ховрино,"Флотская улица, дом 15, корпус 2",(495) 453-22-44,55.857524105,37.505148082,зал теннисный №2,07:00-23:59,07:00-23:59,07:00-23:59,07:00-23:59,07:00-23:59,07:00-23:59,07:00-23:59,tennis
18,19,Спортивный комплекс образовательного учреждения,Южный административный округ,район Орехово-Борисово Северное,"улица Маршала Захарова, дом 8, корпус 1",(495) 393-43-81,55.623398634,37.700032077,зал теннисный №1,08:00-21:00,08:00-21:00,08:00-21:00,08:00-21:00,08:00-21:00,08:00-21:00,08:00-21:00,tennis
19,20,Спортивный комплекс образовательного учреждения,Южный административный округ,район Орехово-Борисово Северное,"улица Маршала Захарова, дом 8, корпус 1",(495) 393-43-81,55.623448718,37.700284205,зал теннисный №2,07:00-23:00,07:00-23:00,07:00-23:00,07:00-23:00,07:00-23:00,07:00-23:00,07:00-23:00,tennis
20,21,Спортивный комплекс образовательного учреждения,Южный административный округ,район Орехово-Борисово Северное,"улица Маршала Захарова, дом 8, корпус 1",(495) 393-43-81,55.62348059,37.700498781,зал теннисный №3,08:00-21:00,08:00-21:00,08:00-21:00,08:00-21:00,08:00-21:00,08:00-21:00,08:00-21:00,tennis
21,22,Спортивный комплекс образовательного учреждения,Южный административный округ,район Орехово-Борисово Северное,"улица Маршала Захарова, дом 8, корпус 1",(495) 393-43-81,55.623509427,37.700769685,зал теннисный №4,08:00-21:00,08:00-21:00,08:00-21:00,08:00-21:00,08:00-21:00,08:00-21:00,08:00-21:00,tennis
22,23,Спортивный комплекс образовательного учреждения,Южный административный округ,район Орехово-Борисово Северное,"улица Маршала Захарова, дом 8, корпус 1",(495) 393-43-81,55.623544334,37.701000355,зал теннисный №5,07:00-23:00,07:00-23:00,07:00-23:00,07:00-23:00,07:00-23:00,07:00-23:00,07:00-23:00,tennis
23,24,"Теннисные корты Российского государственного университета физической культуры, спорта, молодёжи и туризма",Восточный административный округ,район Измайлово,"Сиреневый бульвар, дом 4, строение 12",(495) 961-31-11,55.799084109,37.765874933,зал теннисный №3,08:00-21:00,08:00-21:00,08:00-21:00,08:00-21:00,08:00-21:00,08:00-21:00,08:00-21:00,tennis
24,25,Центр развития детского спорта «Юность»,Северный административный округ,район Сокол,"улица Зорге, дом 30А",(495) 530-30-20,55.794737841,37.506124905,Теннисный корт (крытый) № 1,07:00-23:00,07:00-23:00,07:00-23:00,07:00-23:00,07:00-23:00,07:00-23:00,07:00-23:00,tennis
25,26,Центр развития детского спорта «Юность»,Северный административный округ,район Сокол,"улица Зорге, дом 30А",(495) 530-30-20,55.794786962,37.506091476,Теннисный корт (крытый) № 2,07:00-23:00,07:00-23:00,07:00-23:00,07:00-23:00,07:00-23:00,07:00-23:00,07:00-23:00,tennis
26,27,Центр развития детского спорта «Юность»,Северный административный округ,район Сокол,"улица Зорге, дом 30А",(495) 530-30-20,55.794706121,37.506139756,Теннисный корт (крытый) № 3,07:00-23:00,07:00-23:00,07:00-23:00,07:00-23:00,07:00-23:00,07:00-23:00,07:00-23:00,tennis
27,28,Центр развития детского спорта «Юность»,Северный административный округ,район Сокол,"улица Зорге, дом 30А",(495) 530-30-20,55.794772607,37.506155849,Теннисный корт (крытый) № 4,07:00-23:00,07:00-23:00,07:00-23:00,07:00-23:00,07:00-23:00,07:00-23:00,07:00-23:00,tennis
28,29,Учебно-спортивный комплекс «Искра»,Северо-Восточный административный округ,район Ростокино,"Сельскохозяйственная улица, дом 26, строение 6",(499) 181-36-14,55.837703742,37.641642807,зал теннисный №2,08:00-22:00,08:00-22:00,08:00-22:00,08:00-22:00,08:00-22:00,08:00-22:00,08:00-22:00,tennis
29,30,Учебно-спортивный комплекс «Искра»,Северо-Восточный административный округ,район Ростокино,"Сельскохозяйственная улица, дом 26, строение 6",(499) 181-36-14,55.837739615,37.64148056,зал теннисный №3,08:00-22:00,08:00-22:00,08:00-22:00,08:00-22:00,08:00-22:00,08:00-22:00,08:00-22:00,tennis
30,31,Спортивный комплекс Московской теннисной академии на ул. Удальцова,Западный административный округ,район Проспект Вернадского,"улица Удальцова, дом 54",(499) 431-97-92,55.686274941,37.491610548,зал теннисный №1,07:00-23:00,07:00-23:00,07:00-23:00,07:00-23:00,07:00-23:00,07:00-23:00,07:00-23:00,tennis
31,32,Спортивный комплекс Московской теннисной академии на ул. Чоботовской,Западный административный округ,район Ново-Переделкино,"Чоботовская улица, дом 4, корпус 1",(499) 737-00-07,55.646571595,37.352755802,зал теннисный №1,07:00-23:00,07:00-23:00,07:00-23:00,07:00-23:00,07:00-23:00,07:00-23:00,07:00-23:00,tennis
32,33,Учебно-спортивный комплекс «Искра»,Северо-Восточный административный округ,район Ростокино,"Сельскохозяйственная улица, дом 26, строение 6",(499) 181-36-14,55.837833419,37.641461851,зал теннисный №1,08:00-22:00,08:00-22:00,08:00-22:00,08:00-22:00,08:00-22:00,08:00-22:00,08:00-22:00,tennis
33,34,Фитнес-клуб «Палестра Спорт»,Северный административный округ,район Сокол,"2-я Песчаная улица, дом 4А, корпус 1",(499) 157-13-45,55.794312865,37.517037674,зал теннисный,07:00-23:55,07:00-23:55,07:00-23:55,07:00-23:55,07:00-23:55,07:00-23:55,07:00-23:55,tennis
34,35,Дворец тенниса «ЦСКА»,Северный административный округ,Хорошёвский район,"Ленинградский проспект, дом 39, строение 12",(495) 613-79-01,55.7934852,37.538137394,зал теннисный №2,07:00-22:00,07:00-22:00,07:00-22:00,07:00-22:00,07:00-22:00,07:00-22:00,07:00-22:00,tennis
35,36,Дворец тенниса «ЦСКА»,Северный административный округ,Хорошёвский район,"Ленинградский проспект, дом 39, строение 12",(495) 613-79-01,55.793584932,37.537874537,зал теннисный №1,07:00-22:00,07:00-22:00,07:00-22:00,07:00-22:00,07:00-22:00,07:00-22:00,07:00-22:00,tennis
36,37,Спортивный комплекс образовательного учреждения,Южный административный округ,район Нагатинский Затон,"Коломенская набережная, дом 20",(499) 615-89-88,55.676685389,37.696435239,зал теннисный №4,07:00-23:00,07:00-23:00,07:00-23:00,07:00-23:00,07:00-23:00,07:00-23:00,07:00-23:00,tennis
37,38,Спортивный комплекс образовательного учреждения,Южный административный округ,район Нагатинский Затон,"Коломенская набережная, дом 20",(499) 615-89-88,55.676717067,37.69592694,зал теннисный №2,07:00-23:00,07:00-23:00,07:00-23:00,07:00-23:00,07:00-23:00,07:00-23:00,07:00-23:00,tennis
38,39,Спортивный комплекс образовательного учреждения,Южный административный округ,район Нагатинский Затон,"Коломенская набережная, дом 20",(499) 615-89-88,55.676701477,37.696174557,зал теннисный №3,07:00-23:00,07:00-23:00,07:00-23:00,07:00-23:00,07:00-23:00,07:00-23:00,07:00-23:00,tennis
39,40,Спортивный комплекс образовательного учреждения,Южный административный округ,район Нагатинский Затон,"Коломенская набережная, дом 20",(499) 615-89-88,55.676733912,37.695675126,зал теннисный №1,07:00-23:00,07:00-23:00,07:00-23:00,07:00-23:00,07:00-23:00,07:00-23:00,07:00-23:00,tennis
40,41,Спортивный комплекс Московской теннисной академии на ул. Удальцова,Западный административный округ,район Проспект Вернадского,"улица Удальцова, дом 54",(499) 431-97-92,55.686334037,37.490433058,зал теннисный №4,07:00-23:00,07:00-23:00,07:00-23:00,07:00-23:00,07:00-23:00,07:00-23:00,07:00-23:00,tennis
41,42,Спортивный комплекс Московской теннисной академии на ул. Удальцова,Западный административный округ,район Проспект Вернадского,"улица Удальцова, дом 54",(499) 431-97-92,55.686256758,37.49073883,зал теннисный №3,07:00-23:00,07:00-23:00,07:00-23:00,07:00-23:00,07:00-23:00,07:00-23:00,07:00-23:00,tennis
42,43,Фитнес-клуб «Эйс»,Северный административный округ,район Ховрино,"Флотская улица, дом 15, корпус 2",(495) 453-22-44,55.857383433,37.50530911,зал теннисный №3,07:00-00:00,07:00-00:00,07:00-00:00,07:00-00:00,07:00-00:00,07:00-00:00,07:00-00:00,tennis
43,44,Физкультурно-оздоровительный комплекс «Арена Плей»,Новомосковский административный округ,поселение Сосенское,"поселение Сосенское, посёлок Коммунарка, дом 11, строение 1",(495) 428-59-33,55.57072855,37.479113731,зал теннисный №2,08:00-20:00,08:00-20:00,08:00-20:00,08:00-20:00,08:00-20:00,08:00-20:00,08:00-20:00,tennis
44,45,Физкультурно-оздоровительный комплекс «Арена Плей»,Новомосковский административный округ,поселение Сосенское,"поселение Сосенское, посёлок Коммунарка, дом 11, строение 1",(495) 428-59-33,55.570678803,37.478845616,зал теннисный №1,08:00-20:00,08:00-20:00,08:00-20:00,08:00-20:00,08:00-20:00,08:00-20:00,08:00-20:00,tennis
45,46,Спортивный комплекс «Будь Здоров»,Новомосковский административный округ,"поселение ""Мосрентген""","поселение ""Мосрентген"", посёлок Завода Мосрентген, дом 39",(495) 339-00-16,55.617950395,37.478129924,зал теннисный №7,07:00-23:00,07:00-23:00,07:00-23:00,07:00-23:00,07:00-23:00,07:00-23:00,07:00-23:00,tennis
46,47,Спортивный комплекс «Будь Здоров»,Новомосковский административный округ,"поселение ""Мосрентген""","поселение ""Мосрентген"", посёлок Завода Мосрентген, дом 39",(495) 339-00-16,55.618174825,37.478041657,зал теннисный №6,07:00-23:00,07:00-23:00,07:00-23:00,07:00-23:00,07:00-23:00,07:00-23:00,07:00-23:00,tennis
47,48,Спортивный комплекс «Будь Здоров»,Новомосковский административный округ,"поселение ""Мосрентген""","поселение ""Мосрентген"", посёлок Завода Мосрентген, дом 39",(495) 339-00-16,55.618404836,37.478734833,зал теннисный №5,07:00-23:00,07:00-23:00,07:00-23:00,07:00-23:00,07:00-23:00,07:00-23:00,07:00-23:00,tennis
48,49,Спортивный комплекс «Будь Здоров»,Новомосковский административный округ,"поселение ""Мосрентген""","поселение ""Мосрентген"", посёлок Завода Мосрентген, дом 39",(495) 339-00-16,55.618238968,37.47880458,зал теннисный №4,07:00-23:00,07:00-23:00,07:00-23:00,07:00-23:00,07:00-23:00,07:00-23:00,07:00-23:00,tennis
49,50,Спортивный комплекс «Будь Здоров»,Новомосковский административный округ,"поселение ""Мосрентген""","поселение ""Мосрентген"", посёлок Завода Мосрентген, дом 39",(495) 339-00-16,55.617830595,37.47817828,зал теннисный №9,07:00-23:00,07:00-23:00,07:00-23:00,07:00-23:00,07:00-23:00,07:00-23:00,07:00-23:00,tennis
50,51,Спортивный комплекс «Будь Здоров»,Новомосковский административный округ,"поселение ""Мосрентген""","поселение ""Мосрентген"", посёлок Завода Мосрентген, дом 39",(495) 339-00-16,55.618050712,37.478878568,зал теннисный №3,07:00-23:00,07:00-23:00,07:00-23:00,07:00-23:00,07:00-23:00,07:00-23:00,07:00-23:00,tennis
51,52,Спортивный комплекс «Будь Здоров»,Новомосковский административный округ,"поселение ""Мосрентген""","поселение ""Мосрентген"", посёлок Завода Мосрентген, дом 39",(495) 339-00-16,55.61788524,37.478916315,зал теннисный №2,07:00-23:00,07:00-23:00,07:00-23:00,07:00-23:00,07:00-23:00,07:00-23:00,07:00-23:00,tennis
52,53,Спортивный комплекс «Будь Здоров»,Новомосковский административный округ,"поселение ""Мосрентген""","поселение ""Мосрентген"", посёлок Завода Мосрентген, дом 39",(495) 339-00-16,55.618292042,37.477988271,зал теннисный №1,07:00-23:00,07:00-23:00,07:00-23:00,07:00-23:00,07:00-23:00,07:00-23:00,07:00-23:00,tennis
53,54,"Спортивный комплекс «Дворец детского спорта», стр.2",Центральный административный округ,Таганский район,"Рабочая улица, дом 53, строение 2",(495) 670-21-70,55.739854035,37.691496228,зал теннисный №1,07:00-23:00,07:00-23:00,07:00-23:00,07:00-23:00,07:00-23:00,07:00-23:00,07:00-23:00,tennis
54,55,"Спортивный комплекс «Дворец детского спорта», стр.2",Центральный административный округ,Таганский район,"Рабочая улица, дом 53, строение 2",(495) 670-21-70,55.739607386,37.69134066,зал теннисный №2,07:00-23:00,07:00-23:00,07:00-23:00,07:00-23:00,07:00-23:00,07:00-23:00,07:00-23:00,tennis
55,56,Школа большого тенниса «Плей Теннис»,Северо-Восточный административный округ,Останкинский район,"улица Академика Королёва, дом 13, строение 2",(903) 590-79-89,55.819535,37.61892,зал теннисный,09:00-23:00,09:00-23:00,09:00-23:00,09:00-23:00,09:00-23:00,09:00-23:00,09:00-23:00,tennis
56,57,Теннисный клуб «Про Клуб»,Зеленоградский административный округ,район Савёлки,"город Зеленоград, Озёрная аллея, дом 8",(495) 150-34-47,55.98663198,37.224577844,зал теннисный №4,08:00-20:00,08:00-20:00,08:00-20:00,08:00-20:00,08:00-20:00,08:00-20:00,08:00-20:00,tennis
57,58,Теннисный клуб «Про Клуб»,Зеленоградский административный округ,район Савёлки,"город Зеленоград, Озёрная аллея, дом 8",(495) 150-34-47,55.986655917,37.224342311,зал теннисный №3,08:00-20:00,08:00-20:00,08:00-20:00,08:00-20:00,08:00-20:00,08:00-20:00,08:00-20:00,tennis
58,59,Теннисный клуб «Про Клуб»,Зеленоградский административный округ,район Савёлки,"город Зеленоград, Озёрная аллея, дом 8",(495) 150-34-47,55.986609427,37.224816561,зал теннисный №5,08:00-20:00,08:00-20:00,08:00-20:00,08:00-20:00,08:00-20:00,08:00-20:00,08:00-20:00,tennis
59,60,Теннисный клуб «Про Клуб»,Зеленоградский административный округ,район Савёлки,"город Зеленоград, Озёрная аллея, дом 8",(495) 150-34-47,55.986679928,37.224068292,зал теннисный №2,08:00-20:00,08:00-20:00,08:00-20:00,08:00-20:00,08:00-20:00,08:00-20:00,08:00-20:00,tennis
60,61,Теннисный клуб «Про Клуб»,Зеленоградский административный округ,район Савёлки,"город Зеленоград, Озёрная аллея, дом 8",(495) 150-34-47,55.98670604,37.22380475,зал теннисный №1,08:00-20:00,08:00-20:00,08:00-20:00,08:00-20:00,08:00-20:00,08:00-20:00,08:00-20:00,tennis
61,62,Спортивный комплекс образовательного учреждения,Юго-Западный административный округ,район Северное Бутово,"Старокачаловская улица, дом 22",(495) 713-68-63,55.57104645,37.584121792,зал теннисный №1,08:00-21:00,08:00-21:00,08:00-21:00,08:00-21:00,08:00-21:00,08:00-21:00,08:00-21:00,tennis
62,63,Спортивный комплекс «Измайлово»,Восточный административный округ,район Северное Измайлово,"11-я Парковая улица, дом 49",(499) 463-54-66,55.806113313,37.803526476,теннисный корт (в манеже),07:00-23:00,07:00-23:00,07:00-23:00,07:00-23:00,07:00-23:00,07:00-23:00,07:00-23:00,tennis
63,64,Физкультурно-оздоровительный комплекс «Южное Бутово»,Юго-Западный административный округ,район Южное Бутово,"улица Поляны, дом 35",(495) 716-40-27,55.550266587,37.548577535,"зал теннисный №2, «Крытый»",07:00-23:00,07:00-23:00,07:00-23:00,07:00-23:00,07:00-23:00,07:00-23:00,07:00-23:00,tennis
64,65,Физкультурно-оздоровительный комплекс «Южное Бутово»,Юго-Западный административный округ,район Южное Бутово,"улица Поляны, дом 35",(495) 716-40-27,55.550181818,37.548791369,"зал теннисный №1, «Крытый»",07:00-23:00,07:00-23:00,07:00-23:00,07:00-23:00,07:00-23:00,07:00-23:00,07:00-23:00,tennis
65,66,Физкультурно-оздоровительный комплекс МССУОР № 3,Восточный административный округ,район Соколиная Гора,"Ткацкая улица, дом 24",(499) 166-95-34,55.785692587,37.731423933,зал теннисный №2,07:00-23:00,07:00-23:00,07:00-23:00,07:00-23:00,07:00-23:00,07:00-23:00,07:00-23:00,tennis
66,67,Физкультурно-оздоровительный комплекс МССУОР № 3,Восточный административный округ,район Соколиная Гора,"Ткацкая улица, дом 24",(499) 166-95-34,55.785641701,37.731713611,зал теннисный №1,07:00-23:00,07:00-23:00,07:00-23:00,07:00-23:00,07:00-23:00,07:00-23:00,07:00-23:00,tennis
67,68,Спортивный комплекс «Лаун-теннис»,Юго-Западный административный округ,район Ясенево,"улица Паустовского, дом 4А",(499) 444-14-78,55.601858825,37.536060629,"зал теннисный, «Большой»",07:00-23:00,07:00-23:00,07:00-23:00,07:00-23:00,07:00-23:00,07:00-23:00,07:00-23:00,tennis
68,69,Фитнес-клуб «Вита-спорт»,Северо-Западный административный округ,район Хорошёво-Мнёвники,"Живописная улица, дом 21, корпус 2",(495) 032-36-36,55.790652057,37.449083601,зал теннисный №2,08:00-20:00,08:00-20:00,08:00-20:00,08:00-20:00,08:00-20:00,08:00-20:00,08:00-20:00,tennis
69,70,Спортивный Арт-клуб «Галерея»,Юго-Восточный административный округ,район Печатники,"улица Гурьянова, дом 30",(499) 786-14-90,55.680707,37.715821,зал теннисный №2,08:00-23:00,08:00-23:00,08:00-23:00,08:00-23:00,08:00-23:00,08:00-23:00,08:00-23:00,tennis
70,71,Фитнес-клуб «Вита-спорт»,Северо-Западный административный округ,район Хорошёво-Мнёвники,"Живописная улица, дом 21, корпус 2",(495) 032-36-36,55.790652206,37.448774922,зал теннисный №1,08:00-20:00,08:00-20:00,08:00-20:00,08:00-20:00,08:00-20:00,08:00-20:00,08:00-20:00,tennis
71,72,Спортивный Арт-клуб «Галерея»,Юго-Восточный административный округ,район Печатники,"улица Гурьянова, дом 30",(499) 786-14-90,55.680707,37.715821,зал теннисный №1,08:00-23:00,08:00-23:00,08:00-23:00,08:00-23:00,08:00-23:00,08:00-23:00,08:00-23:00,tennis
72,73,Фитнес-клуб «Донспорт Алые паруса»,Северо-Западный административный округ,район Щукино,"Авиационная улица, дом 79",(495) 125-46-08,55.806930624,37.450141364,зал теннисный,08:00-22:00,08:00-22:00,08:00-22:00,08:00-22:00,08:00-22:00,08:00-22:00,08:00-22:00,tennis
73,74,Фитнес-клуб «Премьер-спорт»,Западный административный округ,район Раменки,"улица Улофа Пальме, дом 5, строение 2",(499) 112-22-98,55.717549135,37.508484391,зал теннисный №1,07:00-23:00,07:00-23:00,07:00-23:00,07:00-23:00,07:00-23:00,09:00-23:00,09:00-23:00,tennis
74,75,Фитнес-клуб «Велнесс Парк»,Юго-Западный административный округ,Обручевский район,"улица Воронцовские Пруды, дом 3",(495) 225-55-59,55.663607918,37.536757887,зал теннисный,07:00-23:59,07:00-23:59,07:00-23:59,07:00-23:59,07:00-23:59,09:00-23:00,09:00-23:00,tennis
75,76,Теннисный центр «Спартак»,Восточный административный округ,район Сокольники,"Майский просек, дом 7, строение 7",(925) 278-79-03,55.805027391,37.681013773,"зал теннисный №1, «бадминтон»",09:00-21:00,09:00-21:00,09:00-21:00,09:00-21:00,09:00-21:00,09:00-21:00,09:00-21:00,tennis
76,77,Спортивный комплекс «Будь Здоров»,Новомосковский административный округ,"поселение ""Мосрентген""","поселение ""Мосрентген"", посёлок Завода Мосрентген, дом 39",(495) 339-00-16,55.618064355,37.478084831,зал теннисный №8,07:00-23:00,07:00-23:00,07:00-23:00,07:00-23:00,07:00-23:00,07:00-23:00,07:00-23:00,tennis
77,78,Стадион «Салют Гераклион»,Северо-Западный административный округ,район Южное Тушино,"Лодочная улица, дом 15, строение 1",(495) 497-12-51,55.837656964,37.460465404,"зал теннисный №1, «Теннисный клуб»",07:00-23:00,07:00-23:00,07:00-23:00,07:00-23:00,07:00-23:00,10:00-18:00,10:00-18:00,tennis
78,79,Стадион «Салют Гераклион»,Северо-Западный административный округ,район Южное Тушино,"Лодочная улица, дом 15, строение 1",(495) 497-12-51,55.83768469,37.460887956,"зал теннисный №2, «Теннисный клуб»",07:00-23:00,07:00-23:00,07:00-23:00,07:00-23:00,07:00-23:00,10:00-18:00,10:00-18:00,tennis
79,80,Физкультурно-оздоровительный комплекс «Академия тенниса»,Западный административный округ,район Тропарёво-Никулино,"улица Мичуринский Проспект, Олимпийская Деревня, дом 2, строение 2",(495) 437-19-66,55.674756033,37.474355328,зал теннисный №3,07:00-23:00,07:00-23:00,07:00-23:00,07:00-23:00,07:00-23:00,07:00-23:00,07:00-23:00,tennis
80,81,Спортивный комплекс Московской теннисной академии на ул. Чоботовской,Западный административный округ,район Ново-Переделкино,"Чоботовская улица, дом 4, корпус 1",(499) 737-00-07,55.646521396,37.353335159,зал теннисный №3,07:00-23:00,07:00-23:00,07:00-23:00,07:00-23:00,07:00-23:00,07:00-23:00,07:00-23:00,tennis
81,82,Крытые теннисные корты,Западный административный округ,район Тропарёво-Никулино,"улица Мичуринский Проспект, Олимпийская Деревня, дом 2, строение 2",(929) 557-47-09,55.674880322,37.474583316,зал теннисный №2,07:00-23:00,07:00-23:00,07:00-23:00,07:00-23:00,07:00-23:00,07:00-23:00,07:00-23:00,tennis
82,83,Физкультурно-оздоровительный комплекс «Академия тенниса»,Западный административный округ,район Тропарёво-Никулино,"улица Мичуринский Проспект, Олимпийская Деревня, дом 2, строение 2",(495) 437-19-66,55.674991369,37.474803941,зал теннисный №1,07:00-23:00,07:00-23:00,07:00-23:00,07:00-23:00,07:00-23:00,07:00-23:00,07:00-23:00,tennis
83,84,Теннисный клуб «Теннис Парк Янтарь»,Северо-Западный административный округ,район Строгино,"улица Маршала Катукова, дом 26",(495) 942-88-47,55.800181781,37.414280917,зал теннисный №4,07:00-23:00,07:00-23:00,07:00-23:00,07:00-23:00,07:00-23:00,07:00-23:00,07:00-23:00,tennis
84,85,Спортивный комплекс Московской теннисной академии на ул. Чоботовской,Западный административный округ,район Ново-Переделкино,"Чоботовская улица, дом 4, корпус 1",(499) 737-00-07,55.646549532,37.353037434,зал теннисный №2,07:00-23:00,07:00-23:00,07:00-23:00,07:00-23:00,07:00-23:00,07:00-23:00,07:00-23:00,tennis
85,86,Теннисный клуб «Теннис Парк Янтарь»,Северо-Западный административный округ,район Строгино,"улица Маршала Катукова, дом 26",(495) 942-88-47,55.800186313,37.413996603,зал теннисный №5,07:00-23:00,07:00-23:00,07:00-23:00,07:00-23:00,07:00-23:00,07:00-23:00,07:00-23:00,tennis
86,87,Теннисный клуб «Теннис Парк Янтарь»,Северо-Западный административный округ,район Строгино,"улица Маршала Катукова, дом 26",(495) 942-88-47,55.800063936,37.414887097,зал теннисный №2,07:00-23:00,07:00-23:00,07:00-23:00,07:00-23:00,07:00-23:00,07:00-23:00,07:00-23:00,tennis
87,88,Теннисный клуб «Теннис Парк Янтарь»,Северо-Западный административный округ,район Строгино,"улица Маршала Катукова, дом 26",(495) 942-88-47,55.800143886,37.414633625,зал теннисный №3,07:00-23:00,07:00-23:00,07:00-23:00,07:00-23:00,07:00-23:00,07:00-23:00,07:00-23:00,tennis
88,89,Теннисный клуб «Теннис Парк Янтарь»,Северо-Западный административный округ,район Строгино,"улица Маршала Катукова, дом 26",(495) 942-88-47,55.799989095,37.415143804,зал теннисный №1,07:00-23:00,07:00-23:00,07:00-23:00,07:00-23:00,07:00-23:00,07:00-23:00,07:00-23:00,tennis
89,90,Спортивный комплекс «Спутник-Стиль»,Восточный административный округ,район Гольяново,"1-й Иртышский проезд, дом 8, строение 1",(495) 644-36-64,55.813566617,37.757994102,зал теннисный №1,09:00-20:00,09:00-20:00,09:00-20:00,09:00-20:00,09:00-20:00,09:00-20:00,09:00-20:00,tennis
90,91,Физкультурно-оздоровительный комплекс «Динамо-Центр»,Центральный административный округ,Тверской район,"улица Петровка, дом 26, строение 9",(495) 625-58-38,55.766650632,37.618447111,зал теннисный №5,07:00-22:00,07:00-22:00,07:00-22:00,07:00-22:00,07:00-22:00,07:00-22:00,07:00-22:00,tennis
91,92,Фитнес-клуб «Союз-спорт»,Юго-Западный административный округ,район Коньково,"улица Академика Волгина, дом 33А",(495) 781-84-84,55.642246627,37.506805066,зал теннисный №1,08:00-20:00,08:00-20:00,08:00-20:00,08:00-20:00,08:00-20:00,08:00-20:00,08:00-20:00,tennis
92,93,Фитнес-клуб «Союз-спорт»,Юго-Западный административный округ,район Коньково,"улица Академика Волгина, дом 33А",(495) 781-84-84,55.642246627,37.506805066,зал теннисный №2,08:00-20:00,08:00-20:00,08:00-20:00,08:00-20:00,08:00-20:00,08:00-20:00,08:00-20:00,tennis
93,94,Физкультурно-оздоровительный комплекс «Ньютон Арена»,Южный административный округ,район Нагатино-Садовники,"1-й Нагатинский проезд, дом 10, строение 3",(495) 280-15-15,55.677989849,37.631124893,зал теннисный,07:00-00:00,07:00-00:00,07:00-00:00,07:00-00:00,07:00-00:00,09:00-00:00,09:00-00:00,tennis
94,95,Физкультурно-оздоровительный комплекс «Динамо-Центр»,Центральный административный округ,Тверской район,"улица Петровка, дом 26, строение 9",(495) 625-58-38,55.766516065,37.619127554,зал теннисный №7,07:00-22:00,07:00-22:00,07:00-22:00,07:00-22:00,07:00-22:00,07:00-22:00,07:00-22:00,tennis
95,96,Физкультурно-оздоровительный комплекс «Динамо-Центр»,Центральный административный округ,Тверской район,"улица Петровка, дом 26, строение 9",(495) 625-58-38,55.766209927,37.617826437,зал теннисный №8,07:00-22:00,07:00-22:00,07:00-22:00,07:00-22:00,07:00-22:00,07:00-22:00,07:00-22:00,tennis
96,97,Физкультурно-оздоровительный комплекс «Динамо-Центр»,Центральный административный округ,Тверской район,"улица Петровка, дом 26, строение 9",(495) 625-58-38,55.766629289,37.619122945,зал теннисный №6,07:00-23:00,07:00-23:00,07:00-23:00,07:00-23:00,07:00-23:00,07:00-23:00,07:00-23:00,tennis
97,98,Физкультурно-оздоровительный комплекс «Динамо-Центр»,Центральный административный округ,Тверской район,"улица Петровка, дом 26, строение 9",(495) 625-58-38,55.766371724,37.618473013,зал теннисный №4,07:00-23:00,07:00-23:00,07:00-23:00,07:00-23:00,07:00-23:00,07:00-23:00,07:00-23:00,tennis
98,99,Физкультурно-оздоровительный комплекс «Динамо-Центр»,Центральный административный округ,Тверской район,"улица Петровка, дом 26, строение 9",(495) 625-58-38,55.76601637,37.617831801,зал теннисный №1,08:00-22:00,08:00-22:00,08:00-22:00,08:00-22:00,08:00-22:00,08:00-22:00,08:00-22:00,tennis
99,100,Спортивный комплекс образовательного учреждения,Южный административный округ,район Нагатинский Затон,"Коломенская набережная, дом 20",(499) 615-89-88,55.67666874,37.696688158,зал теннисный №5,07:00-23:00,07:00-23:00,07:00-23:00,07:00-23:00,07:00-23:00,07:00-23:00,07:00-23:00,tennis
100,101,Физкультурно-оздоровительный комплекс «Динамо-Центр»,Центральный административный округ,Тверской район,"улица Петровка, дом 26, строение 9",(495) 625-58-38,55.76651193,37.618456348,зал теннисный №3,07:00-23:00,07:00-23:00,07:00-23:00,07:00-23:00,07:00-23:00,07:00-23:00,07:00-23:00,tennis
101,102,Физкультурно-оздоровительный комплекс «Динамо-Центр»,Центральный административный округ,Тверской район,"улица Петровка, дом 26, строение 9",(495) 625-58-38,55.766119197,37.617906903,зал теннисный №2,08:00-22:00,08:00-22:00,08:00-22:00,08:00-22:00,08:00-22:00,08:00-22:00,08:00-22:00,tennis
102,103,Спортивный комплекс «Спорт Тайм»,Западный административный округ,район Раменки,"улица Лобачевского, дом 110, корпус 1",(495) 205-49-09,55.692696896,37.47691558,зал теннисный №1,круглосуточно,круглосуточно,круглосуточно,круглосуточно,круглосуточно,круглосуточно,круглосуточно,tennis
103,104,Комплекс спортивных сооружений «Русская теннисная академия»,Троицкий административный округ,поселение Первомайское,"вблизи деревни Рогозинино, дом 7Б/Н",(495) 032-98-19,55.539919242,37.18644782,зал теннисный №3,09:00-22:00,09:00-22:00,09:00-22:00,09:00-22:00,09:00-22:00,09:00-22:00,09:00-22:00,tennis
104,105,Комплекс спортивных сооружений «Русская теннисная академия»,Троицкий административный округ,поселение Первомайское,"вблизи деревни Рогозинино, дом 7Б/Н",(495) 032-98-19,55.540083505,37.184527359,зал теннисный №1,09:00-22:00,09:00-22:00,09:00-22:00,09:00-22:00,09:00-22:00,09:00-22:00,09:00-22:00,tennis
105,106,Комплекс спортивных сооружений «Русская теннисная академия»,Троицкий административный округ,поселение Первомайское,"вблизи деревни Рогозинино, дом 7Б/Н",(495) 032-98-19,55.539834069,37.186984262,зал теннисный №4,09:00-22:00,09:00-22:00,09:00-22:00,09:00-22:00,09:00-22:00,09:00-22:00,09:00-22:00,tennis
106,107,Комплекс спортивных сооружений «Русская теннисная академия»,Троицкий административный округ,поселение Первомайское,"вблизи деревни Рогозинино, дом 7Б/Н",(495) 032-98-19,55.540010499,37.185237829,зал теннисный №2,09:00-22:00,09:00-22:00,09:00-22:00,09:00-22:00,09:00-22:00,09:00-22:00,09:00-22:00,tennis
107,108,Сквош-клуб «Москва»,Юго-Восточный административный округ,Южнопортовый район,"Шарикоподшипниковская улица, дом 13, строение 46",(495) 118-30-50,55.721914,37.684317,зал теннисный,07:00-23:00,07:00-23:00,07:00-23:00,07:00-23:00,07:00-23:00,08:00-22:00,08:00-22:00,tennis
108,109,Государственное бюджетное учреждение культуры города Москвы «Центр культуры и искусства «Меридиан»,Юго-Западный административный округ,район Черёмушки,"Профсоюзная улица, дом 61",(495) 335-46-10,55.656794636,37.54227744,Зал теннисный,10:00-22:00,10:00-22:00,10:00-22:00,10:00-22:00,10:00-22:00,10:00-22:00,10:00-22:00,tennis
109,110,Фитнес-клуб «Мультиспорт»,Центральный административный округ,район Хамовники,"улица Лужники, дом 24, строение 10",(495) 788-16-98,55.721379347,37.549233777,зал теннисный №6,08:00-23:00,08:00-23:00,08:00-23:00,08:00-23:00,08:00-23:00,08:00-23:00,08:00-23:00,tennis
110,111,Стадион «РЖД Арена»,Восточный административный округ,район Преображенское,"Большая Черкизовская улица, владение 125, строение 1",(499) 161-42-83,55.803540049,37.743223864,зал теннисный №1,08:00-20:00,08:00-20:00,08:00-20:00,08:00-20:00,08:00-20:00,08:00-20:00,08:00-20:00,tennis
111,112,Стадион «РЖД Арена»,Восточный административный округ,район Преображенское,"Большая Черкизовская улица, владение 125, строение 1",(499) 161-42-83,55.80332553,37.743068296,зал теннисный №3,08:00-20:00,08:00-20:00,08:00-20:00,08:00-20:00,08:00-20:00,08:00-20:00,08:00-20:00,tennis
112,113,Фитнес-клуб «Мультиспорт»,Центральный административный округ,район Хамовники,"улица Лужники, дом 24, строение 10",(495) 788-16-98,55.721679098,37.550204737,зал теннисный №5,08:00-23:00,08:00-23:00,08:00-23:00,08:00-23:00,08:00-23:00,08:00-23:00,08:00-23:00,tennis
113,114,Теннисный клуб «Лосинка»,Северо-Восточный административный округ,Лосиноостровский район,"Осташковская улица, владение 14, корпус 1, строение 4",(910) 420-33-32,55.881190633,37.679297815,зал теннисный №2,07:00-23:55,07:00-23:55,07:00-23:55,07:00-23:55,07:00-23:55,07:00-23:55,07:00-23:55,tennis
114,115,Стадион «РЖД Арена»,Восточный административный округ,район Преображенское,"Большая Черкизовская улица, владение 125, строение 1",(499) 161-42-83,55.803200141,37.743140716,зал теннисный №4,08:00-20:00,08:00-20:00,08:00-20:00,08:00-20:00,08:00-20:00,08:00-20:00,08:00-20:00,tennis
115,116,Стадион «РЖД Арена»,Восточный административный округ,район Преображенское,"Большая Черкизовская улица, владение 125, строение 1",(499) 161-42-83,55.803410129,37.743304331,зал теннисный №2,08:00-20:00,08:00-20:00,08:00-20:00,08:00-20:00,08:00-20:00,08:00-20:00,08:00-20:00,tennis
116,117,Фитнес-клуб «Мультиспорт»,Центральный административный округ,район Хамовники,"улица Лужники, дом 24, строение 10",(495) 788-16-98,55.721591292,37.550057216,зал теннисный №4,08:00-23:00,08:00-23:00,08:00-23:00,08:00-23:00,08:00-23:00,08:00-23:00,08:00-23:00,tennis
117,118,Детско-юношеская спортивная школа «Теннис парк»,Юго-Восточный административный округ,Нижегородский район,"Рязанский проспект, дом 4А, строение 1",(495) 287-39-00,55.728292958,37.745395491,зал теннисный №5,07:00-23:55,07:00-23:55,07:00-23:55,07:00-23:55,07:00-23:55,07:00-23:55,07:00-23:55,tennis
118,119,Детско-юношеская спортивная школа «Теннис парк»,Юго-Восточный административный округ,Нижегородский район,"Рязанский проспект, дом 4А, строение 1",(495) 287-39-00,55.727817125,37.745186279,зал теннисный №1,07:00-23:55,07:00-23:55,07:00-23:55,07:00-23:55,07:00-23:55,07:00-23:55,07:00-23:55,tennis
119,120,Фитнес-клуб «Мультиспорт»,Центральный административный округ,район Хамовники,"улица Лужники, дом 24, строение 10",(495) 788-16-98,55.721765388,37.550043805,зал теннисный №3,08:00-23:00,08:00-23:00,08:00-23:00,08:00-23:00,08:00-23:00,08:00-23:00,08:00-23:00,tennis
120,121,Фитнес-клуб «Мультиспорт»,Центральный административный округ,район Хамовники,"улица Лужники, дом 24, строение 10",(495) 788-16-98,55.7217775,37.549719257,зал теннисный №1,08:00-23:00,08:00-23:00,08:00-23:00,08:00-23:00,08:00-23:00,08:00-23:00,08:00-23:00,tennis
121,122,Детско-юношеская спортивная школа «Теннис парк»,Юго-Восточный административный округ,Нижегородский район,"Рязанский проспект, дом 4А, строение 1",(495) 287-39-00,55.728190031,37.74535794,зал теннисный №3,07:00-23:55,07:00-23:55,07:00-23:55,07:00-23:55,07:00-23:55,07:00-23:55,07:00-23:55,tennis
122,123,Детско-юношеская спортивная школа «Теннис парк»,Юго-Восточный административный округ,Нижегородский район,"Рязанский проспект, дом 4А, строение 1",(495) 287-39-00,55.727953836,37.745233583,зал теннисный №2,07:00-23:55,07:00-23:55,07:00-23:55,07:00-23:55,07:00-23:55,07:00-23:55,07:00-23:55,tennis
123,124,Детско-юношеская спортивная школа «Теннис парк»,Юго-Восточный административный округ,Нижегородский район,"Рязанский проспект, дом 4А, строение 1",(495) 287-39-00,55.727832261,37.745137999,зал теннисный №10,07:00-23:55,07:00-23:55,07:00-23:55,07:00-23:55,07:00-23:55,07:00-23:55,07:00-23:55,tennis
124,125,Детско-юношеская спортивная школа «Теннис парк»,Юго-Восточный административный округ,Нижегородский район,"Рязанский проспект, дом 4А, строение 1",(495) 287-39-00,55.728764106,37.745561788,зал теннисный №8,07:00-23:55,07:00-23:55,07:00-23:55,07:00-23:55,07:00-23:55,07:00-23:55,07:00-23:55,tennis
125,126,Детско-юношеская спортивная школа «Теннис парк»,Юго-Восточный административный округ,Нижегородский район,"Рязанский проспект, дом 4А, строение 1",(495) 287-39-00,55.728568712,37.745545695,зал теннисный №7,07:00-23:55,07:00-23:55,07:00-23:55,07:00-23:55,07:00-23:55,07:00-23:55,07:00-23:55,tennis
126,127,Теннисный Клуб «Лига»,Юго-Восточный административный округ,Южнопортовый район,"1-я улица Машиностроения, дом 3/5А",(495) 369-48-32,55.715539955,37.672693651,зал теннисный №1,08:00-22:00,08:00-22:00,08:00-22:00,08:00-22:00,08:00-22:00,08:00-22:00,08:00-22:00,tennis
127,128,Теннисный клуб «Лосинка»,Северо-Восточный административный округ,Лосиноостровский район,"Осташковская улица, владение 14, корпус 1, строение 4",(910) 420-33-32,55.880880309,37.67908592,зал теннисный №1,07:00-23:55,07:00-23:55,07:00-23:55,07:00-23:55,07:00-23:55,07:00-23:55,07:00-23:55,tennis
128,129,Теннисный клуб «Мейджор»,Южный административный округ,Нагорный район,"Электролитный проезд, дом 3, строение 2",(916) 780-65-65,55.675542075,37.616936491,зал теннисный №3,07:00-00:00,07:00-00:00,07:00-00:00,07:00-00:00,07:00-00:00,07:00-00:00,07:00-00:00,tennis
129,130,Теннисный клуб «Мейджор»,Южный административный округ,Нагорный район,"Электролитный проезд, дом 3, строение 2",(916) 780-65-65,55.675281263,37.617934071,зал теннисный №4,07:00-00:00,07:00-00:00,07:00-00:00,07:00-00:00,07:00-00:00,07:00-00:00,07:00-00:00,tennis
130,131,Физкультурно-оздоровительный комплекс с бассейном «Чайка»,Центральный административный округ,район Хамовники,"Турчанинов переулок, дом 3, строение 1",(499) 246-13-44,55.736402853,37.596233737,зал теннисный,08:00-20:00,08:00-20:00,08:00-20:00,08:00-20:00,08:00-20:00,08:00-20:00,08:00-20:00,tennis
131,132,Спортивно-оздоровительный комплекс «Звезда»,Западный административный округ,район Филёвский Парк,"Большая Филёвская улица, дом 20",(495) 120-51-20,55.748455814,37.497926243,зал теннисный №1,07:00-23:00,07:00-23:00,07:00-23:00,07:00-23:00,07:00-23:00,07:00-23:00,07:00-23:00,tennis
132,133,Теннисный клуб «Мейджор»,Южный административный округ,Нагорный район,"Электролитный проезд, дом 3, строение 2",(916) 780-65-65,55.675911899,37.617022321,зал теннисный №1,07:00-00:00,07:00-00:00,07:00-00:00,07:00-00:00,07:00-00:00,07:00-00:00,07:00-00:00,tennis
133,134,Теннисный клуб «Мейджор»,Южный административный округ,Нагорный район,"Электролитный проезд, дом 3, строение 2",(916) 780-65-65,55.6759604,37.618030832,зал теннисный №2,07:00-00:00,07:00-00:00,07:00-00:00,07:00-00:00,07:00-00:00,07:00-00:00,07:00-00:00,tennis
134,135,Спортивный комплекс Московского энергетического института,Юго-Восточный административный округ,район Лефортово,"2-й Краснокурсантский проезд, дом 12, строение 1",(495) 361-19-58,55.762309003,37.700966542,зал теннисный №1,08:00-22:00,08:00-22:00,08:00-22:00,08:00-22:00,08:00-22:00,08:00-22:00,08:00-22:00,tennis
135,136,Московская Академия тенниса на проспекте Вернадского,Западный административный округ,район Тропарёво-Никулино,"проспект Вернадского, дом 97, корпус 2",(499) 431-66-16,55.668317666,37.49354244,зал теннисный №3,07:00-23:00,07:00-23:00,07:00-23:00,07:00-23:00,07:00-23:00,07:00-23:00,07:00-23:00,tennis
136,137,Спортивный комплекс Московского энергетического института,Юго-Восточный административный округ,район Лефортово,"2-й Краснокурсантский проезд, дом 12, строение 1",(495) 361-19-58,55.76207817,37.701650372,зал теннисный №2,08:00-22:00,08:00-22:00,08:00-22:00,08:00-22:00,08:00-22:00,08:00-22:00,08:00-22:00,tennis
137,138,Стадион «Буревестник»,Центральный административный округ,район Хамовники,"улица Плющиха, дом 57",(495) 532-37-85,55.736483022,37.57659141,зал теннисный №2,08:00-20:00,08:00-20:00,08:00-20:00,08:00-20:00,08:00-20:00,08:00-20:00,08:00-20:00,tennis
138,139,Стадион «Буревестник»,Центральный административный округ,район Хамовники,"улица Плющиха, дом 57",(495) 532-37-85,55.736528588,37.576290105,зал теннисный №1,08:00-20:00,08:00-20:00,08:00-20:00,08:00-20:00,08:00-20:00,08:00-20:00,08:00-20:00,tennis
139,140,Велотрек «Крылатское»,Западный административный округ,район Крылатское,"Крылатская улица, дом 10",(499) 490-04-86,55.763427221,37.43321269,зал теннисный №1,09:00-23:00,09:00-23:00,09:00-23:00,09:00-23:00,09:00-23:00,09:00-23:00,09:00-23:00,tennis
140,141,Фитнес-клуб «Репаблика» Митино,Северо-Западный административный округ,район Митино,"Митинская улица, дом 24, строение 1",(495) 032-77-79,55.844155661,37.372579788,зал теннисный №1,09:00-22:00,09:00-22:00,09:00-22:00,09:00-22:00,09:00-22:00,09:00-22:00,09:00-22:00,tennis
141,142,Велотрек «Крылатское»,Западный административный округ,район Крылатское,"Крылатская улица, дом 10",(499) 490-04-86,55.762937245,37.432944469,зал теннисный №4,09:00-23:00,09:00-23:00,09:00-23:00,09:00-23:00,09:00-23:00,09:00-23:00,09:00-23:00,tennis
142,143,Спортивный комплекс «Школа тенниса»,Юго-Восточный административный округ,район Выхино-Жулебино,"улица Авиаконструктора Миля, владение 4А, строение 1",(495) 706-23-83,55.6872493,37.850845318,зал теннисный №2,07:00-23:55,07:00-23:55,07:00-23:55,07:00-23:55,07:00-23:55,08:00-23:55,08:00-23:55,tennis
143,144,Спортивный комплекс «Школа тенниса»,Юго-Восточный административный округ,район Выхино-Жулебино,"улица Авиаконструктора Миля, владение 4А, строение 1",(495) 706-23-83,55.687367487,37.851051848,зал теннисный №3,07:00-23:55,07:00-23:55,07:00-23:55,07:00-23:55,07:00-23:55,08:00-23:55,08:00-23:55,tennis
144,145,Спортивный комплекс «Школа тенниса»,Юго-Восточный административный округ,район Выхино-Жулебино,"улица Авиаконструктора Миля, владение 4А, строение 1",(495) 706-23-83,55.687476583,37.851169865,зал теннисный №4,07:00-23:55,07:00-23:55,07:00-23:55,07:00-23:55,07:00-23:55,08:00-23:55,08:00-23:55,tennis
145,146,Спортивный комплекс «Школа тенниса»,Юго-Восточный административный округ,район Выхино-Жулебино,"улица Авиаконструктора Миля, владение 4А, строение 1",(495) 706-23-83,55.687112929,37.850638788,зал теннисный №1,07:00-23:55,07:00-23:55,07:00-23:55,07:00-23:55,07:00-23:55,08:00-23:55,08:00-23:55,tennis
146,147,Велотрек «Крылатское»,Западный административный округ,район Крылатское,"Крылатская улица, дом 10",(499) 490-04-86,55.762724013,37.432829134,зал теннисный №3,09:00-23:00,09:00-23:00,09:00-23:00,09:00-23:00,09:00-23:00,09:00-23:00,09:00-23:00,tennis
147,148,Велотрек «Крылатское»,Западный административный округ,район Крылатское,"Крылатская улица, дом 10",(499) 490-04-86,55.763180972,37.433072543,зал теннисный №2,09:00-23:00,09:00-23:00,09:00-23:00,09:00-23:00,09:00-23:00,09:00-23:00,09:00-23:00,tennis
148,149,Спортивный комплекс «Школа тенниса»,Юго-Восточный административный округ,район Выхино-Жулебино,"улица Авиаконструктора Миля, владение 4А, строение 1",(495) 706-23-83,55.68756295,37.851320069,зал теннисный №5,07:00-23:55,07:00-23:55,07:00-23:55,07:00-23:55,07:00-23:55,08:00-23:55,08:00-23:55,tennis
149,150,Спортивный клуб «Дружба» Российского университета дружбы народов,Юго-Западный административный округ,Обручевский район,"улица Миклухо-Маклая, дом 4",(499) 936-87-87,55.651227414,37.496178393,зал теннисный №3,07:00-23:55,07:00-23:55,07:00-23:55,07:00-23:55,07:00-23:55,07:00-23:55,07:00-23:55,tennis
150,151,Теннисный зал «ТеннисГео»,Юго-Западный административный округ,район Коньково,"улица Бутлерова, дом 17",(985) 936-50-05,55.649978466,37.539467712,зал теннисный,07:00-23:00,07:00-23:00,07:00-23:00,07:00-23:00,07:00-23:00,07:00-23:00,07:00-23:00,tennis
151,152,Спортивный клуб «Дружба» Российского университета дружбы народов,Юго-Западный административный округ,Обручевский район,"улица Миклухо-Маклая, дом 4",(499) 936-87-87,55.651533259,37.496588179,зал теннисный №4,07:00-23:55,07:00-23:55,07:00-23:55,07:00-23:55,07:00-23:55,07:00-23:55,07:00-23:55,tennis
152,153,Спортивный клуб «Дружба» Российского университета дружбы народов,Юго-Западный административный округ,Обручевский район,"улица Миклухо-Маклая, дом 4",(499) 936-87-87,55.65097043,37.495844115,зал теннисный №1,07:00-23:55,07:00-23:55,07:00-23:55,07:00-23:55,07:00-23:55,07:00-23:55,07:00-23:55,tennis
153,154,Спортивный клуб «Дружба» Российского университета дружбы народов,Юго-Западный административный округ,Обручевский район,"улица Миклухо-Маклая, дом 4",(499) 936-87-87,55.650893347,37.496046331,зал теннисный №2,07:00-23:55,07:00-23:55,07:00-23:55,07:00-23:55,07:00-23:55,07:00-23:55,07:00-23:55,tennis
154,155,Теннисный Клуб «Лига»,Юго-Восточный административный округ,Южнопортовый район,"1-я улица Машиностроения, дом 3/5А",(495) 369-48-32,55.715757988,37.672613185,зал теннисный №2,08:00-22:00,08:00-22:00,08:00-22:00,08:00-22:00,08:00-22:00,08:00-22:00,08:00-22:00,tennis
155,156,Фитнес-клуб «Легион»,Южный административный округ,район Братеево,"улица Борисовские Пруды, дом 12, корпус 2",(495) 505-06-21,55.63577924,37.744760249,зал теннисный №1,07:00-23:00,07:00-23:00,07:00-23:00,07:00-23:00,07:00-23:00,08:00-22:00,08:00-22:00,tennis
156,157,Физкультурно-оздоровительный комплекс «Связист»,Восточный административный округ,район Сокольники,"Большая Тихоновская улица, дом 14, корпус 1",(499) 268-48-91,55.806457132,37.687048551,зал теннисный №3,07:00-23:00,07:00-23:00,07:00-23:00,07:00-23:00,07:00-23:00,07:00-23:00,07:00-23:00,tennis
157,158,Физкультурно-оздоровительный комплекс «Связист»,Восточный административный округ,район Сокольники,"Большая Тихоновская улица, дом 14, корпус 1",(499) 268-48-91,55.806685598,37.686952819,зал теннисный №1,07:00-23:00,07:00-23:00,07:00-23:00,07:00-23:00,07:00-23:00,07:00-23:00,07:00-23:00,tennis
158,159,Фитнес-клуб «Селф клуб»,Северо-Восточный административный округ,Бабушкинский район,"Верхоянская улица, дом 9",(495) 780-00-08,55.856037588,37.666502516,зал теннисный,07:00-00:00,07:00-00:00,07:00-00:00,07:00-00:00,07:00-00:00,08:00-23:00,08:00-23:00,tennis
159,160,Детско-юношеская спортивная школа «Теннис парк»,Юго-Восточный административный округ,Нижегородский район,"Рязанский проспект, дом 4А, строение 1",(495) 287-39-00,55.728889872,37.745626161,зал теннисный №9,07:00-23:55,07:00-23:55,07:00-23:55,07:00-23:55,07:00-23:55,07:00-23:55,07:00-23:55,tennis
160,161,Детско-юношеская спортивная школа «Теннис парк»,Юго-Восточный административный округ,Нижегородский район,"Рязанский проспект, дом 4А, строение 1",(495) 287-39-00,55.728089994,37.745296249,зал теннисный №4,07:00-23:55,07:00-23:55,07:00-23:55,07:00-23:55,07:00-23:55,07:00-23:55,07:00-23:55,tennis
161,162,Детско-юношеская спортивная школа «Теннис парк»,Юго-Восточный административный округ,Нижегородский район,"Рязанский проспект, дом 4А, строение 1",(495) 287-39-00,55.7284029,37.745474007,зал теннисный №6,07:00-23:55,07:00-23:55,07:00-23:55,07:00-23:55,07:00-23:55,07:00-23:55,07:00-23:55,tennis
162,163,Фитнес-клуб «Мультиспорт»,Центральный административный округ,район Хамовники,"улица Лужники, дом 24, строение 10",(495) 788-16-98,55.72185168,37.549866779,зал теннисный №2,08:00-23:00,08:00-23:00,08:00-23:00,08:00-23:00,08:00-23:00,08:00-23:00,08:00-23:00,tennis
163,164,Физкультурно-оздоровительный комплекс с бассейном «Теннис-ру»,Новомосковский административный округ,поселение Сосенское,"поселение Сосенское, деревня Летово, Малая Летовская улица, дом 8",(495) 980-10-10,55.570489542,37.408424882,зал теннисный №1,07:00-23:55,07:00-23:55,07:00-23:55,07:00-23:55,07:00-23:55,07:00-23:55,07:00-23:55,tennis
164,165,Физкультурно-оздоровительный комплекс «Связист»,Восточный административный округ,район Сокольники,"Большая Тихоновская улица, дом 14, корпус 1",(499) 268-48-91,55.806526138,37.687503504,зал теннисный №2,07:00-23:00,07:00-23:00,07:00-23:00,07:00-23:00,07:00-23:00,07:00-23:00,07:00-23:00,tennis
165,166,Физкультурно-оздоровительный комплекс с бассейном «Теннис-ру»,Новомосковский административный округ,поселение Сосенское,"поселение Сосенское, деревня Летово, Малая Летовская улица, дом 8",(495) 980-10-10,55.570281334,37.408789662,зал теннисный №13,07:00-23:55,07:00-23:55,07:00-23:55,07:00-23:55,07:00-23:55,07:00-23:55,07:00-23:55,tennis
166,167,Зал тенниссный ООО «Таежные бани»,Северо-Западный административный округ,район Покровское-Стрешнево,"Волоколамское шоссе, домовладение 89, строение 1",(495) 730-66-60,55.827788,37.409154,зал теннисный,круглосуточно,круглосуточно,круглосуточно,круглосуточно,круглосуточно,круглосуточно,круглосуточно,tennis
167,168,Фитнес-клуб «Олимпик стар»,Западный административный округ,район Филёвский Парк,"Рублёвское шоссе, дом 10",(495) 320-94-00,55.738989707,37.441067526,зал теннисный №2,07:00-00:00,07:00-00:00,07:00-00:00,07:00-00:00,07:00-00:00,09:00-23:00,09:00-23:00,tennis
168,169,Фитнес-клуб «Вита-спорт»,Северо-Западный административный округ,район Хорошёво-Мнёвники,"Живописная улица, дом 21, корпус 2",(495) 032-36-36,55.790239945,37.449077861,зал теннисный №6,08:00-20:00,08:00-20:00,08:00-20:00,08:00-20:00,08:00-20:00,08:00-20:00,08:00-20:00,tennis
169,170,Фитнес-клуб «Вита-спорт»,Северо-Западный административный округ,район Хорошёво-Мнёвники,"Живописная улица, дом 21, корпус 2",(495) 032-36-36,55.790470604,37.449125599,зал теннисный №4,08:00-20:00,08:00-20:00,08:00-20:00,08:00-20:00,08:00-20:00,08:00-20:00,08:00-20:00,tennis
170,171,Фитнес-клуб «Вита-спорт»,Северо-Западный административный округ,район Хорошёво-Мнёвники,"Живописная улица, дом 21, корпус 2",(495) 032-36-36,55.790493272,37.44879231,зал теннисный №3,08:00-20:00,08:00-20:00,08:00-20:00,08:00-20:00,08:00-20:00,08:00-20:00,08:00-20:00,tennis
171,172,Фитнес-клуб «Вита-спорт»,Северо-Западный административный округ,район Хорошёво-Мнёвники,"Живописная улица, дом 21, корпус 2",(495) 032-36-36,55.79026578,37.448752614,зал теннисный №5,08:00-20:00,08:00-20:00,08:00-20:00,08:00-20:00,08:00-20:00,08:00-20:00,08:00-20:00,tennis
172,173,Детская школа тенниса «Чайка»,Северный административный округ,Головинский район,"Ленинградское шоссе, дом 45Б, строение 2",(495) 255-17-47,55.844949734,37.475357972,зал теннисный №1,07:00-00:00,07:00-00:00,07:00-00:00,07:00-00:00,07:00-00:00,07:00-00:00,07:00-00:00,tennis
173,174,Дворец тенниса «ЦСКА»,Северный административный округ,Хорошёвский район,"Ленинградский проспект, дом 39, строение 12",(495) 613-79-01,55.7933704,37.538480673,зал теннисный №3,07:00-22:00,07:00-22:00,07:00-22:00,07:00-22:00,07:00-22:00,07:00-22:00,07:00-22:00,tennis
174,175,Спортивный комплекс «Спорт Тайм»,Западный административный округ,район Раменки,"улица Лобачевского, дом 110, корпус 1",(495) 205-49-09,55.69038,37.477247,зал теннисный №4,круглосуточно,круглосуточно,круглосуточно,круглосуточно,круглосуточно,круглосуточно,круглосуточно,tennis
175,176,Спортивный комплекс «Спорт Тайм»,Западный административный округ,район Раменки,"улица Лобачевского, дом 110, корпус 1",(495) 205-49-09,55.69038,37.477247,зал теннисный №3,круглосуточно,круглосуточно,круглосуточно,круглосуточно,круглосуточно,круглосуточно,круглосуточно,tennis
176,177,Спортивный комплекс «Спорт Тайм»,Западный административный округ,район Раменки,"улица Лобачевского, дом 110, корпус 1",(495) 205-49-09,55.69038,37.477247,зал теннисный №2,круглосуточно,круглосуточно,круглосуточно,круглосуточно,круглосуточно,круглосуточно,круглосуточно,tennis
177,178,Фитнес-клуб «Вита-спорт»,Северо-Западный административный округ,район Хорошёво-Мнёвники,"Живописная улица, дом 21, корпус 2",(495) 032-36-36,55.789782999,37.448786946,зал теннисный №12,08:00-20:00,08:00-20:00,08:00-20:00,08:00-20:00,08:00-20:00,08:00-20:00,08:00-20:00,tennis
178,179,Фитнес-клуб «Вита-спорт»,Северо-Западный административный округ,район Хорошёво-Мнёвники,"Живописная улица, дом 21, корпус 2",(495) 032-36-36,55.789737662,37.449124904,зал теннисный №11,08:00-20:00,08:00-20:00,08:00-20:00,08:00-20:00,08:00-20:00,08:00-20:00,08:00-20:00,tennis
179,180,Фитнес-клуб «Вита-спорт»,Северо-Западный административный округ,район Хорошёво-Мнёвники,"Живописная улица, дом 21, корпус 2",(495) 032-36-36,55.790169641,37.448732311,зал теннисный №8,08:00-20:00,08:00-20:00,08:00-20:00,08:00-20:00,08:00-20:00,08:00-20:00,08:00-20:00,tennis
180,181,Фитнес-клуб «Вита-спорт»,Северо-Западный административный округ,район Хорошёво-Мнёвники,"Живописная улица, дом 21, корпус 2",(495) 032-36-36,55.790073155,37.449135633,зал теннисный №7,08:00-20:00,08:00-20:00,08:00-20:00,08:00-20:00,08:00-20:00,08:00-20:00,08:00-20:00,tennis
181,182,Фитнес-клуб «Вита-спорт»,Северо-Западный административный округ,район Хорошёво-Мнёвники,"Живописная улица, дом 21, корпус 2",(495) 032-36-36,55.789877116,37.448779953,зал теннисный №10,08:00-20:00,08:00-20:00,08:00-20:00,08:00-20:00,08:00-20:00,08:00-20:00,08:00-20:00,tennis
182,183,Фитнес-клуб «Вита-спорт»,Северо-Западный административный округ,район Хорошёво-Мнёвники,"Живописная улица, дом 21, корпус 2",(495) 032-36-36,55.789884251,37.449197324,зал теннисный №9,08:00-20:00,08:00-20:00,08:00-20:00,08:00-20:00,08:00-20:00,08:00-20:00,08:00-20:00,tennis
183,184,Теннисный клуб «Каширский»,Южный административный округ,район Москворечье-Сабурово,"Каширское шоссе, дом 24, сооружение 1",(926) 390-00-00,55.654390439,37.643210718,зал теннисный №4,08:00-23:00,08:00-23:00,08:00-23:00,08:00-23:00,08:00-23:00,08:00-23:00,08:00-23:00,tennis
184,185,Теннисный клуб «Каширский»,Южный административный округ,район Москворечье-Сабурово,"Каширское шоссе, дом 24, сооружение 1",(926) 390-00-00,55.654457165,37.642907628,зал теннисный №3,08:00-23:00,08:00-23:00,08:00-23:00,08:00-23:00,08:00-23:00,08:00-23:00,08:00-23:00,tennis
185,186,Теннисный клуб «Каширский»,Южный административный округ,район Москворечье-Сабурово,"Каширское шоссе, дом 24, сооружение 1",(926) 390-00-00,55.654526924,37.642676958,зал теннисный №2,08:00-23:00,08:00-23:00,08:00-23:00,08:00-23:00,08:00-23:00,08:00-23:00,08:00-23:00,tennis
186,187,Теннисный клуб «Каширский»,Южный административный округ,район Москворечье-Сабурово,"Каширское шоссе, дом 24, сооружение 1",(926) 390-00-00,55.654565974,37.642454335,зал теннисный №1,08:00-23:00,08:00-23:00,08:00-23:00,08:00-23:00,08:00-23:00,08:00-23:00,08:00-23:00,tennis
187,188,Спортивно-оздоровительный комплекс «Звезда»,Западный административный округ,район Филёвский Парк,"Большая Филёвская улица, дом 20",(495) 120-51-20,55.748584923,37.497812699,зал теннисный №2,07:00-23:00,07:00-23:00,07:00-23:00,07:00-23:00,07:00-23:00,07:00-23:00,07:00-23:00,tennis
188,189,Спортивно-оздоровительный комплекс «Звезда»,Западный административный округ,район Филёвский Парк,"Большая Филёвская улица, дом 20",(495) 120-51-20,55.748722591,37.497694682,зал теннисный №3,07:00-23:00,07:00-23:00,07:00-23:00,07:00-23:00,07:00-23:00,07:00-23:00,07:00-23:00,tennis
189,190,Спортивно-оздоровительный комплекс «Звезда»,Западный административный округ,район Филёвский Парк,"Большая Филёвская улица, дом 20",(495) 120-51-20,55.748839079,37.497587394,зал теннисный №4,07:00-23:00,07:00-23:00,07:00-23:00,07:00-23:00,07:00-23:00,07:00-23:00,07:00-23:00,tennis
190,191,Детская школа тенниса «Чайка»,Северный административный округ,Головинский район,"Ленинградское шоссе, дом 45Б, строение 2",(495) 255-17-47,55.845834045,37.474808119,зал теннисный №4,07:00-00:00,07:00-00:00,07:00-00:00,07:00-00:00,07:00-00:00,07:00-00:00,07:00-00:00,tennis
191,192,Детская школа тенниса «Чайка»,Северный административный округ,Головинский район,"Ленинградское шоссе, дом 45Б, строение 2",(495) 255-17-47,55.845186659,37.475215815,зал теннисный №2,07:00-00:00,07:00-00:00,07:00-00:00,07:00-00:00,07:00-00:00,07:00-00:00,07:00-00:00,tennis
192,193,Детская школа тенниса «Чайка»,Северный административный округ,Головинский район,"Ленинградское шоссе, дом 45Б, строение 2",(495) 255-17-47,55.845502054,37.475030742,зал теннисный №3,07:00-00:00,07:00-00:00,07:00-00:00,07:00-00:00,07:00-00:00,07:00-00:00,07:00-00:00,tennis
193,194,Малая спортивная арена «Лужники»,Центральный административный округ,район Хамовники,"улица Лужники, дом 24, строение 3",(495) 780-08-08,55.719229777,37.55017883,зал теннисный,08:00-20:00,08:00-20:00,08:00-20:00,08:00-20:00,08:00-20:00,08:00-20:00,08:00-20:00,tennis
194,195,Теннисный центр «Спартак»,Восточный административный округ,район Сокольники,"Майский просек, дом 7, строение 7",(925) 278-79-03,55.803501553,37.683143282,зал теннисный №14,09:00-21:00,09:00-21:00,09:00-21:00,09:00-21:00,09:00-21:00,09:00-21:00,09:00-21:00,tennis
195,196,Теннисный центр «Спартак»,Восточный административный округ,район Сокольники,"Майский просек, дом 7, строение 7",(925) 278-79-03,55.803161645,37.683057452,зал теннисный №11,09:00-21:00,09:00-21:00,09:00-21:00,09:00-21:00,09:00-21:00,09:00-21:00,09:00-21:00,tennis
196,197,Теннисный центр «Спартак»,Восточный административный округ,район Сокольники,"Майский просек, дом 7, строение 7",(925) 278-79-03,55.803273437,37.683078909,зал теннисный №13,09:00-21:00,09:00-21:00,09:00-21:00,09:00-21:00,09:00-21:00,09:00-21:00,09:00-21:00,tennis
197,198,Теннисный центр «Спартак»,Восточный административный округ,район Сокольники,"Майский просек, дом 7, строение 7",(925) 278-79-03,55.803382208,37.683111096,зал теннисный №12,09:00-21:00,09:00-21:00,09:00-21:00,09:00-21:00,09:00-21:00,09:00-21:00,09:00-21:00,tennis
198,199,Теннисный центр «Спартак»,Восточный административный округ,район Сокольники,"Майский просек, дом 7, строение 7",(925) 278-79-03,55.803611078,37.683170105,зал теннисный №10,09:00-21:00,09:00-21:00,09:00-21:00,09:00-21:00,09:00-21:00,09:00-21:00,09:00-21:00,tennis
199,200,Теннисный центр «Спартак»,Восточный административный округ,район Сокольники,"Майский просек, дом 7, строение 7",(925) 278-79-03,55.803722115,37.683191562,зал теннисный №9,09:00-21:00,09:00-21:00,09:00-21:00,09:00-21:00,09:00-21:00,09:00-21:00,09:00-21:00,tennis
200,201,Теннисный центр «Спартак»,Восточный административный округ,район Сокольники,"Майский просек, дом 7, строение 7",(925) 278-79-03,55.804726711,37.683084274,зал теннисный №8,09:00-21:00,09:00-21:00,09:00-21:00,09:00-21:00,09:00-21:00,09:00-21:00,09:00-21:00,tennis
201,202,Теннисный центр «Спартак»,Восточный административный округ,район Сокольники,"Майский просек, дом 7, строение 7",(925) 278-79-03,55.804769009,37.682816053,зал теннисный №7,09:00-21:00,09:00-21:00,09:00-21:00,09:00-21:00,09:00-21:00,09:00-21:00,09:00-21:00,tennis
202,203,Теннисный центр «Спартак»,Восточный административный округ,район Сокольники,"Майский просек, дом 7, строение 7",(925) 278-79-03,55.804823392,37.682456637,зал теннисный №6,09:00-21:00,09:00-21:00,09:00-21:00,09:00-21:00,09:00-21:00,09:00-21:00,09:00-21:00,tennis
203,204,Теннисный центр «Спартак»,Восточный административный округ,район Сокольники,"Майский просек, дом 7, строение 7",(925) 278-79-03,55.804853605,37.682188416,"зал теннисный №5, «бадминтон»",09:00-21:00,09:00-21:00,09:00-21:00,09:00-21:00,09:00-21:00,09:00-21:00,09:00-21:00,tennis
204,205,Теннисный центр «Спартак»,Восточный административный округ,район Сокольники,"Майский просек, дом 7, строение 7",(925) 278-79-03,55.804895903,37.681904102,"зал теннисный №4, «бадминтон»",09:00-21:00,09:00-21:00,09:00-21:00,09:00-21:00,09:00-21:00,09:00-21:00,09:00-21:00,tennis
205,206,Теннисный центр «Спартак»,Восточный административный округ,район Сокольники,"Майский просек, дом 7, строение 7",(925) 278-79-03,55.804941223,37.681592966,"зал теннисный №3, «бадминтон»",09:00-21:00,09:00-21:00,09:00-21:00,09:00-21:00,09:00-21:00,09:00-21:00,09:00-21:00,tennis
206,207,Теннисный центр «Спартак»,Восточный административный округ,район Сокольники,"Майский просек, дом 7, строение 7",(925) 278-79-03,55.804980499,37.681314016,"зал теннисный №2, «бадминтон»",09:00-21:00,09:00-21:00,09:00-21:00,09:00-21:00,09:00-21:00,09:00-21:00,09:00-21:00,tennis
207,208,Велотрек «Крылатское»,Западный административный округ,район Крылатское,"Крылатская улица, дом 10",(499) 490-04-86,55.762819288,37.432255141,зал теннисный №6,09:00-23:00,09:00-23:00,09:00-23:00,09:00-23:00,09:00-23:00,09:00-23:00,09:00-23:00,tennis
208,209,Велотрек «Крылатское»,Западный административный округ,район Крылатское,"Крылатская улица, дом 10",(499) 490-04-86,55.762945563,37.432188086,зал теннисный №5,09:00-23:00,09:00-23:00,09:00-23:00,09:00-23:00,09:00-23:00,09:00-23:00,09:00-23:00,tennis
209,210,Физкультурно-оздоровительный комплекс «Комета» на Строгинском бульваре,Северо-Западный административный округ,район Строгино,"Строгинский бульвар, дом 3, корпус 1",(495) 942-77-65,55.805839902,37.398379226,зал теннисный,08:00-22:00,08:00-22:00,08:00-22:00,08:00-22:00,08:00-22:00,08:00-22:00,08:00-22:00,tennis
210,211,Физкультурно-оздоровительный комплекс «Импульс»,Зеленоградский административный округ,район Матушкино,"город Зеленоград, корпус 109А",(499) 734-51-26,56.007304675,37.211438539,зал теннисный,08:00-22:00,08:00-22:00,08:00-22:00,08:00-22:00,08:00-22:00,08:00-22:00,08:00-22:00,tennis
211,212,Спортивный комплекс «Спутник-Стиль»,Восточный административный округ,район Гольяново,"1-й Иртышский проезд, дом 8, строение 1",(495) 644-36-64,55.813694486,37.758273052,зал теннисный №3,09:00-20:00,09:00-20:00,09:00-20:00,09:00-20:00,09:00-20:00,09:00-20:00,09:00-20:00,tennis
212,213,Спортивный комплекс «Спутник-Стиль»,Восточный административный округ,район Гольяново,"1-й Иртышский проезд, дом 8, строение 1",(495) 644-36-64,55.813694486,37.758273052,зал теннисный №2,09:00-20:00,09:00-20:00,09:00-20:00,09:00-20:00,09:00-20:00,09:00-20:00,09:00-20:00,tennis
213,214,Фитнес-клуб «Премьер-спорт»,Западный административный округ,район Раменки,"улица Улофа Пальме, дом 5, строение 2",(499) 112-22-98,55.717950137,37.509241641,зал теннисный №4,07:00-23:00,07:00-23:00,07:00-23:00,07:00-23:00,07:00-23:00,09:00-23:00,09:00-23:00,tennis
214,215,Фитнес-клуб «Премьер-спорт»,Западный административный округ,район Раменки,"улица Улофа Пальме, дом 5, строение 2",(499) 112-22-98,55.71783438,37.509040475,зал теннисный №3,07:00-23:00,07:00-23:00,07:00-23:00,07:00-23:00,07:00-23:00,09:00-23:00,09:00-23:00,tennis
215,216,Физкультурно-оздоровительный комплекс «Комета» на Велозаводской,Юго-Восточный административный округ,Южнопортовый район,"Велозаводская улица, дом 5",(495) 675-07-01,55.715564609,37.66849331,зал теннисный,07:00-22:00,07:00-22:00,07:00-22:00,07:00-22:00,07:00-22:00,07:00-22:00,07:00-22:00,tennis
216,217,Московская Академия тенниса на проспекте Вернадского,Западный административный округ,район Тропарёво-Никулино,"проспект Вернадского, дом 97, корпус 2",(499) 431-66-16,55.66846699,37.493050462,зал теннисный №2,07:00-23:00,07:00-23:00,07:00-23:00,07:00-23:00,07:00-23:00,07:00-23:00,07:00-23:00,tennis
217,218,Московская Академия тенниса на проспекте Вернадского,Западный административный округ,район Тропарёво-Никулино,"проспект Вернадского, дом 97, корпус 2",(499) 431-66-16,55.668414123,37.493233056,зал теннисный №4,07:00-23:00,07:00-23:00,07:00-23:00,07:00-23:00,07:00-23:00,07:00-23:00,07:00-23:00,tennis
218,219,Московская Академия тенниса на проспекте Вернадского,Западный административный округ,район Тропарёво-Никулино,"проспект Вернадского, дом 97, корпус 2",(499) 431-66-16,55.668522131,37.492822267,зал теннисный №1,07:00-23:00,07:00-23:00,07:00-23:00,07:00-23:00,07:00-23:00,07:00-23:00,07:00-23:00,tennis
219,220,Теннисный центр «Спартак»,Восточный административный округ,район Сокольники,"Майский просек, дом 7, строение 7",(925) 278-79-03,55.804692169,37.683320476,зал теннисный №15,09:00-21:00,09:00-21:00,09:00-21:00,09:00-21:00,09:00-21:00,09:00-21:00,09:00-21:00,tennis
220,221,Теннисный центр «Спартак»,Восточный административный округ,район Сокольники,"Майский просек, дом 7, строение 7",(925) 278-79-03,55.804655158,37.683535053,зал теннисный №16,09:00-21:00,09:00-21:00,09:00-21:00,09:00-21:00,09:00-21:00,09:00-21:00,09:00-21:00,tennis
221,222,Фитнес-клуб «Легион»,Южный административный округ,район Братеево,"улица Борисовские Пруды, дом 12, корпус 2",(495) 505-06-21,55.635375655,37.744749521,зал теннисный №2,07:00-23:00,07:00-23:00,07:00-23:00,07:00-23:00,07:00-23:00,08:00-22:00,08:00-22:00,tennis
222,223,"Спортивный комплекс Российского государственного университета физической культуры, спорта, молодёжи и туризма на Сиреневом бульваре",Восточный административный округ,район Измайлово,"Сиреневый бульвар, дом 4, строение 4",(499) 961-31-11,55.800697527,37.76208319,"Зал теннисный, «Модуль Е»",08:00-21:00,08:00-21:00,08:00-21:00,08:00-21:00,08:00-21:00,08:00-21:00,08:00-21:00,tennis
223,224,Физкультурно-оздоровительный комплекс «Лаун теннис клаб»,Южный административный округ,район Москворечье-Сабурово,"Котляковская улица, дом 3, строение 1",(499) 619-37-37,55.643139941,37.633479697,зал теннисный №3,07:00-23:00,07:00-23:00,07:00-23:00,07:00-23:00,07:00-23:00,07:00-23:00,07:00-23:00,tennis
224,225,Физкультурно-оздоровительный комплекс «Лаун теннис клаб»,Южный административный округ,район Москворечье-Сабурово,"Котляковская улица, дом 3, строение 1",(499) 619-37-37,55.643337143,37.632444364,зал теннисный №2,07:00-23:00,07:00-23:00,07:00-23:00,07:00-23:00,07:00-23:00,07:00-23:00,07:00-23:00,tennis
225,226,Физкультурно-оздоровительный комплекс «Лаун теннис клаб»,Южный административный округ,район Москворечье-Сабурово,"Котляковская улица, дом 3, строение 1",(499) 619-37-37,55.643321215,37.631709439,зал теннисный №1,07:00-23:00,07:00-23:00,07:00-23:00,07:00-23:00,07:00-23:00,07:00-23:00,07:00-23:00,tennis
